<?xml version="1.0" encoding="UTF-8"?>
<gpx version="1.1" creator="LF Waterlinieroute dagetappe" xmlns:xsi="http://www.w3.org/2001/XMLSchema-instance" xmlns="http://www.topografix.com/GPX/1/1" xsi:schemaLocation="http://www.topografix.com/GPX/1/1 https://www.topografix.com/GPX/1/1/gpx.xsd"><metadata><name>Dag 2 - Naarden > Fort Bakkerskil</name></metadata><trk><name>Dag 2 - Naarden > Fort Bakkerskil</name><trkseg><trkpt lat="52.29601" lon="5.15931"></trkpt><trkpt lat="52.29587" lon="5.15914"></trkpt><trkpt lat="52.29544" lon="5.15875"></trkpt><trkpt lat="52.29525" lon="5.15864"></trkpt><trkpt lat="52.29515" lon="5.15863"></trkpt><trkpt lat="52.29481" lon="5.15873"></trkpt><trkpt lat="52.29464" lon="5.15882"></trkpt><trkpt lat="52.29435" lon="5.15904"></trkpt><trkpt lat="52.29419" lon="5.15926"></trkpt><trkpt lat="52.29381" lon="5.15834"></trkpt><trkpt lat="52.29370" lon="5.15818"></trkpt><trkpt lat="52.29353" lon="5.15804"></trkpt><trkpt lat="52.29340" lon="5.15800"></trkpt><trkpt lat="52.29314" lon="5.15804"></trkpt><trkpt lat="52.29230" lon="5.15835"></trkpt><trkpt lat="52.29207" lon="5.15836"></trkpt><trkpt lat="52.29186" lon="5.15818"></trkpt><trkpt lat="52.29164" lon="5.15782"></trkpt><trkpt lat="52.29112" lon="5.15689"></trkpt><trkpt lat="52.29071" lon="5.15603"></trkpt><trkpt lat="52.29059" lon="5.15565"></trkpt><trkpt lat="52.29041" lon="5.15492"></trkpt><trkpt lat="52.29036" lon="5.15459"></trkpt><trkpt lat="52.29025" lon="5.15352"></trkpt><trkpt lat="52.29022" lon="5.15318"></trkpt><trkpt lat="52.29025" lon="5.15259"></trkpt><trkpt lat="52.29021" lon="5.15218"></trkpt><trkpt lat="52.29026" lon="5.15197"></trkpt><trkpt lat="52.29022" lon="5.15165"></trkpt><trkpt lat="52.29012" lon="5.15163"></trkpt><trkpt lat="52.28999" lon="5.15146"></trkpt><trkpt lat="52.28995" lon="5.15124"></trkpt><trkpt lat="52.28988" lon="5.15114"></trkpt><trkpt lat="52.28961" lon="5.15087"></trkpt><trkpt lat="52.28949" lon="5.15080"></trkpt><trkpt lat="52.28931" lon="5.15081"></trkpt><trkpt lat="52.28897" lon="5.15049"></trkpt><trkpt lat="52.28948" lon="5.14913"></trkpt><trkpt lat="52.28987" lon="5.14840"></trkpt><trkpt lat="52.29055" lon="5.14736"></trkpt><trkpt lat="52.29129" lon="5.14627"></trkpt><trkpt lat="52.29155" lon="5.14587"></trkpt><trkpt lat="52.29159" lon="5.14578"></trkpt><trkpt lat="52.29130" lon="5.14555"></trkpt><trkpt lat="52.29079" lon="5.14497"></trkpt><trkpt lat="52.29029" lon="5.14444"></trkpt><trkpt lat="52.29002" lon="5.14352"></trkpt><trkpt lat="52.28999" lon="5.14344"></trkpt><trkpt lat="52.28991" lon="5.14335"></trkpt><trkpt lat="52.28893" lon="5.14318"></trkpt><trkpt lat="52.28880" lon="5.14327"></trkpt><trkpt lat="52.28730" lon="5.14311"></trkpt><trkpt lat="52.28665" lon="5.14300"></trkpt><trkpt lat="52.28552" lon="5.14266"></trkpt><trkpt lat="52.28509" lon="5.14256"></trkpt><trkpt lat="52.28472" lon="5.14227"></trkpt><trkpt lat="52.28421" lon="5.14205"></trkpt><trkpt lat="52.28342" lon="5.14177"></trkpt><trkpt lat="52.28252" lon="5.14135"></trkpt><trkpt lat="52.28234" lon="5.14122"></trkpt><trkpt lat="52.28125" lon="5.13991"></trkpt><trkpt lat="52.28081" lon="5.13948"></trkpt><trkpt lat="52.27986" lon="5.13827"></trkpt><trkpt lat="52.27961" lon="5.13787"></trkpt><trkpt lat="52.27878" lon="5.13676"></trkpt><trkpt lat="52.27860" lon="5.13643"></trkpt><trkpt lat="52.27810" lon="5.13475"></trkpt><trkpt lat="52.27800" lon="5.13453"></trkpt><trkpt lat="52.27786" lon="5.13407"></trkpt><trkpt lat="52.27756" lon="5.13290"></trkpt><trkpt lat="52.27539" lon="5.12512"></trkpt><trkpt lat="52.27505" lon="5.12394"></trkpt><trkpt lat="52.27494" lon="5.12405"></trkpt><trkpt lat="52.27479" lon="5.12415"></trkpt><trkpt lat="52.27445" lon="5.12445"></trkpt><trkpt lat="52.27348" lon="5.12526"></trkpt><trkpt lat="52.26914" lon="5.12939"></trkpt><trkpt lat="52.26679" lon="5.13157"></trkpt><trkpt lat="52.26194" lon="5.13598"></trkpt><trkpt lat="52.26145" lon="5.13653"></trkpt><trkpt lat="52.26085" lon="5.13757"></trkpt><trkpt lat="52.25983" lon="5.13968"></trkpt><trkpt lat="52.25967" lon="5.13970"></trkpt><trkpt lat="52.25970" lon="5.14144"></trkpt><trkpt lat="52.25886" lon="5.14153"></trkpt><trkpt lat="52.25664" lon="5.14168"></trkpt><trkpt lat="52.25608" lon="5.14176"></trkpt><trkpt lat="52.25411" lon="5.14342"></trkpt><trkpt lat="52.25350" lon="5.14391"></trkpt><trkpt lat="52.25305" lon="5.14419"></trkpt><trkpt lat="52.25273" lon="5.14448"></trkpt><trkpt lat="52.25268" lon="5.14188"></trkpt><trkpt lat="52.25261" lon="5.13991"></trkpt><trkpt lat="52.25158" lon="5.13990"></trkpt><trkpt lat="52.24913" lon="5.14001"></trkpt><trkpt lat="52.24910" lon="5.13769"></trkpt><trkpt lat="52.24893" lon="5.13051"></trkpt><trkpt lat="52.24894" lon="5.12967"></trkpt><trkpt lat="52.24891" lon="5.12867"></trkpt><trkpt lat="52.24886" lon="5.12786"></trkpt><trkpt lat="52.24878" lon="5.12118"></trkpt><trkpt lat="52.24920" lon="5.12116"></trkpt><trkpt lat="52.24924" lon="5.12134"></trkpt><trkpt lat="52.24938" lon="5.12134"></trkpt><trkpt lat="52.24938" lon="5.12115"></trkpt><trkpt lat="52.24938" lon="5.12134"></trkpt><trkpt lat="52.24957" lon="5.12126"></trkpt><trkpt lat="52.25002" lon="5.12123"></trkpt><trkpt lat="52.25208" lon="5.12113"></trkpt><trkpt lat="52.25236" lon="5.12115"></trkpt><trkpt lat="52.25336" lon="5.12108"></trkpt><trkpt lat="52.25366" lon="5.12113"></trkpt><trkpt lat="52.25392" lon="5.12111"></trkpt><trkpt lat="52.25415" lon="5.12104"></trkpt><trkpt lat="52.25542" lon="5.12098"></trkpt><trkpt lat="52.25546" lon="5.12098"></trkpt><trkpt lat="52.25567" lon="5.12120"></trkpt><trkpt lat="52.25631" lon="5.12116"></trkpt><trkpt lat="52.25639" lon="5.12118"></trkpt><trkpt lat="52.25648" lon="5.12126"></trkpt><trkpt lat="52.25676" lon="5.12166"></trkpt><trkpt lat="52.25892" lon="5.12483"></trkpt><trkpt lat="52.25899" lon="5.12512"></trkpt><trkpt lat="52.25914" lon="5.12501"></trkpt><trkpt lat="52.25923" lon="5.12473"></trkpt><trkpt lat="52.25923" lon="5.12463"></trkpt><trkpt lat="52.25935" lon="5.12438"></trkpt><trkpt lat="52.25937" lon="5.12431"></trkpt><trkpt lat="52.25936" lon="5.12421"></trkpt><trkpt lat="52.25939" lon="5.12404"></trkpt><trkpt lat="52.25988" lon="5.12243"></trkpt><trkpt lat="52.26178" lon="5.11640"></trkpt><trkpt lat="52.26203" lon="5.11553"></trkpt><trkpt lat="52.26352" lon="5.11086"></trkpt><trkpt lat="52.26357" lon="5.11076"></trkpt><trkpt lat="52.26361" lon="5.11061"></trkpt><trkpt lat="52.26367" lon="5.11048"></trkpt><trkpt lat="52.26412" lon="5.10910"></trkpt><trkpt lat="52.26430" lon="5.10847"></trkpt><trkpt lat="52.26449" lon="5.10787"></trkpt><trkpt lat="52.26463" lon="5.10727"></trkpt><trkpt lat="52.26576" lon="5.10364"></trkpt><trkpt lat="52.26657" lon="5.10110"></trkpt><trkpt lat="52.26662" lon="5.10100"></trkpt><trkpt lat="52.26667" lon="5.10076"></trkpt><trkpt lat="52.26688" lon="5.10009"></trkpt><trkpt lat="52.26707" lon="5.09939"></trkpt><trkpt lat="52.26691" lon="5.09922"></trkpt><trkpt lat="52.26652" lon="5.09891"></trkpt><trkpt lat="52.26575" lon="5.09846"></trkpt><trkpt lat="52.26486" lon="5.09800"></trkpt><trkpt lat="52.26219" lon="5.09647"></trkpt><trkpt lat="52.26119" lon="5.09594"></trkpt><trkpt lat="52.26071" lon="5.09567"></trkpt><trkpt lat="52.25962" lon="5.09510"></trkpt><trkpt lat="52.25961" lon="5.09503"></trkpt><trkpt lat="52.25963" lon="5.09490"></trkpt><trkpt lat="52.25957" lon="5.09482"></trkpt><trkpt lat="52.25956" lon="5.09469"></trkpt><trkpt lat="52.25967" lon="5.09427"></trkpt><trkpt lat="52.25985" lon="5.09383"></trkpt><trkpt lat="52.26117" lon="5.08929"></trkpt><trkpt lat="52.26140" lon="5.08842"></trkpt><trkpt lat="52.26204" lon="5.08556"></trkpt><trkpt lat="52.26302" lon="5.08143"></trkpt><trkpt lat="52.26317" lon="5.08068"></trkpt><trkpt lat="52.26366" lon="5.07757"></trkpt><trkpt lat="52.26477" lon="5.07073"></trkpt><trkpt lat="52.26493" lon="5.06861"></trkpt><trkpt lat="52.26504" lon="5.06845"></trkpt><trkpt lat="52.26505" lon="5.06840"></trkpt><trkpt lat="52.26504" lon="5.06822"></trkpt><trkpt lat="52.26503" lon="5.06817"></trkpt><trkpt lat="52.26486" lon="5.06815"></trkpt><trkpt lat="52.26462" lon="5.06830"></trkpt><trkpt lat="52.26289" lon="5.06875"></trkpt><trkpt lat="52.26278" lon="5.06881"></trkpt><trkpt lat="52.26194" lon="5.06953"></trkpt><trkpt lat="52.26145" lon="5.06981"></trkpt><trkpt lat="52.26138" lon="5.06980"></trkpt><trkpt lat="52.26121" lon="5.06967"></trkpt><trkpt lat="52.26083" lon="5.06896"></trkpt><trkpt lat="52.26043" lon="5.06754"></trkpt><trkpt lat="52.26034" lon="5.06730"></trkpt><trkpt lat="52.26030" lon="5.06722"></trkpt><trkpt lat="52.26011" lon="5.06697"></trkpt><trkpt lat="52.26003" lon="5.06679"></trkpt><trkpt lat="52.25975" lon="5.06548"></trkpt><trkpt lat="52.25956" lon="5.06516"></trkpt><trkpt lat="52.25904" lon="5.06414"></trkpt><trkpt lat="52.25817" lon="5.06227"></trkpt><trkpt lat="52.25770" lon="5.06136"></trkpt><trkpt lat="52.25727" lon="5.06021"></trkpt><trkpt lat="52.25726" lon="5.05993"></trkpt><trkpt lat="52.25736" lon="5.05958"></trkpt><trkpt lat="52.25743" lon="5.05912"></trkpt><trkpt lat="52.25745" lon="5.05878"></trkpt><trkpt lat="52.25743" lon="5.05831"></trkpt><trkpt lat="52.25722" lon="5.05618"></trkpt><trkpt lat="52.25690" lon="5.05535"></trkpt><trkpt lat="52.25681" lon="5.05477"></trkpt><trkpt lat="52.25675" lon="5.05468"></trkpt><trkpt lat="52.25662" lon="5.05463"></trkpt><trkpt lat="52.25651" lon="5.05449"></trkpt><trkpt lat="52.25566" lon="5.05234"></trkpt><trkpt lat="52.25554" lon="5.05188"></trkpt><trkpt lat="52.25549" lon="5.05162"></trkpt><trkpt lat="52.25547" lon="5.05125"></trkpt><trkpt lat="52.25552" lon="5.05066"></trkpt><trkpt lat="52.25566" lon="5.05010"></trkpt><trkpt lat="52.25571" lon="5.05000"></trkpt><trkpt lat="52.25579" lon="5.04974"></trkpt><trkpt lat="52.25605" lon="5.04875"></trkpt><trkpt lat="52.25619" lon="5.04774"></trkpt><trkpt lat="52.25619" lon="5.04742"></trkpt><trkpt lat="52.25612" lon="5.04697"></trkpt><trkpt lat="52.25606" lon="5.04669"></trkpt><trkpt lat="52.25595" lon="5.04649"></trkpt><trkpt lat="52.25623" lon="5.04586"></trkpt><trkpt lat="52.25655" lon="5.04502"></trkpt><trkpt lat="52.25671" lon="5.04488"></trkpt><trkpt lat="52.25680" lon="5.04462"></trkpt><trkpt lat="52.25658" lon="5.04444"></trkpt><trkpt lat="52.25645" lon="5.04396"></trkpt><trkpt lat="52.25571" lon="5.04384"></trkpt><trkpt lat="52.25555" lon="5.04387"></trkpt><trkpt lat="52.25505" lon="5.04410"></trkpt><trkpt lat="52.25490" lon="5.04419"></trkpt><trkpt lat="52.25430" lon="5.04462"></trkpt><trkpt lat="52.25388" lon="5.04507"></trkpt><trkpt lat="52.25314" lon="5.04591"></trkpt><trkpt lat="52.25301" lon="5.04561"></trkpt><trkpt lat="52.25282" lon="5.04526"></trkpt><trkpt lat="52.25265" lon="5.04504"></trkpt><trkpt lat="52.25250" lon="5.04491"></trkpt><trkpt lat="52.25237" lon="5.04488"></trkpt><trkpt lat="52.25213" lon="5.04490"></trkpt><trkpt lat="52.25174" lon="5.04502"></trkpt><trkpt lat="52.25079" lon="5.04537"></trkpt><trkpt lat="52.25020" lon="5.04570"></trkpt><trkpt lat="52.25000" lon="5.04583"></trkpt><trkpt lat="52.24950" lon="5.04627"></trkpt><trkpt lat="52.24925" lon="5.04668"></trkpt><trkpt lat="52.24905" lon="5.04694"></trkpt><trkpt lat="52.24886" lon="5.04713"></trkpt><trkpt lat="52.24874" lon="5.04720"></trkpt><trkpt lat="52.24852" lon="5.04723"></trkpt><trkpt lat="52.24828" lon="5.04718"></trkpt><trkpt lat="52.24780" lon="5.04696"></trkpt><trkpt lat="52.24629" lon="5.04670"></trkpt><trkpt lat="52.24599" lon="5.04670"></trkpt><trkpt lat="52.24528" lon="5.04685"></trkpt><trkpt lat="52.24498" lon="5.04700"></trkpt><trkpt lat="52.24455" lon="5.04731"></trkpt><trkpt lat="52.24394" lon="5.04784"></trkpt><trkpt lat="52.24382" lon="5.04783"></trkpt><trkpt lat="52.24369" lon="5.04785"></trkpt><trkpt lat="52.24360" lon="5.04754"></trkpt><trkpt lat="52.24353" lon="5.04745"></trkpt><trkpt lat="52.24342" lon="5.04750"></trkpt><trkpt lat="52.24336" lon="5.04737"></trkpt><trkpt lat="52.24331" lon="5.04721"></trkpt><trkpt lat="52.24322" lon="5.04734"></trkpt><trkpt lat="52.24290" lon="5.04770"></trkpt><trkpt lat="52.24229" lon="5.04823"></trkpt><trkpt lat="52.24207" lon="5.04835"></trkpt><trkpt lat="52.24176" lon="5.04866"></trkpt><trkpt lat="52.24137" lon="5.04912"></trkpt><trkpt lat="52.24114" lon="5.04947"></trkpt><trkpt lat="52.23741" lon="5.05583"></trkpt><trkpt lat="52.23717" lon="5.05630"></trkpt><trkpt lat="52.23707" lon="5.05644"></trkpt><trkpt lat="52.23659" lon="5.05690"></trkpt><trkpt lat="52.23605" lon="5.05739"></trkpt><trkpt lat="52.23541" lon="5.05786"></trkpt><trkpt lat="52.23532" lon="5.05785"></trkpt><trkpt lat="52.23525" lon="5.05772"></trkpt><trkpt lat="52.23516" lon="5.05774"></trkpt><trkpt lat="52.23505" lon="5.05781"></trkpt><trkpt lat="52.23485" lon="5.05790"></trkpt><trkpt lat="52.23482" lon="5.05739"></trkpt><trkpt lat="52.23466" lon="5.05644"></trkpt><trkpt lat="52.23433" lon="5.05521"></trkpt><trkpt lat="52.23076" lon="5.04400"></trkpt><trkpt lat="52.22995" lon="5.04155"></trkpt><trkpt lat="52.22963" lon="5.04067"></trkpt><trkpt lat="52.22930" lon="5.03983"></trkpt><trkpt lat="52.22888" lon="5.03856"></trkpt><trkpt lat="52.22857" lon="5.03832"></trkpt><trkpt lat="52.22853" lon="5.03835"></trkpt><trkpt lat="52.22842" lon="5.03787"></trkpt><trkpt lat="52.22806" lon="5.03565"></trkpt><trkpt lat="52.22799" lon="5.03462"></trkpt><trkpt lat="52.22792" lon="5.03447"></trkpt><trkpt lat="52.22777" lon="5.03437"></trkpt><trkpt lat="52.22750" lon="5.03403"></trkpt><trkpt lat="52.22730" lon="5.03395"></trkpt><trkpt lat="52.22709" lon="5.03394"></trkpt><trkpt lat="52.22687" lon="5.03397"></trkpt><trkpt lat="52.22668" lon="5.03407"></trkpt><trkpt lat="52.22657" lon="5.03410"></trkpt><trkpt lat="52.22555" lon="5.03386"></trkpt><trkpt lat="52.22507" lon="5.03385"></trkpt><trkpt lat="52.22467" lon="5.03382"></trkpt><trkpt lat="52.22397" lon="5.03384"></trkpt><trkpt lat="52.22361" lon="5.03387"></trkpt><trkpt lat="52.22343" lon="5.03395"></trkpt><trkpt lat="52.22289" lon="5.03430"></trkpt><trkpt lat="52.22240" lon="5.03470"></trkpt><trkpt lat="52.22206" lon="5.03488"></trkpt><trkpt lat="52.22178" lon="5.03494"></trkpt><trkpt lat="52.22125" lon="5.03482"></trkpt><trkpt lat="52.22089" lon="5.03465"></trkpt><trkpt lat="52.22061" lon="5.03448"></trkpt><trkpt lat="52.22035" lon="5.03422"></trkpt><trkpt lat="52.22004" lon="5.03379"></trkpt><trkpt lat="52.21984" lon="5.03342"></trkpt><trkpt lat="52.21966" lon="5.03303"></trkpt><trkpt lat="52.21939" lon="5.03229"></trkpt><trkpt lat="52.21914" lon="5.03152"></trkpt><trkpt lat="52.21892" lon="5.03075"></trkpt><trkpt lat="52.21882" lon="5.03055"></trkpt><trkpt lat="52.21876" lon="5.03051"></trkpt><trkpt lat="52.21870" lon="5.03051"></trkpt><trkpt lat="52.21862" lon="5.03058"></trkpt><trkpt lat="52.21822" lon="5.03134"></trkpt><trkpt lat="52.21810" lon="5.03150"></trkpt><trkpt lat="52.21774" lon="5.03181"></trkpt><trkpt lat="52.21686" lon="5.03232"></trkpt><trkpt lat="52.21652" lon="5.03235"></trkpt><trkpt lat="52.21541" lon="5.03202"></trkpt><trkpt lat="52.21531" lon="5.03197"></trkpt><trkpt lat="52.21508" lon="5.03176"></trkpt><trkpt lat="52.21488" lon="5.03167"></trkpt><trkpt lat="52.21424" lon="5.03152"></trkpt><trkpt lat="52.21370" lon="5.03127"></trkpt><trkpt lat="52.21199" lon="5.03024"></trkpt><trkpt lat="52.21140" lon="5.02992"></trkpt><trkpt lat="52.21043" lon="5.02946"></trkpt><trkpt lat="52.21024" lon="5.02930"></trkpt><trkpt lat="52.20960" lon="5.02854"></trkpt><trkpt lat="52.20939" lon="5.02825"></trkpt><trkpt lat="52.20927" lon="5.02804"></trkpt><trkpt lat="52.20897" lon="5.02730"></trkpt><trkpt lat="52.20882" lon="5.02698"></trkpt><trkpt lat="52.20874" lon="5.02675"></trkpt><trkpt lat="52.20856" lon="5.02596"></trkpt><trkpt lat="52.20813" lon="5.02453"></trkpt><trkpt lat="52.20798" lon="5.02424"></trkpt><trkpt lat="52.20764" lon="5.02371"></trkpt><trkpt lat="52.20733" lon="5.02333"></trkpt><trkpt lat="52.20651" lon="5.02257"></trkpt><trkpt lat="52.20607" lon="5.02229"></trkpt><trkpt lat="52.20522" lon="5.02194"></trkpt><trkpt lat="52.20471" lon="5.02171"></trkpt><trkpt lat="52.20457" lon="5.02167"></trkpt><trkpt lat="52.20411" lon="5.02146"></trkpt><trkpt lat="52.20368" lon="5.02131"></trkpt><trkpt lat="52.20348" lon="5.02127"></trkpt><trkpt lat="52.20326" lon="5.02130"></trkpt><trkpt lat="52.20299" lon="5.02138"></trkpt><trkpt lat="52.20257" lon="5.02160"></trkpt><trkpt lat="52.20244" lon="5.02155"></trkpt><trkpt lat="52.20191" lon="5.02122"></trkpt><trkpt lat="52.20116" lon="5.02089"></trkpt><trkpt lat="52.20085" lon="5.02072"></trkpt><trkpt lat="52.20064" lon="5.02055"></trkpt><trkpt lat="52.19994" lon="5.01991"></trkpt><trkpt lat="52.19927" lon="5.01911"></trkpt><trkpt lat="52.19823" lon="5.01782"></trkpt><trkpt lat="52.19783" lon="5.01726"></trkpt><trkpt lat="52.19733" lon="5.01675"></trkpt><trkpt lat="52.19699" lon="5.01627"></trkpt><trkpt lat="52.19642" lon="5.01514"></trkpt><trkpt lat="52.19615" lon="5.01472"></trkpt><trkpt lat="52.19601" lon="5.01437"></trkpt><trkpt lat="52.19584" lon="5.01378"></trkpt><trkpt lat="52.19578" lon="5.01336"></trkpt><trkpt lat="52.19575" lon="5.01296"></trkpt><trkpt lat="52.19577" lon="5.01250"></trkpt><trkpt lat="52.19589" lon="5.01128"></trkpt><trkpt lat="52.19590" lon="5.01095"></trkpt><trkpt lat="52.19587" lon="5.01061"></trkpt><trkpt lat="52.19576" lon="5.01017"></trkpt><trkpt lat="52.19577" lon="5.01008"></trkpt><trkpt lat="52.19582" lon="5.01001"></trkpt><trkpt lat="52.19607" lon="5.00987"></trkpt><trkpt lat="52.19613" lon="5.00980"></trkpt><trkpt lat="52.19618" lon="5.00969"></trkpt><trkpt lat="52.19619" lon="5.00957"></trkpt><trkpt lat="52.19615" lon="5.00905"></trkpt><trkpt lat="52.19608" lon="5.00871"></trkpt><trkpt lat="52.19591" lon="5.00815"></trkpt><trkpt lat="52.19587" lon="5.00812"></trkpt><trkpt lat="52.19523" lon="5.00662"></trkpt><trkpt lat="52.19487" lon="5.00600"></trkpt><trkpt lat="52.19468" lon="5.00572"></trkpt><trkpt lat="52.19448" lon="5.00553"></trkpt><trkpt lat="52.19417" lon="5.00531"></trkpt><trkpt lat="52.19383" lon="5.00517"></trkpt><trkpt lat="52.19368" lon="5.00513"></trkpt><trkpt lat="52.19258" lon="5.00512"></trkpt><trkpt lat="52.19219" lon="5.00529"></trkpt><trkpt lat="52.19166" lon="5.00570"></trkpt><trkpt lat="52.19147" lon="5.00580"></trkpt><trkpt lat="52.19066" lon="5.00615"></trkpt><trkpt lat="52.18839" lon="5.00754"></trkpt><trkpt lat="52.18748" lon="5.00814"></trkpt><trkpt lat="52.18717" lon="5.00830"></trkpt><trkpt lat="52.18695" lon="5.00834"></trkpt><trkpt lat="52.18664" lon="5.00832"></trkpt><trkpt lat="52.18648" lon="5.00824"></trkpt><trkpt lat="52.18606" lon="5.00789"></trkpt><trkpt lat="52.18591" lon="5.00786"></trkpt><trkpt lat="52.18544" lon="5.00807"></trkpt><trkpt lat="52.18529" lon="5.00807"></trkpt><trkpt lat="52.18500" lon="5.00784"></trkpt><trkpt lat="52.18483" lon="5.00776"></trkpt><trkpt lat="52.18237" lon="5.00705"></trkpt><trkpt lat="52.18170" lon="5.00693"></trkpt><trkpt lat="52.18148" lon="5.00684"></trkpt><trkpt lat="52.18130" lon="5.00671"></trkpt><trkpt lat="52.18070" lon="5.00610"></trkpt><trkpt lat="52.18015" lon="5.00568"></trkpt><trkpt lat="52.17945" lon="5.00494"></trkpt><trkpt lat="52.17886" lon="5.00447"></trkpt><trkpt lat="52.17845" lon="5.00425"></trkpt><trkpt lat="52.17701" lon="5.00371"></trkpt><trkpt lat="52.17648" lon="5.00353"></trkpt><trkpt lat="52.17599" lon="5.00340"></trkpt><trkpt lat="52.17534" lon="5.00342"></trkpt><trkpt lat="52.17453" lon="5.00341"></trkpt><trkpt lat="52.17433" lon="5.00344"></trkpt><trkpt lat="52.17412" lon="5.00354"></trkpt><trkpt lat="52.17313" lon="5.00420"></trkpt><trkpt lat="52.17300" lon="5.00430"></trkpt><trkpt lat="52.17289" lon="5.00440"></trkpt><trkpt lat="52.17248" lon="5.00488"></trkpt><trkpt lat="52.17237" lon="5.00505"></trkpt><trkpt lat="52.17241" lon="5.00531"></trkpt><trkpt lat="52.17254" lon="5.00679"></trkpt><trkpt lat="52.17289" lon="5.01009"></trkpt><trkpt lat="52.17294" lon="5.01015"></trkpt><trkpt lat="52.17318" lon="5.01023"></trkpt><trkpt lat="52.17323" lon="5.01031"></trkpt><trkpt lat="52.17329" lon="5.01057"></trkpt><trkpt lat="52.17334" lon="5.01131"></trkpt><trkpt lat="52.17353" lon="5.01548"></trkpt><trkpt lat="52.17379" lon="5.02209"></trkpt><trkpt lat="52.17355" lon="5.02216"></trkpt><trkpt lat="52.17207" lon="5.02276"></trkpt><trkpt lat="52.17112" lon="5.02309"></trkpt><trkpt lat="52.17067" lon="5.02334"></trkpt><trkpt lat="52.16995" lon="5.02386"></trkpt><trkpt lat="52.16924" lon="5.02449"></trkpt><trkpt lat="52.16723" lon="5.02599"></trkpt><trkpt lat="52.16669" lon="5.02644"></trkpt><trkpt lat="52.16595" lon="5.02696"></trkpt><trkpt lat="52.16440" lon="5.02817"></trkpt><trkpt lat="52.16437" lon="5.02818"></trkpt><trkpt lat="52.16300" lon="5.02923"></trkpt><trkpt lat="52.16284" lon="5.02931"></trkpt><trkpt lat="52.16255" lon="5.02963"></trkpt><trkpt lat="52.16261" lon="5.03035"></trkpt><trkpt lat="52.16258" lon="5.03053"></trkpt><trkpt lat="52.16247" lon="5.03088"></trkpt><trkpt lat="52.16246" lon="5.03101"></trkpt><trkpt lat="52.16247" lon="5.03133"></trkpt><trkpt lat="52.16232" lon="5.03163"></trkpt><trkpt lat="52.16236" lon="5.03177"></trkpt><trkpt lat="52.16232" lon="5.03188"></trkpt><trkpt lat="52.16243" lon="5.03241"></trkpt><trkpt lat="52.16266" lon="5.03332"></trkpt><trkpt lat="52.16443" lon="5.04103"></trkpt><trkpt lat="52.16451" lon="5.04126"></trkpt><trkpt lat="52.16465" lon="5.04197"></trkpt><trkpt lat="52.16531" lon="5.04484"></trkpt><trkpt lat="52.16535" lon="5.04495"></trkpt><trkpt lat="52.16543" lon="5.04503"></trkpt><trkpt lat="52.16576" lon="5.04644"></trkpt><trkpt lat="52.16528" lon="5.04682"></trkpt><trkpt lat="52.16483" lon="5.04712"></trkpt><trkpt lat="52.16377" lon="5.04779"></trkpt><trkpt lat="52.16316" lon="5.04814"></trkpt><trkpt lat="52.16201" lon="5.04875"></trkpt><trkpt lat="52.15727" lon="5.05179"></trkpt><trkpt lat="52.15700" lon="5.05190"></trkpt><trkpt lat="52.15688" lon="5.05191"></trkpt><trkpt lat="52.15804" lon="5.05712"></trkpt><trkpt lat="52.15866" lon="5.05978"></trkpt><trkpt lat="52.15853" lon="5.05984"></trkpt><trkpt lat="52.14860" lon="5.06579"></trkpt><trkpt lat="52.14854" lon="5.06588"></trkpt><trkpt lat="52.14738" lon="5.06359"></trkpt><trkpt lat="52.14696" lon="5.06251"></trkpt><trkpt lat="52.14683" lon="5.06226"></trkpt><trkpt lat="52.14660" lon="5.06262"></trkpt><trkpt lat="52.14644" lon="5.06291"></trkpt><trkpt lat="52.14612" lon="5.06351"></trkpt><trkpt lat="52.14565" lon="5.06444"></trkpt><trkpt lat="52.14533" lon="5.06501"></trkpt><trkpt lat="52.14376" lon="5.06809"></trkpt><trkpt lat="52.14355" lon="5.06856"></trkpt><trkpt lat="52.14299" lon="5.07003"></trkpt><trkpt lat="52.14263" lon="5.07077"></trkpt><trkpt lat="52.14209" lon="5.07199"></trkpt><trkpt lat="52.14162" lon="5.07314"></trkpt><trkpt lat="52.14144" lon="5.07338"></trkpt><trkpt lat="52.14139" lon="5.07329"></trkpt><trkpt lat="52.14127" lon="5.07319"></trkpt><trkpt lat="52.14109" lon="5.07297"></trkpt><trkpt lat="52.14017" lon="5.07164"></trkpt><trkpt lat="52.14000" lon="5.07149"></trkpt><trkpt lat="52.13977" lon="5.07136"></trkpt><trkpt lat="52.13952" lon="5.07133"></trkpt><trkpt lat="52.13934" lon="5.07134"></trkpt><trkpt lat="52.13925" lon="5.07130"></trkpt><trkpt lat="52.13902" lon="5.07108"></trkpt><trkpt lat="52.13887" lon="5.07088"></trkpt><trkpt lat="52.13862" lon="5.07048"></trkpt><trkpt lat="52.13860" lon="5.07026"></trkpt><trkpt lat="52.13868" lon="5.06929"></trkpt><trkpt lat="52.13703" lon="5.06700"></trkpt><trkpt lat="52.13694" lon="5.06711"></trkpt><trkpt lat="52.13561" lon="5.06753"></trkpt><trkpt lat="52.13551" lon="5.06752"></trkpt><trkpt lat="52.13449" lon="5.06607"></trkpt><trkpt lat="52.13438" lon="5.06599"></trkpt><trkpt lat="52.13383" lon="5.06533"></trkpt><trkpt lat="52.13382" lon="5.06526"></trkpt><trkpt lat="52.13384" lon="5.06515"></trkpt><trkpt lat="52.13356" lon="5.06484"></trkpt><trkpt lat="52.13311" lon="5.06425"></trkpt><trkpt lat="52.13285" lon="5.06374"></trkpt><trkpt lat="52.13272" lon="5.06388"></trkpt><trkpt lat="52.13256" lon="5.06409"></trkpt><trkpt lat="52.13235" lon="5.06445"></trkpt><trkpt lat="52.13178" lon="5.06525"></trkpt><trkpt lat="52.13164" lon="5.06561"></trkpt><trkpt lat="52.13155" lon="5.06591"></trkpt><trkpt lat="52.13129" lon="5.06734"></trkpt><trkpt lat="52.13121" lon="5.06764"></trkpt><trkpt lat="52.13104" lon="5.06800"></trkpt><trkpt lat="52.13085" lon="5.06831"></trkpt><trkpt lat="52.13060" lon="5.06855"></trkpt><trkpt lat="52.13018" lon="5.06887"></trkpt><trkpt lat="52.13000" lon="5.06894"></trkpt><trkpt lat="52.12960" lon="5.06906"></trkpt><trkpt lat="52.12912" lon="5.06932"></trkpt><trkpt lat="52.12885" lon="5.06935"></trkpt><trkpt lat="52.12845" lon="5.06948"></trkpt><trkpt lat="52.12817" lon="5.06964"></trkpt><trkpt lat="52.12769" lon="5.07010"></trkpt><trkpt lat="52.12761" lon="5.07012"></trkpt><trkpt lat="52.12752" lon="5.07008"></trkpt><trkpt lat="52.12745" lon="5.07015"></trkpt><trkpt lat="52.12725" lon="5.07049"></trkpt><trkpt lat="52.12678" lon="5.07119"></trkpt><trkpt lat="52.12590" lon="5.07220"></trkpt><trkpt lat="52.12552" lon="5.07258"></trkpt><trkpt lat="52.12681" lon="5.07484"></trkpt><trkpt lat="52.12712" lon="5.07535"></trkpt><trkpt lat="52.12724" lon="5.07558"></trkpt><trkpt lat="52.12635" lon="5.07720"></trkpt><trkpt lat="52.12512" lon="5.07950"></trkpt><trkpt lat="52.12286" lon="5.08335"></trkpt><trkpt lat="52.12278" lon="5.08335"></trkpt><trkpt lat="52.12274" lon="5.08331"></trkpt><trkpt lat="52.12239" lon="5.08279"></trkpt><trkpt lat="52.12200" lon="5.08236"></trkpt><trkpt lat="52.12167" lon="5.08208"></trkpt><trkpt lat="52.12119" lon="5.08187"></trkpt><trkpt lat="52.12111" lon="5.08189"></trkpt><trkpt lat="52.12106" lon="5.08196"></trkpt><trkpt lat="52.12035" lon="5.08455"></trkpt><trkpt lat="52.12014" lon="5.08517"></trkpt><trkpt lat="52.12006" lon="5.08519"></trkpt><trkpt lat="52.12004" lon="5.08507"></trkpt><trkpt lat="52.11999" lon="5.08501"></trkpt><trkpt lat="52.11912" lon="5.08475"></trkpt><trkpt lat="52.11900" lon="5.08623"></trkpt><trkpt lat="52.11892" lon="5.08660"></trkpt><trkpt lat="52.11871" lon="5.08878"></trkpt><trkpt lat="52.11847" lon="5.09017"></trkpt><trkpt lat="52.11847" lon="5.09035"></trkpt><trkpt lat="52.11855" lon="5.09056"></trkpt><trkpt lat="52.11949" lon="5.09143"></trkpt><trkpt lat="52.12009" lon="5.09208"></trkpt><trkpt lat="52.12081" lon="5.09289"></trkpt><trkpt lat="52.12110" lon="5.09293"></trkpt><trkpt lat="52.12146" lon="5.09332"></trkpt><trkpt lat="52.12157" lon="5.09375"></trkpt><trkpt lat="52.12305" lon="5.09544"></trkpt><trkpt lat="52.12328" lon="5.09553"></trkpt><trkpt lat="52.12362" lon="5.09589"></trkpt><trkpt lat="52.12385" lon="5.09617"></trkpt><trkpt lat="52.12393" lon="5.09643"></trkpt><trkpt lat="52.12519" lon="5.09782"></trkpt><trkpt lat="52.12701" lon="5.09995"></trkpt><trkpt lat="52.12836" lon="5.10147"></trkpt><trkpt lat="52.12843" lon="5.10082"></trkpt><trkpt lat="52.12846" lon="5.10038"></trkpt><trkpt lat="52.12845" lon="5.09992"></trkpt><trkpt lat="52.12848" lon="5.09996"></trkpt><trkpt lat="52.12859" lon="5.09998"></trkpt><trkpt lat="52.12898" lon="5.10016"></trkpt><trkpt lat="52.12883" lon="5.10051"></trkpt><trkpt lat="52.12876" lon="5.10080"></trkpt><trkpt lat="52.12864" lon="5.10162"></trkpt><trkpt lat="52.12864" lon="5.10174"></trkpt><trkpt lat="52.12875" lon="5.10182"></trkpt><trkpt lat="52.12876" lon="5.10188"></trkpt><trkpt lat="52.12928" lon="5.10253"></trkpt><trkpt lat="52.12929" lon="5.10261"></trkpt><trkpt lat="52.12891" lon="5.10338"></trkpt><trkpt lat="52.12909" lon="5.10365"></trkpt><trkpt lat="52.12912" lon="5.10378"></trkpt><trkpt lat="52.12913" lon="5.10390"></trkpt><trkpt lat="52.12911" lon="5.10405"></trkpt><trkpt lat="52.12898" lon="5.10429"></trkpt><trkpt lat="52.12897" lon="5.10435"></trkpt><trkpt lat="52.12908" lon="5.10453"></trkpt><trkpt lat="52.13048" lon="5.10608"></trkpt><trkpt lat="52.13058" lon="5.10614"></trkpt><trkpt lat="52.13074" lon="5.10615"></trkpt><trkpt lat="52.13082" lon="5.10622"></trkpt><trkpt lat="52.13128" lon="5.10722"></trkpt><trkpt lat="52.13149" lon="5.10761"></trkpt><trkpt lat="52.13153" lon="5.10766"></trkpt><trkpt lat="52.13083" lon="5.10931"></trkpt><trkpt lat="52.12918" lon="5.11328"></trkpt><trkpt lat="52.12915" lon="5.11340"></trkpt><trkpt lat="52.12916" lon="5.11353"></trkpt><trkpt lat="52.12939" lon="5.11430"></trkpt><trkpt lat="52.12937" lon="5.11444"></trkpt><trkpt lat="52.12913" lon="5.11498"></trkpt><trkpt lat="52.12914" lon="5.11510"></trkpt><trkpt lat="52.12922" lon="5.11522"></trkpt><trkpt lat="52.13475" lon="5.12146"></trkpt><trkpt lat="52.13244" lon="5.12702"></trkpt><trkpt lat="52.13223" lon="5.12745"></trkpt><trkpt lat="52.13219" lon="5.12749"></trkpt><trkpt lat="52.13205" lon="5.12749"></trkpt><trkpt lat="52.12669" lon="5.12150"></trkpt><trkpt lat="52.12511" lon="5.11978"></trkpt><trkpt lat="52.12409" lon="5.12224"></trkpt><trkpt lat="52.12389" lon="5.12280"></trkpt><trkpt lat="52.12388" lon="5.12289"></trkpt><trkpt lat="52.12393" lon="5.12302"></trkpt><trkpt lat="52.12440" lon="5.12374"></trkpt><trkpt lat="52.12440" lon="5.12382"></trkpt><trkpt lat="52.12387" lon="5.12595"></trkpt><trkpt lat="52.12462" lon="5.12644"></trkpt><trkpt lat="52.12611" lon="5.12737"></trkpt><trkpt lat="52.12691" lon="5.12791"></trkpt><trkpt lat="52.12825" lon="5.12873"></trkpt><trkpt lat="52.12831" lon="5.12881"></trkpt><trkpt lat="52.12832" lon="5.12888"></trkpt><trkpt lat="52.12810" lon="5.12925"></trkpt><trkpt lat="52.12761" lon="5.13038"></trkpt><trkpt lat="52.12761" lon="5.13072"></trkpt><trkpt lat="52.12765" lon="5.13093"></trkpt><trkpt lat="52.12780" lon="5.13117"></trkpt><trkpt lat="52.12832" lon="5.13168"></trkpt><trkpt lat="52.12861" lon="5.13186"></trkpt><trkpt lat="52.12837" lon="5.13262"></trkpt><trkpt lat="52.12819" lon="5.13330"></trkpt><trkpt lat="52.12799" lon="5.13414"></trkpt><trkpt lat="52.12789" lon="5.13442"></trkpt><trkpt lat="52.12777" lon="5.13435"></trkpt><trkpt lat="52.12758" lon="5.13430"></trkpt><trkpt lat="52.12519" lon="5.13281"></trkpt><trkpt lat="52.12508" lon="5.13271"></trkpt><trkpt lat="52.12459" lon="5.13235"></trkpt><trkpt lat="52.12419" lon="5.13210"></trkpt><trkpt lat="52.12362" lon="5.13461"></trkpt><trkpt lat="52.12328" lon="5.13604"></trkpt><trkpt lat="52.12201" lon="5.13527"></trkpt><trkpt lat="52.12196" lon="5.13527"></trkpt><trkpt lat="52.12191" lon="5.13534"></trkpt><trkpt lat="52.12068" lon="5.14087"></trkpt><trkpt lat="52.12068" lon="5.14132"></trkpt><trkpt lat="52.12063" lon="5.14160"></trkpt><trkpt lat="52.12060" lon="5.14169"></trkpt><trkpt lat="52.12042" lon="5.14170"></trkpt><trkpt lat="52.12002" lon="5.14167"></trkpt><trkpt lat="52.11965" lon="5.14153"></trkpt><trkpt lat="52.11928" lon="5.14130"></trkpt><trkpt lat="52.11891" lon="5.14097"></trkpt><trkpt lat="52.11870" lon="5.14063"></trkpt><trkpt lat="52.11856" lon="5.14017"></trkpt><trkpt lat="52.11838" lon="5.14006"></trkpt><trkpt lat="52.11822" lon="5.14008"></trkpt><trkpt lat="52.11764" lon="5.13976"></trkpt><trkpt lat="52.11705" lon="5.13986"></trkpt><trkpt lat="52.11696" lon="5.13979"></trkpt><trkpt lat="52.11673" lon="5.13919"></trkpt><trkpt lat="52.11667" lon="5.13914"></trkpt><trkpt lat="52.11568" lon="5.13856"></trkpt><trkpt lat="52.11526" lon="5.13837"></trkpt><trkpt lat="52.11516" lon="5.13839"></trkpt><trkpt lat="52.11505" lon="5.13846"></trkpt><trkpt lat="52.11474" lon="5.13875"></trkpt><trkpt lat="52.11459" lon="5.13880"></trkpt><trkpt lat="52.11374" lon="5.13860"></trkpt><trkpt lat="52.11383" lon="5.13882"></trkpt><trkpt lat="52.11390" lon="5.13914"></trkpt><trkpt lat="52.11386" lon="5.13972"></trkpt><trkpt lat="52.11387" lon="5.13999"></trkpt><trkpt lat="52.11397" lon="5.14028"></trkpt><trkpt lat="52.11427" lon="5.14066"></trkpt><trkpt lat="52.11487" lon="5.14126"></trkpt><trkpt lat="52.11516" lon="5.14147"></trkpt><trkpt lat="52.11556" lon="5.14171"></trkpt><trkpt lat="52.11547" lon="5.14205"></trkpt><trkpt lat="52.11517" lon="5.14257"></trkpt><trkpt lat="52.11509" lon="5.14266"></trkpt><trkpt lat="52.11503" lon="5.14270"></trkpt><trkpt lat="52.11495" lon="5.14280"></trkpt><trkpt lat="52.11424" lon="5.14391"></trkpt><trkpt lat="52.11421" lon="5.14399"></trkpt><trkpt lat="52.11449" lon="5.14519"></trkpt><trkpt lat="52.11434" lon="5.14593"></trkpt><trkpt lat="52.11423" lon="5.14656"></trkpt><trkpt lat="52.11408" lon="5.14713"></trkpt><trkpt lat="52.11395" lon="5.14757"></trkpt><trkpt lat="52.11370" lon="5.14854"></trkpt><trkpt lat="52.11338" lon="5.14965"></trkpt><trkpt lat="52.11310" lon="5.15047"></trkpt><trkpt lat="52.11096" lon="5.15446"></trkpt><trkpt lat="52.10998" lon="5.15670"></trkpt><trkpt lat="52.10996" lon="5.15686"></trkpt><trkpt lat="52.10998" lon="5.15698"></trkpt><trkpt lat="52.11006" lon="5.15707"></trkpt><trkpt lat="52.11056" lon="5.15737"></trkpt><trkpt lat="52.11064" lon="5.15749"></trkpt><trkpt lat="52.11069" lon="5.15770"></trkpt><trkpt lat="52.11072" lon="5.15808"></trkpt><trkpt lat="52.11071" lon="5.15826"></trkpt><trkpt lat="52.11065" lon="5.15870"></trkpt><trkpt lat="52.11034" lon="5.16053"></trkpt><trkpt lat="52.11027" lon="5.16070"></trkpt><trkpt lat="52.11001" lon="5.16086"></trkpt><trkpt lat="52.10986" lon="5.16087"></trkpt><trkpt lat="52.10959" lon="5.16069"></trkpt><trkpt lat="52.10912" lon="5.16033"></trkpt><trkpt lat="52.10905" lon="5.16038"></trkpt><trkpt lat="52.10901" lon="5.16045"></trkpt><trkpt lat="52.10892" lon="5.16094"></trkpt><trkpt lat="52.10885" lon="5.16175"></trkpt><trkpt lat="52.10877" lon="5.16222"></trkpt><trkpt lat="52.10845" lon="5.16377"></trkpt><trkpt lat="52.10824" lon="5.16493"></trkpt><trkpt lat="52.10795" lon="5.16637"></trkpt><trkpt lat="52.10793" lon="5.16655"></trkpt><trkpt lat="52.10794" lon="5.16691"></trkpt><trkpt lat="52.10804" lon="5.16736"></trkpt><trkpt lat="52.10820" lon="5.16756"></trkpt><trkpt lat="52.10833" lon="5.16779"></trkpt><trkpt lat="52.10837" lon="5.16792"></trkpt><trkpt lat="52.10822" lon="5.16858"></trkpt><trkpt lat="52.10810" lon="5.16886"></trkpt><trkpt lat="52.10792" lon="5.16911"></trkpt><trkpt lat="52.10780" lon="5.16921"></trkpt><trkpt lat="52.10762" lon="5.16942"></trkpt><trkpt lat="52.10748" lon="5.16970"></trkpt><trkpt lat="52.10734" lon="5.16956"></trkpt><trkpt lat="52.10726" lon="5.16982"></trkpt><trkpt lat="52.10718" lon="5.17022"></trkpt><trkpt lat="52.10719" lon="5.17042"></trkpt><trkpt lat="52.10605" lon="5.17607"></trkpt><trkpt lat="52.10567" lon="5.17806"></trkpt><trkpt lat="52.10559" lon="5.17807"></trkpt><trkpt lat="52.10553" lon="5.17816"></trkpt><trkpt lat="52.10553" lon="5.17832"></trkpt><trkpt lat="52.10560" lon="5.17842"></trkpt><trkpt lat="52.10545" lon="5.17925"></trkpt><trkpt lat="52.10505" lon="5.18124"></trkpt><trkpt lat="52.10489" lon="5.18211"></trkpt><trkpt lat="52.10460" lon="5.18392"></trkpt><trkpt lat="52.10457" lon="5.18405"></trkpt><trkpt lat="52.10444" lon="5.18412"></trkpt><trkpt lat="52.10443" lon="5.18433"></trkpt><trkpt lat="52.10381" lon="5.18393"></trkpt><trkpt lat="52.10153" lon="5.18210"></trkpt><trkpt lat="52.10146" lon="5.18209"></trkpt><trkpt lat="52.10143" lon="5.18212"></trkpt><trkpt lat="52.10087" lon="5.18452"></trkpt><trkpt lat="52.10074" lon="5.18487"></trkpt><trkpt lat="52.10070" lon="5.18494"></trkpt><trkpt lat="52.10067" lon="5.18494"></trkpt><trkpt lat="52.09631" lon="5.18197"></trkpt><trkpt lat="52.09602" lon="5.18275"></trkpt><trkpt lat="52.09582" lon="5.18341"></trkpt><trkpt lat="52.09557" lon="5.18405"></trkpt><trkpt lat="52.09518" lon="5.18481"></trkpt><trkpt lat="52.09483" lon="5.18530"></trkpt><trkpt lat="52.09471" lon="5.18540"></trkpt><trkpt lat="52.09342" lon="5.18601"></trkpt><trkpt lat="52.09322" lon="5.18612"></trkpt><trkpt lat="52.09304" lon="5.18619"></trkpt><trkpt lat="52.09299" lon="5.18615"></trkpt><trkpt lat="52.09292" lon="5.18600"></trkpt><trkpt lat="52.09291" lon="5.18582"></trkpt><trkpt lat="52.09297" lon="5.18570"></trkpt><trkpt lat="52.09307" lon="5.18564"></trkpt><trkpt lat="52.09318" lon="5.18567"></trkpt><trkpt lat="52.09323" lon="5.18577"></trkpt><trkpt lat="52.09325" lon="5.18599"></trkpt><trkpt lat="52.09320" lon="5.18610"></trkpt><trkpt lat="52.09311" lon="5.18617"></trkpt><trkpt lat="52.09193" lon="5.18674"></trkpt><trkpt lat="52.09182" lon="5.18675"></trkpt><trkpt lat="52.09177" lon="5.18672"></trkpt><trkpt lat="52.09171" lon="5.18662"></trkpt><trkpt lat="52.09169" lon="5.18652"></trkpt><trkpt lat="52.09173" lon="5.18632"></trkpt><trkpt lat="52.09179" lon="5.18625"></trkpt><trkpt lat="52.09186" lon="5.18624"></trkpt><trkpt lat="52.09197" lon="5.18632"></trkpt><trkpt lat="52.09201" lon="5.18648"></trkpt><trkpt lat="52.09201" lon="5.18657"></trkpt><trkpt lat="52.09196" lon="5.18669"></trkpt><trkpt lat="52.09183" lon="5.18680"></trkpt><trkpt lat="52.09106" lon="5.18726"></trkpt><trkpt lat="52.09083" lon="5.18737"></trkpt><trkpt lat="52.08958" lon="5.18804"></trkpt><trkpt lat="52.08641" lon="5.18977"></trkpt><trkpt lat="52.08633" lon="5.18986"></trkpt><trkpt lat="52.08629" lon="5.18993"></trkpt><trkpt lat="52.08623" lon="5.19015"></trkpt><trkpt lat="52.08620" lon="5.19045"></trkpt><trkpt lat="52.08616" lon="5.19196"></trkpt><trkpt lat="52.08612" lon="5.19283"></trkpt><trkpt lat="52.08514" lon="5.19309"></trkpt><trkpt lat="52.07908" lon="5.19478"></trkpt><trkpt lat="52.07728" lon="5.19523"></trkpt><trkpt lat="52.07784" lon="5.19319"></trkpt><trkpt lat="52.07789" lon="5.19290"></trkpt><trkpt lat="52.07789" lon="5.19260"></trkpt><trkpt lat="52.07783" lon="5.19225"></trkpt><trkpt lat="52.07741" lon="5.19075"></trkpt><trkpt lat="52.07737" lon="5.19051"></trkpt><trkpt lat="52.07730" lon="5.18927"></trkpt><trkpt lat="52.07725" lon="5.18874"></trkpt><trkpt lat="52.07717" lon="5.18838"></trkpt><trkpt lat="52.07693" lon="5.18748"></trkpt><trkpt lat="52.07691" lon="5.18729"></trkpt><trkpt lat="52.07689" lon="5.18660"></trkpt><trkpt lat="52.07689" lon="5.18465"></trkpt><trkpt lat="52.07677" lon="5.18387"></trkpt><trkpt lat="52.07624" lon="5.18162"></trkpt><trkpt lat="52.07619" lon="5.18149"></trkpt><trkpt lat="52.07437" lon="5.18372"></trkpt><trkpt lat="52.07406" lon="5.18311"></trkpt><trkpt lat="52.07359" lon="5.18243"></trkpt><trkpt lat="52.07347" lon="5.18199"></trkpt><trkpt lat="52.07342" lon="5.18187"></trkpt><trkpt lat="52.07081" lon="5.17707"></trkpt><trkpt lat="52.07070" lon="5.17682"></trkpt><trkpt lat="52.07010" lon="5.17760"></trkpt><trkpt lat="52.07002" lon="5.17768"></trkpt><trkpt lat="52.06997" lon="5.17769"></trkpt><trkpt lat="52.06989" lon="5.17757"></trkpt><trkpt lat="52.06938" lon="5.17657"></trkpt><trkpt lat="52.06912" lon="5.17694"></trkpt><trkpt lat="52.06906" lon="5.17700"></trkpt><trkpt lat="52.06818" lon="5.17817"></trkpt><trkpt lat="52.06804" lon="5.17819"></trkpt><trkpt lat="52.06749" lon="5.17818"></trkpt><trkpt lat="52.06748" lon="5.17817"></trkpt><trkpt lat="52.06490" lon="5.17804"></trkpt><trkpt lat="52.06458" lon="5.17804"></trkpt><trkpt lat="52.06448" lon="5.17807"></trkpt><trkpt lat="52.06405" lon="5.17835"></trkpt><trkpt lat="52.06399" lon="5.17724"></trkpt><trkpt lat="52.06402" lon="5.17505"></trkpt><trkpt lat="52.06410" lon="5.17354"></trkpt><trkpt lat="52.06407" lon="5.17300"></trkpt><trkpt lat="52.06392" lon="5.17213"></trkpt><trkpt lat="52.06400" lon="5.17124"></trkpt><trkpt lat="52.06400" lon="5.17105"></trkpt><trkpt lat="52.06397" lon="5.17099"></trkpt><trkpt lat="52.06365" lon="5.17094"></trkpt><trkpt lat="52.06356" lon="5.17083"></trkpt><trkpt lat="52.06346" lon="5.17103"></trkpt><trkpt lat="52.06344" lon="5.17121"></trkpt><trkpt lat="52.06341" lon="5.17226"></trkpt><trkpt lat="52.06337" lon="5.17242"></trkpt><trkpt lat="52.06325" lon="5.17247"></trkpt><trkpt lat="52.06244" lon="5.17256"></trkpt><trkpt lat="52.06196" lon="5.17268"></trkpt><trkpt lat="52.06155" lon="5.17289"></trkpt><trkpt lat="52.06117" lon="5.17333"></trkpt><trkpt lat="52.06110" lon="5.17323"></trkpt><trkpt lat="52.06079" lon="5.17287"></trkpt><trkpt lat="52.05959" lon="5.17202"></trkpt><trkpt lat="52.05934" lon="5.17180"></trkpt><trkpt lat="52.05877" lon="5.17113"></trkpt><trkpt lat="52.05865" lon="5.17107"></trkpt><trkpt lat="52.05811" lon="5.17128"></trkpt><trkpt lat="52.05793" lon="5.17130"></trkpt><trkpt lat="52.05764" lon="5.17121"></trkpt><trkpt lat="52.05743" lon="5.17103"></trkpt><trkpt lat="52.05717" lon="5.17066"></trkpt><trkpt lat="52.05705" lon="5.17033"></trkpt><trkpt lat="52.05700" lon="5.17006"></trkpt><trkpt lat="52.05694" lon="5.16940"></trkpt><trkpt lat="52.05689" lon="5.16908"></trkpt><trkpt lat="52.05619" lon="5.16820"></trkpt><trkpt lat="52.05601" lon="5.16777"></trkpt><trkpt lat="52.05594" lon="5.16746"></trkpt><trkpt lat="52.05591" lon="5.16712"></trkpt><trkpt lat="52.05598" lon="5.16636"></trkpt><trkpt lat="52.05598" lon="5.16610"></trkpt><trkpt lat="52.05590" lon="5.16551"></trkpt><trkpt lat="52.05549" lon="5.16388"></trkpt><trkpt lat="52.05516" lon="5.16245"></trkpt><trkpt lat="52.05508" lon="5.16197"></trkpt><trkpt lat="52.05509" lon="5.16149"></trkpt><trkpt lat="52.05524" lon="5.15984"></trkpt><trkpt lat="52.05527" lon="5.15926"></trkpt><trkpt lat="52.05529" lon="5.15824"></trkpt><trkpt lat="52.05527" lon="5.15799"></trkpt><trkpt lat="52.05488" lon="5.15693"></trkpt><trkpt lat="52.05470" lon="5.15569"></trkpt><trkpt lat="52.05461" lon="5.15471"></trkpt><trkpt lat="52.05373" lon="5.15528"></trkpt><trkpt lat="52.05359" lon="5.15532"></trkpt><trkpt lat="52.05348" lon="5.15532"></trkpt><trkpt lat="52.05289" lon="5.15512"></trkpt><trkpt lat="52.05243" lon="5.15494"></trkpt><trkpt lat="52.05237" lon="5.15489"></trkpt><trkpt lat="52.05226" lon="5.15470"></trkpt><trkpt lat="52.05288" lon="5.15307"></trkpt><trkpt lat="52.05306" lon="5.15256"></trkpt><trkpt lat="52.05315" lon="5.15196"></trkpt><trkpt lat="52.05314" lon="5.15150"></trkpt><trkpt lat="52.05304" lon="5.15036"></trkpt><trkpt lat="52.05308" lon="5.14976"></trkpt><trkpt lat="52.05322" lon="5.14888"></trkpt><trkpt lat="52.05327" lon="5.14785"></trkpt><trkpt lat="52.05317" lon="5.14738"></trkpt><trkpt lat="52.05309" lon="5.14719"></trkpt><trkpt lat="52.05267" lon="5.14666"></trkpt><trkpt lat="52.05203" lon="5.14599"></trkpt><trkpt lat="52.05238" lon="5.14505"></trkpt><trkpt lat="52.05264" lon="5.14341"></trkpt><trkpt lat="52.05268" lon="5.14302"></trkpt><trkpt lat="52.05267" lon="5.14287"></trkpt><trkpt lat="52.05257" lon="5.14259"></trkpt><trkpt lat="52.05240" lon="5.14234"></trkpt><trkpt lat="52.05198" lon="5.14165"></trkpt><trkpt lat="52.05176" lon="5.14133"></trkpt><trkpt lat="52.05125" lon="5.14074"></trkpt><trkpt lat="52.05107" lon="5.14047"></trkpt><trkpt lat="52.05091" lon="5.14011"></trkpt><trkpt lat="52.05075" lon="5.13947"></trkpt><trkpt lat="52.05060" lon="5.13873"></trkpt><trkpt lat="52.05051" lon="5.13798"></trkpt><trkpt lat="52.05043" lon="5.13760"></trkpt><trkpt lat="52.04969" lon="5.13539"></trkpt><trkpt lat="52.04958" lon="5.13485"></trkpt><trkpt lat="52.04953" lon="5.13445"></trkpt><trkpt lat="52.04956" lon="5.13406"></trkpt><trkpt lat="52.04986" lon="5.13228"></trkpt><trkpt lat="52.04987" lon="5.13189"></trkpt><trkpt lat="52.04984" lon="5.13092"></trkpt><trkpt lat="52.04995" lon="5.12948"></trkpt><trkpt lat="52.04997" lon="5.12866"></trkpt><trkpt lat="52.04978" lon="5.12595"></trkpt><trkpt lat="52.04974" lon="5.12462"></trkpt><trkpt lat="52.04967" lon="5.12461"></trkpt><trkpt lat="52.04970" lon="5.12172"></trkpt><trkpt lat="52.04942" lon="5.12173"></trkpt><trkpt lat="52.04918" lon="5.12170"></trkpt><trkpt lat="52.04821" lon="5.12147"></trkpt><trkpt lat="52.04752" lon="5.12145"></trkpt><trkpt lat="52.04633" lon="5.12134"></trkpt><trkpt lat="52.04617" lon="5.12128"></trkpt><trkpt lat="52.04636" lon="5.12068"></trkpt><trkpt lat="52.04722" lon="5.11924"></trkpt><trkpt lat="52.04717" lon="5.11919"></trkpt><trkpt lat="52.04717" lon="5.11911"></trkpt><trkpt lat="52.04731" lon="5.11863"></trkpt><trkpt lat="52.04730" lon="5.11857"></trkpt><trkpt lat="52.04717" lon="5.11848"></trkpt><trkpt lat="52.04694" lon="5.11836"></trkpt><trkpt lat="52.04689" lon="5.11839"></trkpt><trkpt lat="52.04677" lon="5.11904"></trkpt><trkpt lat="52.04673" lon="5.11918"></trkpt><trkpt lat="52.04663" lon="5.11922"></trkpt><trkpt lat="52.04091" lon="5.11705"></trkpt><trkpt lat="52.04051" lon="5.11679"></trkpt><trkpt lat="52.03892" lon="5.11501"></trkpt><trkpt lat="52.03851" lon="5.11448"></trkpt><trkpt lat="52.03808" lon="5.11530"></trkpt><trkpt lat="52.03798" lon="5.11523"></trkpt><trkpt lat="52.03780" lon="5.11525"></trkpt><trkpt lat="52.03773" lon="5.11529"></trkpt><trkpt lat="52.03558" lon="5.11790"></trkpt><trkpt lat="52.03502" lon="5.11852"></trkpt><trkpt lat="52.03529" lon="5.11863"></trkpt><trkpt lat="52.03616" lon="5.11772"></trkpt><trkpt lat="52.03624" lon="5.11779"></trkpt><trkpt lat="52.03635" lon="5.11801"></trkpt><trkpt lat="52.03639" lon="5.11804"></trkpt><trkpt lat="52.03713" lon="5.11841"></trkpt><trkpt lat="52.03723" lon="5.11843"></trkpt><trkpt lat="52.03727" lon="5.11839"></trkpt><trkpt lat="52.03728" lon="5.11827"></trkpt><trkpt lat="52.03722" lon="5.11819"></trkpt><trkpt lat="52.03648" lon="5.11780"></trkpt><trkpt lat="52.03635" lon="5.11761"></trkpt><trkpt lat="52.03468" lon="5.11436"></trkpt><trkpt lat="52.03440" lon="5.11377"></trkpt><trkpt lat="52.03393" lon="5.11417"></trkpt><trkpt lat="52.03362" lon="5.11457"></trkpt><trkpt lat="52.03334" lon="5.11516"></trkpt><trkpt lat="52.03341" lon="5.11513"></trkpt><trkpt lat="52.03384" lon="5.11449"></trkpt><trkpt lat="52.03420" lon="5.11421"></trkpt><trkpt lat="52.03437" lon="5.11399"></trkpt><trkpt lat="52.03436" lon="5.11390"></trkpt><trkpt lat="52.03429" lon="5.11373"></trkpt><trkpt lat="52.03423" lon="5.11369"></trkpt><trkpt lat="52.03350" lon="5.11381"></trkpt><trkpt lat="52.03185" lon="5.11453"></trkpt><trkpt lat="52.03140" lon="5.11470"></trkpt><trkpt lat="52.03090" lon="5.11528"></trkpt><trkpt lat="52.02972" lon="5.11560"></trkpt><trkpt lat="52.02788" lon="5.11598"></trkpt><trkpt lat="52.02721" lon="5.11598"></trkpt><trkpt lat="52.02571" lon="5.11584"></trkpt><trkpt lat="52.02489" lon="5.11570"></trkpt><trkpt lat="52.02334" lon="5.11530"></trkpt><trkpt lat="52.02059" lon="5.11450"></trkpt><trkpt lat="52.01944" lon="5.11418"></trkpt><trkpt lat="52.01882" lon="5.11394"></trkpt><trkpt lat="52.01619" lon="5.11274"></trkpt><trkpt lat="52.01403" lon="5.11173"></trkpt><trkpt lat="52.01389" lon="5.11179"></trkpt><trkpt lat="52.01386" lon="5.11170"></trkpt><trkpt lat="52.01380" lon="5.11163"></trkpt><trkpt lat="52.01252" lon="5.11104"></trkpt><trkpt lat="52.01234" lon="5.11101"></trkpt><trkpt lat="52.01112" lon="5.11101"></trkpt><trkpt lat="52.01110" lon="5.11126"></trkpt><trkpt lat="52.01106" lon="5.11133"></trkpt><trkpt lat="52.01100" lon="5.11135"></trkpt><trkpt lat="52.00936" lon="5.11118"></trkpt><trkpt lat="52.00924" lon="5.11121"></trkpt><trkpt lat="52.00919" lon="5.11126"></trkpt><trkpt lat="52.00912" lon="5.11147"></trkpt><trkpt lat="52.00890" lon="5.11294"></trkpt><trkpt lat="52.00837" lon="5.11680"></trkpt><trkpt lat="52.00817" lon="5.11842"></trkpt><trkpt lat="52.00802" lon="5.11918"></trkpt><trkpt lat="52.00705" lon="5.12238"></trkpt><trkpt lat="52.00690" lon="5.12276"></trkpt><trkpt lat="52.00670" lon="5.12320"></trkpt><trkpt lat="52.00470" lon="5.12742"></trkpt><trkpt lat="52.00367" lon="5.12956"></trkpt><trkpt lat="52.00324" lon="5.13063"></trkpt><trkpt lat="52.00302" lon="5.13114"></trkpt><trkpt lat="52.00232" lon="5.13254"></trkpt><trkpt lat="52.00204" lon="5.13315"></trkpt><trkpt lat="52.00132" lon="5.13480"></trkpt><trkpt lat="52.00086" lon="5.13603"></trkpt><trkpt lat="52.00044" lon="5.13733"></trkpt><trkpt lat="52.00021" lon="5.13794"></trkpt><trkpt lat="51.99996" lon="5.13855"></trkpt><trkpt lat="51.99952" lon="5.13978"></trkpt><trkpt lat="51.99914" lon="5.14098"></trkpt><trkpt lat="51.99865" lon="5.14324"></trkpt><trkpt lat="51.99851" lon="5.14432"></trkpt><trkpt lat="51.99841" lon="5.14477"></trkpt><trkpt lat="51.99719" lon="5.14963"></trkpt><trkpt lat="51.99712" lon="5.14985"></trkpt><trkpt lat="51.99641" lon="5.15170"></trkpt><trkpt lat="51.99637" lon="5.15173"></trkpt><trkpt lat="51.99637" lon="5.15184"></trkpt><trkpt lat="51.99609" lon="5.15260"></trkpt><trkpt lat="51.99589" lon="5.15319"></trkpt><trkpt lat="51.99543" lon="5.15440"></trkpt><trkpt lat="51.99432" lon="5.15707"></trkpt><trkpt lat="51.99339" lon="5.15908"></trkpt><trkpt lat="51.99253" lon="5.16021"></trkpt><trkpt lat="51.99245" lon="5.16027"></trkpt><trkpt lat="51.99214" lon="5.16069"></trkpt><trkpt lat="51.99212" lon="5.16065"></trkpt><trkpt lat="51.99146" lon="5.16155"></trkpt><trkpt lat="51.99136" lon="5.16162"></trkpt><trkpt lat="51.99085" lon="5.16236"></trkpt><trkpt lat="51.98977" lon="5.16455"></trkpt><trkpt lat="51.98938" lon="5.16525"></trkpt><trkpt lat="51.98906" lon="5.16467"></trkpt><trkpt lat="51.98805" lon="5.16304"></trkpt><trkpt lat="51.98768" lon="5.16224"></trkpt><trkpt lat="51.98680" lon="5.16004"></trkpt><trkpt lat="51.98678" lon="5.16002"></trkpt><trkpt lat="51.98622" lon="5.15866"></trkpt><trkpt lat="51.98522" lon="5.15850"></trkpt><trkpt lat="51.98509" lon="5.15853"></trkpt><trkpt lat="51.98494" lon="5.15865"></trkpt><trkpt lat="51.98484" lon="5.15880"></trkpt><trkpt lat="51.98478" lon="5.15897"></trkpt><trkpt lat="51.98473" lon="5.15942"></trkpt><trkpt lat="51.98466" lon="5.15957"></trkpt><trkpt lat="51.98399" lon="5.15953"></trkpt><trkpt lat="51.97994" lon="5.15910"></trkpt><trkpt lat="51.97967" lon="5.15886"></trkpt><trkpt lat="51.97940" lon="5.15880"></trkpt><trkpt lat="51.97906" lon="5.15878"></trkpt><trkpt lat="51.97859" lon="5.15882"></trkpt><trkpt lat="51.97697" lon="5.15865"></trkpt><trkpt lat="51.97652" lon="5.15853"></trkpt><trkpt lat="51.97588" lon="5.15810"></trkpt><trkpt lat="51.97579" lon="5.15816"></trkpt><trkpt lat="51.97562" lon="5.15895"></trkpt><trkpt lat="51.97553" lon="5.15919"></trkpt><trkpt lat="51.97548" lon="5.15925"></trkpt><trkpt lat="51.97539" lon="5.15926"></trkpt><trkpt lat="51.97466" lon="5.15900"></trkpt><trkpt lat="51.97398" lon="5.15863"></trkpt><trkpt lat="51.97387" lon="5.15860"></trkpt><trkpt lat="51.97370" lon="5.15863"></trkpt><trkpt lat="51.97361" lon="5.15868"></trkpt><trkpt lat="51.97339" lon="5.15895"></trkpt><trkpt lat="51.97333" lon="5.15909"></trkpt><trkpt lat="51.97328" lon="5.15935"></trkpt><trkpt lat="51.97344" lon="5.16201"></trkpt><trkpt lat="51.97344" lon="5.16257"></trkpt><trkpt lat="51.97340" lon="5.16307"></trkpt><trkpt lat="51.97325" lon="5.16375"></trkpt><trkpt lat="51.97290" lon="5.16469"></trkpt><trkpt lat="51.97265" lon="5.16523"></trkpt><trkpt lat="51.97229" lon="5.16588"></trkpt><trkpt lat="51.97215" lon="5.16627"></trkpt><trkpt lat="51.97209" lon="5.16651"></trkpt><trkpt lat="51.97204" lon="5.16700"></trkpt><trkpt lat="51.97195" lon="5.16936"></trkpt><trkpt lat="51.97189" lon="5.16979"></trkpt><trkpt lat="51.97176" lon="5.17031"></trkpt><trkpt lat="51.97132" lon="5.17176"></trkpt><trkpt lat="51.97127" lon="5.17199"></trkpt><trkpt lat="51.97119" lon="5.17252"></trkpt><trkpt lat="51.97105" lon="5.17379"></trkpt><trkpt lat="51.97083" lon="5.17502"></trkpt><trkpt lat="51.97038" lon="5.17847"></trkpt><trkpt lat="51.97018" lon="5.17995"></trkpt><trkpt lat="51.97011" lon="5.18037"></trkpt><trkpt lat="51.96997" lon="5.18095"></trkpt><trkpt lat="51.96917" lon="5.18358"></trkpt><trkpt lat="51.96911" lon="5.18387"></trkpt><trkpt lat="51.96888" lon="5.18583"></trkpt><trkpt lat="51.96830" lon="5.18909"></trkpt><trkpt lat="51.96815" lon="5.19063"></trkpt><trkpt lat="51.96807" lon="5.19111"></trkpt><trkpt lat="51.96779" lon="5.19221"></trkpt><trkpt lat="51.96768" lon="5.19275"></trkpt><trkpt lat="51.96762" lon="5.19291"></trkpt><trkpt lat="51.96746" lon="5.19312"></trkpt><trkpt lat="51.96733" lon="5.19332"></trkpt><trkpt lat="51.96720" lon="5.19380"></trkpt><trkpt lat="51.96707" lon="5.19413"></trkpt><trkpt lat="51.96629" lon="5.19550"></trkpt><trkpt lat="51.96619" lon="5.19574"></trkpt><trkpt lat="51.96578" lon="5.19716"></trkpt><trkpt lat="51.96557" lon="5.19779"></trkpt><trkpt lat="51.96541" lon="5.19854"></trkpt><trkpt lat="51.96535" lon="5.19905"></trkpt><trkpt lat="51.96536" lon="5.19954"></trkpt><trkpt lat="51.96539" lon="5.19978"></trkpt><trkpt lat="51.96554" lon="5.20064"></trkpt><trkpt lat="51.96563" lon="5.20103"></trkpt><trkpt lat="51.96665" lon="5.20425"></trkpt><trkpt lat="51.96691" lon="5.20526"></trkpt><trkpt lat="51.96756" lon="5.20701"></trkpt><trkpt lat="51.96765" lon="5.20732"></trkpt><trkpt lat="51.96766" lon="5.20756"></trkpt><trkpt lat="51.96764" lon="5.20771"></trkpt><trkpt lat="51.96741" lon="5.20870"></trkpt><trkpt lat="51.96725" lon="5.20971"></trkpt><trkpt lat="51.96724" lon="5.20982"></trkpt><trkpt lat="51.96727" lon="5.21036"></trkpt><trkpt lat="51.96724" lon="5.21060"></trkpt><trkpt lat="51.96713" lon="5.21112"></trkpt><trkpt lat="51.96711" lon="5.21141"></trkpt><trkpt lat="51.96713" lon="5.21170"></trkpt><trkpt lat="51.96740" lon="5.21309"></trkpt><trkpt lat="51.96776" lon="5.21527"></trkpt><trkpt lat="51.96773" lon="5.21542"></trkpt><trkpt lat="51.96766" lon="5.21542"></trkpt><trkpt lat="51.96719" lon="5.21569"></trkpt><trkpt lat="51.96695" lon="5.21578"></trkpt><trkpt lat="51.96663" lon="5.21585"></trkpt><trkpt lat="51.96648" lon="5.21584"></trkpt><trkpt lat="51.96619" lon="5.21575"></trkpt><trkpt lat="51.96610" lon="5.21576"></trkpt><trkpt lat="51.96566" lon="5.21598"></trkpt><trkpt lat="51.96546" lon="5.21596"></trkpt><trkpt lat="51.96521" lon="5.21583"></trkpt><trkpt lat="51.96490" lon="5.21558"></trkpt><trkpt lat="51.96450" lon="5.21516"></trkpt><trkpt lat="51.96442" lon="5.21511"></trkpt><trkpt lat="51.96383" lon="5.21523"></trkpt><trkpt lat="51.96328" lon="5.21556"></trkpt><trkpt lat="51.96318" lon="5.21556"></trkpt><trkpt lat="51.96304" lon="5.21547"></trkpt><trkpt lat="51.96274" lon="5.21512"></trkpt><trkpt lat="51.96258" lon="5.21510"></trkpt><trkpt lat="51.96231" lon="5.21528"></trkpt><trkpt lat="51.96195" lon="5.21549"></trkpt><trkpt lat="51.96174" lon="5.21571"></trkpt><trkpt lat="51.96160" lon="5.21592"></trkpt><trkpt lat="51.96141" lon="5.21633"></trkpt><trkpt lat="51.96133" lon="5.21666"></trkpt><trkpt lat="51.96130" lon="5.21701"></trkpt><trkpt lat="51.96133" lon="5.21744"></trkpt><trkpt lat="51.96137" lon="5.21760"></trkpt><trkpt lat="51.96138" lon="5.21774"></trkpt><trkpt lat="51.96028" lon="5.22109"></trkpt><trkpt lat="51.95994" lon="5.22075"></trkpt><trkpt lat="51.95925" lon="5.21966"></trkpt><trkpt lat="51.95907" lon="5.21945"></trkpt><trkpt lat="51.95894" lon="5.21939"></trkpt><trkpt lat="51.95886" lon="5.21939"></trkpt><trkpt lat="51.95865" lon="5.21944"></trkpt><trkpt lat="51.95824" lon="5.21966"></trkpt><trkpt lat="51.95800" lon="5.21981"></trkpt><trkpt lat="51.95760" lon="5.22015"></trkpt><trkpt lat="51.95750" lon="5.22026"></trkpt><trkpt lat="51.95728" lon="5.22027"></trkpt><trkpt lat="51.95716" lon="5.22017"></trkpt><trkpt lat="51.95702" lon="5.21994"></trkpt><trkpt lat="51.95694" lon="5.21976"></trkpt><trkpt lat="51.95681" lon="5.21933"></trkpt><trkpt lat="51.95679" lon="5.21893"></trkpt><trkpt lat="51.95681" lon="5.21853"></trkpt><trkpt lat="51.95679" lon="5.21806"></trkpt><trkpt lat="51.95675" lon="5.21789"></trkpt><trkpt lat="51.95648" lon="5.21721"></trkpt><trkpt lat="51.95655" lon="5.21708"></trkpt><trkpt lat="51.95685" lon="5.21680"></trkpt><trkpt lat="51.95698" lon="5.21664"></trkpt><trkpt lat="51.95700" lon="5.21655"></trkpt><trkpt lat="51.95700" lon="5.21637"></trkpt><trkpt lat="51.95682" lon="5.21510"></trkpt><trkpt lat="51.95672" lon="5.21421"></trkpt><trkpt lat="51.95664" lon="5.21376"></trkpt><trkpt lat="51.95652" lon="5.21334"></trkpt><trkpt lat="51.95649" lon="5.21308"></trkpt><trkpt lat="51.95649" lon="5.21290"></trkpt><trkpt lat="51.95659" lon="5.21173"></trkpt><trkpt lat="51.95656" lon="5.21129"></trkpt><trkpt lat="51.95649" lon="5.21100"></trkpt><trkpt lat="51.95642" lon="5.21083"></trkpt><trkpt lat="51.95613" lon="5.21024"></trkpt><trkpt lat="51.95608" lon="5.21008"></trkpt><trkpt lat="51.95606" lon="5.20985"></trkpt><trkpt lat="51.95615" lon="5.20936"></trkpt><trkpt lat="51.95647" lon="5.20807"></trkpt><trkpt lat="51.95648" lon="5.20771"></trkpt><trkpt lat="51.95644" lon="5.20751"></trkpt><trkpt lat="51.95634" lon="5.20731"></trkpt><trkpt lat="51.95590" lon="5.20663"></trkpt><trkpt lat="51.95579" lon="5.20631"></trkpt><trkpt lat="51.95569" lon="5.20544"></trkpt><trkpt lat="51.95568" lon="5.20475"></trkpt><trkpt lat="51.95576" lon="5.20381"></trkpt><trkpt lat="51.95585" lon="5.20327"></trkpt><trkpt lat="51.95599" lon="5.20282"></trkpt><trkpt lat="51.95608" lon="5.20259"></trkpt><trkpt lat="51.95694" lon="5.20075"></trkpt><trkpt lat="51.95722" lon="5.20030"></trkpt><trkpt lat="51.95739" lon="5.20014"></trkpt><trkpt lat="51.95786" lon="5.19977"></trkpt><trkpt lat="51.95810" lon="5.19942"></trkpt><trkpt lat="51.95827" lon="5.19903"></trkpt><trkpt lat="51.95837" lon="5.19858"></trkpt><trkpt lat="51.95843" lon="5.19821"></trkpt><trkpt lat="51.95854" lon="5.19677"></trkpt><trkpt lat="51.95890" lon="5.19442"></trkpt><trkpt lat="51.95892" lon="5.19401"></trkpt><trkpt lat="51.95892" lon="5.19270"></trkpt><trkpt lat="51.95895" lon="5.19052"></trkpt><trkpt lat="51.95898" lon="5.18999"></trkpt><trkpt lat="51.95906" lon="5.18909"></trkpt><trkpt lat="51.95918" lon="5.18799"></trkpt><trkpt lat="51.95926" lon="5.18748"></trkpt><trkpt lat="51.95963" lon="5.18603"></trkpt><trkpt lat="51.95972" lon="5.18550"></trkpt><trkpt lat="51.95977" lon="5.18517"></trkpt><trkpt lat="51.95982" lon="5.18465"></trkpt><trkpt lat="51.95988" lon="5.18373"></trkpt><trkpt lat="51.95997" lon="5.18273"></trkpt><trkpt lat="51.96010" lon="5.18208"></trkpt><trkpt lat="51.96029" lon="5.18133"></trkpt><trkpt lat="51.96051" lon="5.18063"></trkpt><trkpt lat="51.96075" lon="5.18001"></trkpt><trkpt lat="51.96103" lon="5.17900"></trkpt><trkpt lat="51.96113" lon="5.17858"></trkpt><trkpt lat="51.96122" lon="5.17810"></trkpt><trkpt lat="51.96124" lon="5.17785"></trkpt><trkpt lat="51.96120" lon="5.17760"></trkpt><trkpt lat="51.96113" lon="5.17739"></trkpt><trkpt lat="51.96096" lon="5.17704"></trkpt><trkpt lat="51.96084" lon="5.17691"></trkpt><trkpt lat="51.96004" lon="5.17658"></trkpt><trkpt lat="51.95999" lon="5.17654"></trkpt><trkpt lat="51.95996" lon="5.17635"></trkpt><trkpt lat="51.96006" lon="5.17589"></trkpt><trkpt lat="51.96016" lon="5.17561"></trkpt><trkpt lat="51.96041" lon="5.17507"></trkpt><trkpt lat="51.96074" lon="5.17423"></trkpt><trkpt lat="51.96078" lon="5.17407"></trkpt><trkpt lat="51.96061" lon="5.17396"></trkpt><trkpt lat="51.95515" lon="5.16916"></trkpt><trkpt lat="51.95515" lon="5.16907"></trkpt><trkpt lat="51.95512" lon="5.16902"></trkpt><trkpt lat="51.95504" lon="5.16906"></trkpt><trkpt lat="51.94891" lon="5.16471"></trkpt><trkpt lat="51.94709" lon="5.16337"></trkpt><trkpt lat="51.94693" lon="5.16322"></trkpt><trkpt lat="51.94654" lon="5.16268"></trkpt><trkpt lat="51.94560" lon="5.16170"></trkpt><trkpt lat="51.94467" lon="5.16081"></trkpt><trkpt lat="51.94189" lon="5.15809"></trkpt><trkpt lat="51.94101" lon="5.15735"></trkpt><trkpt lat="51.94005" lon="5.15645"></trkpt><trkpt lat="51.93928" lon="5.15561"></trkpt><trkpt lat="51.93856" lon="5.15494"></trkpt><trkpt lat="51.93812" lon="5.15468"></trkpt><trkpt lat="51.93734" lon="5.15393"></trkpt><trkpt lat="51.93696" lon="5.15350"></trkpt><trkpt lat="51.93679" lon="5.15335"></trkpt><trkpt lat="51.93637" lon="5.15307"></trkpt><trkpt lat="51.93607" lon="5.15293"></trkpt><trkpt lat="51.93568" lon="5.15270"></trkpt><trkpt lat="51.93404" lon="5.15154"></trkpt><trkpt lat="51.93364" lon="5.15119"></trkpt><trkpt lat="51.93353" lon="5.15095"></trkpt><trkpt lat="51.93349" lon="5.15081"></trkpt><trkpt lat="51.93348" lon="5.15052"></trkpt><trkpt lat="51.93371" lon="5.14968"></trkpt><trkpt lat="51.93370" lon="5.14945"></trkpt><trkpt lat="51.93367" lon="5.14932"></trkpt><trkpt lat="51.93360" lon="5.14913"></trkpt><trkpt lat="51.93351" lon="5.14896"></trkpt><trkpt lat="51.93297" lon="5.14823"></trkpt><trkpt lat="51.93243" lon="5.14775"></trkpt><trkpt lat="51.93223" lon="5.14766"></trkpt><trkpt lat="51.93203" lon="5.14767"></trkpt><trkpt lat="51.93172" lon="5.14779"></trkpt><trkpt lat="51.93141" lon="5.14797"></trkpt><trkpt lat="51.93104" lon="5.14821"></trkpt><trkpt lat="51.93057" lon="5.14866"></trkpt><trkpt lat="51.93036" lon="5.14871"></trkpt><trkpt lat="51.92968" lon="5.14830"></trkpt><trkpt lat="51.92945" lon="5.14812"></trkpt><trkpt lat="51.92860" lon="5.14691"></trkpt><trkpt lat="51.92800" lon="5.14615"></trkpt><trkpt lat="51.92570" lon="5.14309"></trkpt><trkpt lat="51.92555" lon="5.14286"></trkpt><trkpt lat="51.92525" lon="5.14248"></trkpt><trkpt lat="51.92445" lon="5.14154"></trkpt><trkpt lat="51.92401" lon="5.14106"></trkpt><trkpt lat="51.92317" lon="5.14030"></trkpt><trkpt lat="51.92112" lon="5.13819"></trkpt><trkpt lat="51.91951" lon="5.13665"></trkpt><trkpt lat="51.91842" lon="5.13549"></trkpt><trkpt lat="51.91831" lon="5.13541"></trkpt><trkpt lat="51.91818" lon="5.13538"></trkpt><trkpt lat="51.91807" lon="5.13542"></trkpt><trkpt lat="51.91794" lon="5.13551"></trkpt><trkpt lat="51.91772" lon="5.13574"></trkpt><trkpt lat="51.91753" lon="5.13583"></trkpt><trkpt lat="51.91690" lon="5.13590"></trkpt><trkpt lat="51.91511" lon="5.13625"></trkpt><trkpt lat="51.91484" lon="5.13626"></trkpt><trkpt lat="51.91475" lon="5.13625"></trkpt><trkpt lat="51.91464" lon="5.13618"></trkpt><trkpt lat="51.91452" lon="5.13604"></trkpt><trkpt lat="51.91446" lon="5.13619"></trkpt><trkpt lat="51.91432" lon="5.13641"></trkpt><trkpt lat="51.91417" lon="5.13699"></trkpt><trkpt lat="51.91396" lon="5.13799"></trkpt><trkpt lat="51.91377" lon="5.13851"></trkpt><trkpt lat="51.91362" lon="5.13929"></trkpt><trkpt lat="51.91354" lon="5.13958"></trkpt><trkpt lat="51.91197" lon="5.14343"></trkpt><trkpt lat="51.91152" lon="5.14260"></trkpt><trkpt lat="51.91137" lon="5.14224"></trkpt><trkpt lat="51.91126" lon="5.14183"></trkpt><trkpt lat="51.91110" lon="5.14142"></trkpt><trkpt lat="51.91093" lon="5.14116"></trkpt><trkpt lat="51.91063" lon="5.14096"></trkpt><trkpt lat="51.90976" lon="5.14058"></trkpt><trkpt lat="51.90889" lon="5.14017"></trkpt><trkpt lat="51.90783" lon="5.13945"></trkpt><trkpt lat="51.90683" lon="5.13896"></trkpt><trkpt lat="51.90641" lon="5.13877"></trkpt><trkpt lat="51.90570" lon="5.13835"></trkpt><trkpt lat="51.90523" lon="5.13804"></trkpt><trkpt lat="51.90447" lon="5.13745"></trkpt><trkpt lat="51.90397" lon="5.13725"></trkpt><trkpt lat="51.90363" lon="5.13716"></trkpt><trkpt lat="51.90297" lon="5.13728"></trkpt><trkpt lat="51.90277" lon="5.13728"></trkpt><trkpt lat="51.90252" lon="5.13718"></trkpt><trkpt lat="51.90218" lon="5.13690"></trkpt><trkpt lat="51.90202" lon="5.13668"></trkpt><trkpt lat="51.90115" lon="5.13533"></trkpt><trkpt lat="51.90094" lon="5.13518"></trkpt><trkpt lat="51.90085" lon="5.13517"></trkpt><trkpt lat="51.90033" lon="5.13536"></trkpt><trkpt lat="51.89975" lon="5.13537"></trkpt><trkpt lat="51.89961" lon="5.13529"></trkpt><trkpt lat="51.89903" lon="5.13466"></trkpt><trkpt lat="51.89863" lon="5.13426"></trkpt><trkpt lat="51.89838" lon="5.13405"></trkpt><trkpt lat="51.89738" lon="5.13359"></trkpt><trkpt lat="51.89714" lon="5.13338"></trkpt><trkpt lat="51.89701" lon="5.13319"></trkpt><trkpt lat="51.89680" lon="5.13310"></trkpt><trkpt lat="51.89675" lon="5.13312"></trkpt><trkpt lat="51.89671" lon="5.13320"></trkpt><trkpt lat="51.89671" lon="5.13339"></trkpt><trkpt lat="51.89682" lon="5.13397"></trkpt><trkpt lat="51.89691" lon="5.13680"></trkpt><trkpt lat="51.89709" lon="5.13997"></trkpt><trkpt lat="51.89726" lon="5.14466"></trkpt><trkpt lat="51.89685" lon="5.14471"></trkpt><trkpt lat="51.89667" lon="5.14459"></trkpt><trkpt lat="51.89543" lon="5.14189"></trkpt><trkpt lat="51.89528" lon="5.14135"></trkpt><trkpt lat="51.89507" lon="5.14086"></trkpt><trkpt lat="51.89284" lon="5.13640"></trkpt><trkpt lat="51.89261" lon="5.13551"></trkpt><trkpt lat="51.89245" lon="5.13501"></trkpt><trkpt lat="51.89079" lon="5.13072"></trkpt><trkpt lat="51.89059" lon="5.13033"></trkpt><trkpt lat="51.89046" lon="5.13015"></trkpt><trkpt lat="51.89029" lon="5.13002"></trkpt><trkpt lat="51.89007" lon="5.12992"></trkpt><trkpt lat="51.88977" lon="5.12990"></trkpt><trkpt lat="51.88719" lon="5.13184"></trkpt><trkpt lat="51.88703" lon="5.13191"></trkpt><trkpt lat="51.88681" lon="5.13191"></trkpt><trkpt lat="51.88656" lon="5.13173"></trkpt><trkpt lat="51.88572" lon="5.13439"></trkpt><trkpt lat="51.88569" lon="5.13461"></trkpt><trkpt lat="51.88570" lon="5.13505"></trkpt><trkpt lat="51.88558" lon="5.13552"></trkpt><trkpt lat="51.88548" lon="5.13583"></trkpt><trkpt lat="51.88521" lon="5.13616"></trkpt><trkpt lat="51.88515" lon="5.13627"></trkpt><trkpt lat="51.88092" lon="5.14991"></trkpt><trkpt lat="51.88061" lon="5.15098"></trkpt><trkpt lat="51.88017" lon="5.15273"></trkpt><trkpt lat="51.88010" lon="5.15315"></trkpt><trkpt lat="51.88016" lon="5.15363"></trkpt><trkpt lat="51.88014" lon="5.15388"></trkpt><trkpt lat="51.88008" lon="5.15408"></trkpt><trkpt lat="51.87984" lon="5.15444"></trkpt><trkpt lat="51.87982" lon="5.15451"></trkpt><trkpt lat="51.87951" lon="5.15651"></trkpt><trkpt lat="51.87942" lon="5.15727"></trkpt><trkpt lat="51.87927" lon="5.15940"></trkpt><trkpt lat="51.87930" lon="5.16001"></trkpt><trkpt lat="51.87926" lon="5.15995"></trkpt><trkpt lat="51.87895" lon="5.15991"></trkpt><trkpt lat="51.87887" lon="5.15980"></trkpt><trkpt lat="51.87887" lon="5.15962"></trkpt><trkpt lat="51.87911" lon="5.15792"></trkpt><trkpt lat="51.87909" lon="5.15779"></trkpt><trkpt lat="51.87839" lon="5.15682"></trkpt><trkpt lat="51.87820" lon="5.15639"></trkpt><trkpt lat="51.87777" lon="5.15485"></trkpt><trkpt lat="51.87774" lon="5.15428"></trkpt><trkpt lat="51.87781" lon="5.15336"></trkpt><trkpt lat="51.87779" lon="5.15262"></trkpt><trkpt lat="51.87757" lon="5.15071"></trkpt><trkpt lat="51.87734" lon="5.14935"></trkpt><trkpt lat="51.87735" lon="5.14869"></trkpt><trkpt lat="51.87730" lon="5.14833"></trkpt><trkpt lat="51.87716" lon="5.14800"></trkpt><trkpt lat="51.87696" lon="5.14770"></trkpt><trkpt lat="51.87603" lon="5.14545"></trkpt><trkpt lat="51.87590" lon="5.14523"></trkpt><trkpt lat="51.87543" lon="5.14487"></trkpt><trkpt lat="51.87513" lon="5.14437"></trkpt><trkpt lat="51.87473" lon="5.14366"></trkpt><trkpt lat="51.87468" lon="5.14354"></trkpt><trkpt lat="51.87464" lon="5.14328"></trkpt><trkpt lat="51.87465" lon="5.14270"></trkpt><trkpt lat="51.87461" lon="5.14243"></trkpt><trkpt lat="51.87438" lon="5.14159"></trkpt><trkpt lat="51.87430" lon="5.14141"></trkpt><trkpt lat="51.87315" lon="5.13995"></trkpt><trkpt lat="51.87236" lon="5.13812"></trkpt><trkpt lat="51.87200" lon="5.13711"></trkpt><trkpt lat="51.87166" lon="5.13660"></trkpt><trkpt lat="51.87143" lon="5.13613"></trkpt><trkpt lat="51.87114" lon="5.13544"></trkpt><trkpt lat="51.87086" lon="5.13411"></trkpt><trkpt lat="51.87078" lon="5.13358"></trkpt><trkpt lat="51.87075" lon="5.13311"></trkpt><trkpt lat="51.87073" lon="5.13224"></trkpt><trkpt lat="51.87058" lon="5.13073"></trkpt><trkpt lat="51.87047" lon="5.12991"></trkpt><trkpt lat="51.87036" lon="5.12938"></trkpt><trkpt lat="51.87009" lon="5.12845"></trkpt><trkpt lat="51.86995" lon="5.12816"></trkpt><trkpt lat="51.86983" lon="5.12807"></trkpt><trkpt lat="51.86963" lon="5.12798"></trkpt><trkpt lat="51.86952" lon="5.12790"></trkpt><trkpt lat="51.86940" lon="5.12772"></trkpt><trkpt lat="51.86933" lon="5.12749"></trkpt><trkpt lat="51.86922" lon="5.12691"></trkpt><trkpt lat="51.86906" lon="5.12643"></trkpt><trkpt lat="51.86899" lon="5.12613"></trkpt><trkpt lat="51.86898" lon="5.12580"></trkpt><trkpt lat="51.86904" lon="5.12498"></trkpt><trkpt lat="51.86906" lon="5.12404"></trkpt><trkpt lat="51.86899" lon="5.12360"></trkpt><trkpt lat="51.86890" lon="5.12333"></trkpt><trkpt lat="51.86887" lon="5.12300"></trkpt><trkpt lat="51.86895" lon="5.12263"></trkpt><trkpt lat="51.86912" lon="5.12221"></trkpt><trkpt lat="51.86923" lon="5.12207"></trkpt><trkpt lat="51.86953" lon="5.12182"></trkpt><trkpt lat="51.86991" lon="5.12165"></trkpt><trkpt lat="51.87041" lon="5.12158"></trkpt><trkpt lat="51.87059" lon="5.12148"></trkpt><trkpt lat="51.87098" lon="5.12085"></trkpt><trkpt lat="51.87147" lon="5.12018"></trkpt><trkpt lat="51.87236" lon="5.11933"></trkpt><trkpt lat="51.87261" lon="5.11913"></trkpt><trkpt lat="51.87324" lon="5.11873"></trkpt><trkpt lat="51.87413" lon="5.11829"></trkpt><trkpt lat="51.87517" lon="5.11791"></trkpt><trkpt lat="51.87594" lon="5.11755"></trkpt><trkpt lat="51.87652" lon="5.11720"></trkpt><trkpt lat="51.87669" lon="5.11705"></trkpt><trkpt lat="51.87712" lon="5.11691"></trkpt><trkpt lat="51.87736" lon="5.11675"></trkpt><trkpt lat="51.87778" lon="5.11797"></trkpt><trkpt lat="51.87781" lon="5.11817"></trkpt><trkpt lat="51.87788" lon="5.11833"></trkpt><trkpt lat="51.87797" lon="5.11838"></trkpt><trkpt lat="51.87816" lon="5.11836"></trkpt><trkpt lat="51.87820" lon="5.11839"></trkpt><trkpt lat="51.87826" lon="5.11854"></trkpt><trkpt lat="51.87828" lon="5.11870"></trkpt><trkpt lat="51.87835" lon="5.11896"></trkpt><trkpt lat="51.87840" lon="5.11908"></trkpt><trkpt lat="51.87855" lon="5.11928"></trkpt><trkpt lat="51.87898" lon="5.11970"></trkpt><trkpt lat="51.87953" lon="5.12014"></trkpt><trkpt lat="51.87979" lon="5.12031"></trkpt><trkpt lat="51.88081" lon="5.12049"></trkpt><trkpt lat="51.88284" lon="5.12071"></trkpt><trkpt lat="51.88324" lon="5.12063"></trkpt><trkpt lat="51.88348" lon="5.12046"></trkpt><trkpt lat="51.88444" lon="5.11950"></trkpt><trkpt lat="51.88500" lon="5.11903"></trkpt><trkpt lat="51.88540" lon="5.11877"></trkpt><trkpt lat="51.88586" lon="5.11838"></trkpt><trkpt lat="51.88619" lon="5.11789"></trkpt><trkpt lat="51.88676" lon="5.11672"></trkpt><trkpt lat="51.88702" lon="5.11625"></trkpt><trkpt lat="51.88761" lon="5.11546"></trkpt><trkpt lat="51.88789" lon="5.11514"></trkpt><trkpt lat="51.88811" lon="5.11493"></trkpt><trkpt lat="51.88871" lon="5.11444"></trkpt><trkpt lat="51.88891" lon="5.11424"></trkpt><trkpt lat="51.88906" lon="5.11389"></trkpt><trkpt lat="51.88896" lon="5.11373"></trkpt><trkpt lat="51.88836" lon="5.11309"></trkpt><trkpt lat="51.88824" lon="5.11276"></trkpt><trkpt lat="51.88825" lon="5.11235"></trkpt><trkpt lat="51.88836" lon="5.11175"></trkpt><trkpt lat="51.88845" lon="5.11137"></trkpt><trkpt lat="51.88903" lon="5.10960"></trkpt><trkpt lat="51.88935" lon="5.10856"></trkpt><trkpt lat="51.88959" lon="5.10748"></trkpt><trkpt lat="51.88979" lon="5.10627"></trkpt><trkpt lat="51.89002" lon="5.10537"></trkpt><trkpt lat="51.89013" lon="5.10481"></trkpt><trkpt lat="51.89018" lon="5.10411"></trkpt><trkpt lat="51.89026" lon="5.10190"></trkpt><trkpt lat="51.89041" lon="5.10081"></trkpt><trkpt lat="51.89052" lon="5.09973"></trkpt><trkpt lat="51.89056" lon="5.09948"></trkpt><trkpt lat="51.89066" lon="5.09856"></trkpt><trkpt lat="51.89069" lon="5.09752"></trkpt><trkpt lat="51.89081" lon="5.09629"></trkpt><trkpt lat="51.89083" lon="5.09542"></trkpt><trkpt lat="51.89125" lon="5.09550"></trkpt><trkpt lat="51.89129" lon="5.09553"></trkpt><trkpt lat="51.89124" lon="5.09485"></trkpt><trkpt lat="51.89116" lon="5.09438"></trkpt><trkpt lat="51.89096" lon="5.09349"></trkpt><trkpt lat="51.89046" lon="5.09210"></trkpt><trkpt lat="51.89006" lon="5.09243"></trkpt><trkpt lat="51.89041" lon="5.09361"></trkpt><trkpt lat="51.89006" lon="5.09243"></trkpt><trkpt lat="51.89046" lon="5.09210"></trkpt><trkpt lat="51.89027" lon="5.09155"></trkpt><trkpt lat="51.89028" lon="5.09142"></trkpt><trkpt lat="51.89022" lon="5.09135"></trkpt><trkpt lat="51.89021" lon="5.09129"></trkpt><trkpt lat="51.89010" lon="5.09123"></trkpt><trkpt lat="51.89000" lon="5.09110"></trkpt><trkpt lat="51.88959" lon="5.09097"></trkpt><trkpt lat="51.88948" lon="5.09086"></trkpt><trkpt lat="51.88937" lon="5.09072"></trkpt><trkpt lat="51.88924" lon="5.09045"></trkpt><trkpt lat="51.88916" lon="5.09020"></trkpt><trkpt lat="51.88910" lon="5.09007"></trkpt><trkpt lat="51.88827" lon="5.09039"></trkpt><trkpt lat="51.88745" lon="5.09067"></trkpt><trkpt lat="51.88724" lon="5.09066"></trkpt><trkpt lat="51.88708" lon="5.09031"></trkpt><trkpt lat="51.88693" lon="5.09007"></trkpt><trkpt lat="51.88672" lon="5.08979"></trkpt><trkpt lat="51.88641" lon="5.08946"></trkpt><trkpt lat="51.88604" lon="5.08922"></trkpt><trkpt lat="51.88553" lon="5.08907"></trkpt><trkpt lat="51.88559" lon="5.08825"></trkpt><trkpt lat="51.88559" lon="5.08826"></trkpt><trkpt lat="51.88502" lon="5.08816"></trkpt><trkpt lat="51.88462" lon="5.08818"></trkpt><trkpt lat="51.88441" lon="5.08823"></trkpt><trkpt lat="51.88436" lon="5.08833"></trkpt><trkpt lat="51.88407" lon="5.08829"></trkpt><trkpt lat="51.88398" lon="5.08891"></trkpt><trkpt lat="51.88266" lon="5.08888"></trkpt><trkpt lat="51.88154" lon="5.08896"></trkpt><trkpt lat="51.88048" lon="5.08896"></trkpt><trkpt lat="51.88019" lon="5.08923"></trkpt><trkpt lat="51.87968" lon="5.08955"></trkpt><trkpt lat="51.87963" lon="5.08962"></trkpt><trkpt lat="51.87923" lon="5.09093"></trkpt><trkpt lat="51.87910" lon="5.09120"></trkpt><trkpt lat="51.87877" lon="5.09161"></trkpt><trkpt lat="51.87741" lon="5.09304"></trkpt><trkpt lat="51.87736" lon="5.09307"></trkpt><trkpt lat="51.87701" lon="5.09137"></trkpt><trkpt lat="51.87633" lon="5.08861"></trkpt><trkpt lat="51.87596" lon="5.08741"></trkpt><trkpt lat="51.87569" lon="5.08668"></trkpt><trkpt lat="51.87545" lon="5.08588"></trkpt><trkpt lat="51.87539" lon="5.08555"></trkpt><trkpt lat="51.87523" lon="5.08402"></trkpt><trkpt lat="51.87507" lon="5.08335"></trkpt><trkpt lat="51.87490" lon="5.08281"></trkpt><trkpt lat="51.87488" lon="5.08270"></trkpt><trkpt lat="51.87490" lon="5.08261"></trkpt><trkpt lat="51.87462" lon="5.08176"></trkpt><trkpt lat="51.87449" lon="5.08158"></trkpt><trkpt lat="51.87463" lon="5.08123"></trkpt><trkpt lat="51.87497" lon="5.08068"></trkpt><trkpt lat="51.87500" lon="5.08059"></trkpt><trkpt lat="51.87500" lon="5.08049"></trkpt><trkpt lat="51.87459" lon="5.07928"></trkpt><trkpt lat="51.87442" lon="5.07872"></trkpt><trkpt lat="51.87434" lon="5.07855"></trkpt><trkpt lat="51.87418" lon="5.07833"></trkpt><trkpt lat="51.87389" lon="5.07788"></trkpt><trkpt lat="51.87378" lon="5.07767"></trkpt><trkpt lat="51.87321" lon="5.07607"></trkpt><trkpt lat="51.87295" lon="5.07550"></trkpt><trkpt lat="51.87280" lon="5.07534"></trkpt><trkpt lat="51.87271" lon="5.07529"></trkpt><trkpt lat="51.87272" lon="5.07524"></trkpt><trkpt lat="51.87258" lon="5.07512"></trkpt><trkpt lat="51.87254" lon="5.07501"></trkpt><trkpt lat="51.87251" lon="5.07472"></trkpt><trkpt lat="51.87254" lon="5.07454"></trkpt><trkpt lat="51.87257" lon="5.07445"></trkpt><trkpt lat="51.87274" lon="5.07418"></trkpt><trkpt lat="51.87310" lon="5.07373"></trkpt><trkpt lat="51.87317" lon="5.07355"></trkpt><trkpt lat="51.87319" lon="5.07332"></trkpt><trkpt lat="51.87315" lon="5.07258"></trkpt><trkpt lat="51.87310" lon="5.07198"></trkpt><trkpt lat="51.87313" lon="5.07164"></trkpt><trkpt lat="51.87334" lon="5.07055"></trkpt><trkpt lat="51.87345" lon="5.06987"></trkpt><trkpt lat="51.87363" lon="5.06900"></trkpt><trkpt lat="51.87377" lon="5.06742"></trkpt><trkpt lat="51.87378" lon="5.06718"></trkpt><trkpt lat="51.87373" lon="5.06612"></trkpt><trkpt lat="51.87370" lon="5.06487"></trkpt><trkpt lat="51.87363" lon="5.06415"></trkpt><trkpt lat="51.87349" lon="5.06300"></trkpt><trkpt lat="51.87348" lon="5.06254"></trkpt><trkpt lat="51.87349" lon="5.06230"></trkpt><trkpt lat="51.87354" lon="5.06198"></trkpt><trkpt lat="51.87354" lon="5.06181"></trkpt><trkpt lat="51.87350" lon="5.06154"></trkpt><trkpt lat="51.87310" lon="5.06015"></trkpt><trkpt lat="51.87272" lon="5.05902"></trkpt><trkpt lat="51.87267" lon="5.05892"></trkpt><trkpt lat="51.87257" lon="5.05886"></trkpt><trkpt lat="51.87051" lon="5.06038"></trkpt><trkpt lat="51.87031" lon="5.06051"></trkpt><trkpt lat="51.86994" lon="5.06066"></trkpt><trkpt lat="51.86969" lon="5.06065"></trkpt><trkpt lat="51.86948" lon="5.06077"></trkpt><trkpt lat="51.86846" lon="5.06115"></trkpt><trkpt lat="51.86737" lon="5.06118"></trkpt><trkpt lat="51.86637" lon="5.06128"></trkpt><trkpt lat="51.86580" lon="5.06139"></trkpt><trkpt lat="51.86512" lon="5.06161"></trkpt><trkpt lat="51.86452" lon="5.06176"></trkpt><trkpt lat="51.86431" lon="5.06185"></trkpt><trkpt lat="51.86326" lon="5.06259"></trkpt><trkpt lat="51.86304" lon="5.06261"></trkpt><trkpt lat="51.86162" lon="5.06408"></trkpt><trkpt lat="51.86137" lon="5.06422"></trkpt><trkpt lat="51.86081" lon="5.06425"></trkpt><trkpt lat="51.86062" lon="5.06438"></trkpt><trkpt lat="51.86010" lon="5.06402"></trkpt><trkpt lat="51.85963" lon="5.06362"></trkpt><trkpt lat="51.85935" lon="5.06326"></trkpt><trkpt lat="51.85913" lon="5.06292"></trkpt><trkpt lat="51.85883" lon="5.06234"></trkpt><trkpt lat="51.85810" lon="5.06030"></trkpt><trkpt lat="51.85795" lon="5.05978"></trkpt><trkpt lat="51.85771" lon="5.05870"></trkpt><trkpt lat="51.85753" lon="5.05758"></trkpt><trkpt lat="51.85741" lon="5.05669"></trkpt><trkpt lat="51.85730" lon="5.05564"></trkpt><trkpt lat="51.85716" lon="5.05473"></trkpt><trkpt lat="51.85653" lon="5.05495"></trkpt><trkpt lat="51.85644" lon="5.05440"></trkpt><trkpt lat="51.85411" lon="5.05568"></trkpt><trkpt lat="51.85361" lon="5.05588"></trkpt><trkpt lat="51.85304" lon="5.05598"></trkpt><trkpt lat="51.85274" lon="5.05598"></trkpt><trkpt lat="51.85238" lon="5.05591"></trkpt><trkpt lat="51.85058" lon="5.05533"></trkpt><trkpt lat="51.84555" lon="5.05442"></trkpt><trkpt lat="51.84286" lon="5.05380"></trkpt><trkpt lat="51.84256" lon="5.05360"></trkpt><trkpt lat="51.84242" lon="5.05346"></trkpt><trkpt lat="51.84221" lon="5.05316"></trkpt><trkpt lat="51.84206" lon="5.05290"></trkpt><trkpt lat="51.84186" lon="5.05233"></trkpt><trkpt lat="51.84174" lon="5.05192"></trkpt><trkpt lat="51.84148" lon="5.05127"></trkpt><trkpt lat="51.84120" lon="5.05088"></trkpt><trkpt lat="51.84091" lon="5.05065"></trkpt><trkpt lat="51.84067" lon="5.05055"></trkpt><trkpt lat="51.84006" lon="5.05050"></trkpt><trkpt lat="51.83939" lon="5.05050"></trkpt><trkpt lat="51.83880" lon="5.05053"></trkpt><trkpt lat="51.83854" lon="5.05061"></trkpt><trkpt lat="51.83823" lon="5.05083"></trkpt><trkpt lat="51.83756" lon="5.05154"></trkpt><trkpt lat="51.83728" lon="5.05177"></trkpt><trkpt lat="51.83694" lon="5.05191"></trkpt><trkpt lat="51.83661" lon="5.05191"></trkpt><trkpt lat="51.83619" lon="5.05170"></trkpt><trkpt lat="51.83286" lon="5.04913"></trkpt><trkpt lat="51.83270" lon="5.04902"></trkpt><trkpt lat="51.83215" lon="5.04881"></trkpt><trkpt lat="51.83270" lon="5.04541"></trkpt><trkpt lat="51.83306" lon="5.04307"></trkpt><trkpt lat="51.83309" lon="5.04224"></trkpt><trkpt lat="51.83213" lon="5.03169"></trkpt><trkpt lat="51.83205" lon="5.03103"></trkpt><trkpt lat="51.83207" lon="5.02983"></trkpt><trkpt lat="51.83209" lon="5.02957"></trkpt><trkpt lat="51.82601" lon="5.02814"></trkpt><trkpt lat="51.82613" lon="5.02661"></trkpt><trkpt lat="51.82674" lon="5.02133"></trkpt><trkpt lat="51.82688" lon="5.02028"></trkpt><trkpt lat="51.82716" lon="5.01848"></trkpt><trkpt lat="51.82757" lon="5.01696"></trkpt><trkpt lat="51.82811" lon="5.01517"></trkpt><trkpt lat="51.82825" lon="5.01493"></trkpt><trkpt lat="51.82956" lon="5.01068"></trkpt><trkpt lat="51.82969" lon="5.01031"></trkpt><trkpt lat="51.82984" lon="5.00977"></trkpt><trkpt lat="51.83037" lon="5.00803"></trkpt><trkpt lat="51.83054" lon="5.00734"></trkpt><trkpt lat="51.83067" lon="5.00666"></trkpt><trkpt lat="51.83081" lon="5.00577"></trkpt><trkpt lat="51.83092" lon="5.00451"></trkpt><trkpt lat="51.83092" lon="5.00426"></trkpt><trkpt lat="51.83089" lon="5.00192"></trkpt><trkpt lat="51.83083" lon="4.99928"></trkpt><trkpt lat="51.83078" lon="4.99886"></trkpt><trkpt lat="51.83081" lon="4.99832"></trkpt><trkpt lat="51.83080" lon="4.99801"></trkpt><trkpt lat="51.83090" lon="4.99728"></trkpt><trkpt lat="51.83104" lon="4.99596"></trkpt><trkpt lat="51.83117" lon="4.99558"></trkpt><trkpt lat="51.83152" lon="4.99417"></trkpt><trkpt lat="51.83169" lon="4.99336"></trkpt><trkpt lat="51.83180" lon="4.99269"></trkpt><trkpt lat="51.83188" lon="4.99168"></trkpt><trkpt lat="51.83186" lon="4.99140"></trkpt><trkpt lat="51.83188" lon="4.99100"></trkpt><trkpt lat="51.83184" lon="4.99029"></trkpt><trkpt lat="51.83173" lon="4.98961"></trkpt><trkpt lat="51.83182" lon="4.98957"></trkpt><trkpt lat="51.83169" lon="4.98851"></trkpt><trkpt lat="51.83159" lon="4.98787"></trkpt><trkpt lat="51.83143" lon="4.98712"></trkpt><trkpt lat="51.83138" lon="4.98666"></trkpt><trkpt lat="51.83139" lon="4.98645"></trkpt><trkpt lat="51.83195" lon="4.98474"></trkpt><trkpt lat="51.83203" lon="4.98456"></trkpt><trkpt lat="51.83211" lon="4.98448"></trkpt><trkpt lat="51.83220" lon="4.98446"></trkpt><trkpt lat="51.83256" lon="4.98461"></trkpt><trkpt lat="51.83270" lon="4.98458"></trkpt><trkpt lat="51.83278" lon="4.98449"></trkpt><trkpt lat="51.83283" lon="4.98438"></trkpt><trkpt lat="51.83294" lon="4.98362"></trkpt><trkpt lat="51.83297" lon="4.98353"></trkpt><trkpt lat="51.83305" lon="4.98344"></trkpt><trkpt lat="51.83409" lon="4.98329"></trkpt><trkpt lat="51.83424" lon="4.98317"></trkpt><trkpt lat="51.83437" lon="4.98301"></trkpt><trkpt lat="51.83427" lon="4.98280"></trkpt><trkpt lat="51.83398" lon="4.98207"></trkpt><trkpt lat="51.83390" lon="4.98166"></trkpt><trkpt lat="51.83391" lon="4.98112"></trkpt><trkpt lat="51.83401" lon="4.98083"></trkpt><trkpt lat="51.83407" lon="4.98074"></trkpt><trkpt lat="51.83415" lon="4.98067"></trkpt><trkpt lat="51.83404" lon="4.98038"></trkpt><trkpt lat="51.83400" lon="4.98034"></trkpt><trkpt lat="51.83360" lon="4.97900"></trkpt><trkpt lat="51.83350" lon="4.97889"></trkpt><trkpt lat="51.83334" lon="4.97893"></trkpt><trkpt lat="51.83309" lon="4.97906"></trkpt><trkpt lat="51.83290" lon="4.97908"></trkpt><trkpt lat="51.83277" lon="4.97892"></trkpt><trkpt lat="51.83233" lon="4.97815"></trkpt><trkpt lat="51.83223" lon="4.97808"></trkpt><trkpt lat="51.83204" lon="4.97805"></trkpt><trkpt lat="51.83180" lon="4.97783"></trkpt><trkpt lat="51.83148" lon="4.97758"></trkpt><trkpt lat="51.83122" lon="4.97748"></trkpt><trkpt lat="51.83093" lon="4.97745"></trkpt><trkpt lat="51.83070" lon="4.97739"></trkpt><trkpt lat="51.83025" lon="4.97710"></trkpt><trkpt lat="51.83017" lon="4.97702"></trkpt><trkpt lat="51.83004" lon="4.97697"></trkpt><trkpt lat="51.82967" lon="4.97697"></trkpt><trkpt lat="51.82915" lon="4.97691"></trkpt><trkpt lat="51.82893" lon="4.97687"></trkpt><trkpt lat="51.82805" lon="4.97654"></trkpt><trkpt lat="51.82814" lon="4.97605"></trkpt><trkpt lat="51.82817" lon="4.97574"></trkpt><trkpt lat="51.82729" lon="4.97522"></trkpt><trkpt lat="51.82672" lon="4.97480"></trkpt><trkpt lat="51.82662" lon="4.97477"></trkpt><trkpt lat="51.82617" lon="4.97447"></trkpt><trkpt lat="51.82604" lon="4.97497"></trkpt><trkpt lat="51.82593" lon="4.97517"></trkpt><trkpt lat="51.82586" lon="4.97522"></trkpt><trkpt lat="51.82412" lon="4.97619"></trkpt><trkpt lat="51.82363" lon="4.97831"></trkpt><trkpt lat="51.82363" lon="4.97830"></trkpt><trkpt lat="51.82243" lon="4.98584"></trkpt><trkpt lat="51.82243" lon="4.98583"></trkpt><trkpt lat="51.82110" lon="4.99761"></trkpt><trkpt lat="51.82060" lon="4.99759"></trkpt><trkpt lat="51.82060" lon="4.99800"></trkpt><trkpt lat="51.82048" lon="4.99915"></trkpt><trkpt lat="51.82032" lon="5.00018"></trkpt><trkpt lat="51.81990" lon="5.00245"></trkpt><trkpt lat="51.81969" lon="5.00329"></trkpt><trkpt lat="51.81925" lon="5.00413"></trkpt><trkpt lat="51.81913" lon="5.00425"></trkpt><trkpt lat="51.81865" lon="5.00437"></trkpt><trkpt lat="51.81857" lon="5.00426"></trkpt><trkpt lat="51.81853" lon="5.00423"></trkpt><trkpt lat="51.81865" lon="5.00403"></trkpt><trkpt lat="51.81866" lon="5.00395"></trkpt><trkpt lat="51.81865" lon="5.00384"></trkpt><trkpt lat="51.81844" lon="5.00355"></trkpt><trkpt lat="51.81835" lon="5.00332"></trkpt><trkpt lat="51.81834" lon="5.00314"></trkpt><trkpt lat="51.81834" lon="5.00260"></trkpt><trkpt lat="51.81851" lon="5.00185"></trkpt><trkpt lat="51.81850" lon="5.00163"></trkpt><trkpt lat="51.81846" lon="5.00157"></trkpt><trkpt lat="51.81825" lon="5.00149"></trkpt><trkpt lat="51.81814" lon="5.00131"></trkpt><trkpt lat="51.81807" lon="5.00109"></trkpt><trkpt lat="51.81798" lon="5.00022"></trkpt><trkpt lat="51.81793" lon="5.00016"></trkpt><trkpt lat="51.81787" lon="5.00018"></trkpt><trkpt lat="51.81735" lon="5.00063"></trkpt><trkpt lat="51.81729" lon="5.00073"></trkpt><trkpt lat="51.81725" lon="5.00087"></trkpt><trkpt lat="51.81719" lon="5.00094"></trkpt><trkpt lat="51.81715" lon="5.00095"></trkpt><trkpt lat="51.81708" lon="5.00075"></trkpt><trkpt lat="51.81696" lon="5.00029"></trkpt><trkpt lat="51.81709" lon="4.99983"></trkpt><trkpt lat="51.81684" lon="4.99992"></trkpt><trkpt lat="51.81666" lon="4.99989"></trkpt><trkpt lat="51.81667" lon="4.99896"></trkpt><trkpt lat="51.81657" lon="4.99574"></trkpt><trkpt lat="51.81637" lon="4.99128"></trkpt><trkpt lat="51.81631" lon="4.98805"></trkpt><trkpt lat="51.81624" lon="4.98629"></trkpt><trkpt lat="51.81621" lon="4.98592"></trkpt><trkpt lat="51.81616" lon="4.98586"></trkpt><trkpt lat="51.81620" lon="4.98543"></trkpt><trkpt lat="51.81607" lon="4.98186"></trkpt><trkpt lat="51.81603" lon="4.98162"></trkpt><trkpt lat="51.81563" lon="4.98158"></trkpt><trkpt lat="51.81416" lon="4.98106"></trkpt><trkpt lat="51.81368" lon="4.98104"></trkpt><trkpt lat="51.81325" lon="4.98112"></trkpt><trkpt lat="51.81285" lon="4.98114"></trkpt><trkpt lat="51.81233" lon="4.98111"></trkpt><trkpt lat="51.81136" lon="4.98099"></trkpt><trkpt lat="51.80954" lon="4.98093"></trkpt><trkpt lat="51.80833" lon="4.98075"></trkpt><trkpt lat="51.80818" lon="4.98067"></trkpt><trkpt lat="51.80772" lon="4.98012"></trkpt><trkpt lat="51.80689" lon="4.97930"></trkpt><trkpt lat="51.80651" lon="4.97885"></trkpt><trkpt lat="51.80558" lon="4.97761"></trkpt><trkpt lat="51.80539" lon="4.97728"></trkpt><trkpt lat="51.80533" lon="4.97710"></trkpt><trkpt lat="51.80523" lon="4.97633"></trkpt><trkpt lat="51.80514" lon="4.97592"></trkpt><trkpt lat="51.80499" lon="4.97552"></trkpt><trkpt lat="51.80483" lon="4.97519"></trkpt><trkpt lat="51.80438" lon="4.97466"></trkpt><trkpt lat="51.80356" lon="4.97386"></trkpt><trkpt lat="51.80399" lon="4.97247"></trkpt><trkpt lat="51.80400" lon="4.97237"></trkpt><trkpt lat="51.80397" lon="4.97224"></trkpt><trkpt lat="51.80321" lon="4.97116"></trkpt><trkpt lat="51.80315" lon="4.97104"></trkpt><trkpt lat="51.80313" lon="4.97086"></trkpt><trkpt lat="51.80322" lon="4.96924"></trkpt><trkpt lat="51.80333" lon="4.96517"></trkpt><trkpt lat="51.80344" lon="4.96517"></trkpt><trkpt lat="51.80346" lon="4.96502"></trkpt><trkpt lat="51.80343" lon="4.96493"></trkpt><trkpt lat="51.80189" lon="4.96350"></trkpt><trkpt lat="51.80189" lon="4.96232"></trkpt><trkpt lat="51.80185" lon="4.96186"></trkpt><trkpt lat="51.80186" lon="4.96062"></trkpt><trkpt lat="51.80188" lon="4.96048"></trkpt><trkpt lat="51.80218" lon="4.95967"></trkpt><trkpt lat="51.80217" lon="4.95959"></trkpt><trkpt lat="51.80222" lon="4.95948"></trkpt><trkpt lat="51.80257" lon="4.95942"></trkpt><trkpt lat="51.80259" lon="4.95822"></trkpt><trkpt lat="51.80322" lon="4.95664"></trkpt><trkpt lat="51.80358" lon="4.95662"></trkpt><trkpt lat="51.80364" lon="4.95655"></trkpt><trkpt lat="51.80365" lon="4.95548"></trkpt><trkpt lat="51.80368" lon="4.95534"></trkpt><trkpt lat="51.80392" lon="4.95475"></trkpt><trkpt lat="51.80383" lon="4.95464"></trkpt><trkpt lat="51.80381" lon="4.95456"></trkpt><trkpt lat="51.80395" lon="4.95414"></trkpt><trkpt lat="51.80393" lon="4.95408"></trkpt><trkpt lat="51.80388" lon="4.95402"></trkpt><trkpt lat="51.80413" lon="4.95335"></trkpt><trkpt lat="51.80439" lon="4.95273"></trkpt><trkpt lat="51.80431" lon="4.95263"></trkpt><trkpt lat="51.80427" lon="4.95260"></trkpt><trkpt lat="51.80094" lon="4.94832"></trkpt><trkpt lat="51.80069" lon="4.94803"></trkpt><trkpt lat="51.80060" lon="4.94788"></trkpt><trkpt lat="51.80028" lon="4.94656"></trkpt><trkpt lat="51.80014" lon="4.94580"></trkpt><trkpt lat="51.80010" lon="4.94566"></trkpt><trkpt lat="51.79999" lon="4.94546"></trkpt><trkpt lat="51.79996" lon="4.94519"></trkpt><trkpt lat="51.79994" lon="4.94515"></trkpt><trkpt lat="51.79967" lon="4.94496"></trkpt><trkpt lat="51.79881" lon="4.94441"></trkpt><trkpt lat="51.79877" lon="4.94435"></trkpt><trkpt lat="51.79873" lon="4.94435"></trkpt><trkpt lat="51.79579" lon="4.94243"></trkpt><trkpt lat="51.79570" lon="4.94242"></trkpt><trkpt lat="51.79521" lon="4.93842"></trkpt><trkpt lat="51.79532" lon="4.93831"></trkpt><trkpt lat="51.79596" lon="4.93812"></trkpt><trkpt lat="51.79614" lon="4.93803"></trkpt><trkpt lat="51.79659" lon="4.93768"></trkpt><trkpt lat="51.79725" lon="4.93720"></trkpt><trkpt lat="51.79754" lon="4.93718"></trkpt><trkpt lat="51.79842" lon="4.93742"></trkpt><trkpt lat="51.79862" lon="4.93755"></trkpt><trkpt lat="51.79884" lon="4.93754"></trkpt><trkpt lat="51.79913" lon="4.93738"></trkpt><trkpt lat="51.79937" lon="4.93714"></trkpt><trkpt lat="51.79948" lon="4.93693"></trkpt><trkpt lat="51.79959" lon="4.93667"></trkpt><trkpt lat="51.79978" lon="4.93613"></trkpt><trkpt lat="51.80007" lon="4.93515"></trkpt><trkpt lat="51.80042" lon="4.93406"></trkpt><trkpt lat="51.80046" lon="4.93402"></trkpt><trkpt lat="51.80055" lon="4.93399"></trkpt><trkpt lat="51.80059" lon="4.93394"></trkpt><trkpt lat="51.80068" lon="4.93375"></trkpt><trkpt lat="51.80061" lon="4.93360"></trkpt><trkpt lat="51.80060" lon="4.93348"></trkpt><trkpt lat="51.80083" lon="4.93069"></trkpt><trkpt lat="51.80112" lon="4.92773"></trkpt><trkpt lat="51.80110" lon="4.92733"></trkpt><trkpt lat="51.80111" lon="4.92717"></trkpt><trkpt lat="51.80116" lon="4.92712"></trkpt><trkpt lat="51.80124" lon="4.92713"></trkpt><trkpt lat="51.80162" lon="4.92757"></trkpt><trkpt lat="51.80174" lon="4.92761"></trkpt><trkpt lat="51.80181" lon="4.92757"></trkpt><trkpt lat="51.80196" lon="4.92735"></trkpt><trkpt lat="51.80208" lon="4.92706"></trkpt><trkpt lat="51.80215" lon="4.92677"></trkpt><trkpt lat="51.80238" lon="4.92543"></trkpt><trkpt lat="51.80255" lon="4.92424"></trkpt><trkpt lat="51.80262" lon="4.92354"></trkpt><trkpt lat="51.80264" lon="4.92177"></trkpt><trkpt lat="51.80260" lon="4.92146"></trkpt><trkpt lat="51.80247" lon="4.92103"></trkpt><trkpt lat="51.80234" lon="4.92068"></trkpt><trkpt lat="51.80233" lon="4.92054"></trkpt><trkpt lat="51.80235" lon="4.92041"></trkpt><trkpt lat="51.80248" lon="4.92011"></trkpt><trkpt lat="51.80286" lon="4.91933"></trkpt><trkpt lat="51.80336" lon="4.91810"></trkpt><trkpt lat="51.80293" lon="4.91791"></trkpt><trkpt lat="51.80278" lon="4.91779"></trkpt><trkpt lat="51.80266" lon="4.91739"></trkpt><trkpt lat="51.80259" lon="4.91729"></trkpt><trkpt lat="51.80245" lon="4.91722"></trkpt><trkpt lat="51.80218" lon="4.91736"></trkpt><trkpt lat="51.80209" lon="4.91739"></trkpt><trkpt lat="51.80197" lon="4.91737"></trkpt><trkpt lat="51.80075" lon="4.91672"></trkpt><trkpt lat="51.80058" lon="4.91671"></trkpt><trkpt lat="51.80046" lon="4.91656"></trkpt><trkpt lat="51.79599" lon="4.91425"></trkpt><trkpt lat="51.79589" lon="4.91412"></trkpt><trkpt lat="51.79577" lon="4.91375"></trkpt><trkpt lat="51.79556" lon="4.91348"></trkpt><trkpt lat="51.79552" lon="4.91336"></trkpt><trkpt lat="51.79554" lon="4.91313"></trkpt><trkpt lat="51.79537" lon="4.91303"></trkpt><trkpt lat="51.79200" lon="4.91157"></trkpt><trkpt lat="51.79180" lon="4.91144"></trkpt><trkpt lat="51.79173" lon="4.91125"></trkpt><trkpt lat="51.79172" lon="4.91100"></trkpt><trkpt lat="51.79176" lon="4.90976"></trkpt><trkpt lat="51.79176" lon="4.90936"></trkpt><trkpt lat="51.79173" lon="4.90903"></trkpt><trkpt lat="51.79167" lon="4.90884"></trkpt><trkpt lat="51.79157" lon="4.90871"></trkpt><trkpt lat="51.79145" lon="4.90865"></trkpt><trkpt lat="51.79128" lon="4.90868"></trkpt><trkpt lat="51.79084" lon="4.90896"></trkpt><trkpt lat="51.79069" lon="4.90911"></trkpt><trkpt lat="51.79059" lon="4.90934"></trkpt><trkpt lat="51.79046" lon="4.91001"></trkpt><trkpt lat="51.79038" lon="4.91016"></trkpt><trkpt lat="51.79028" lon="4.91026"></trkpt><trkpt lat="51.79010" lon="4.91031"></trkpt><trkpt lat="51.78931" lon="4.91030"></trkpt><trkpt lat="51.78908" lon="4.91028"></trkpt><trkpt lat="51.78853" lon="4.91015"></trkpt><trkpt lat="51.78836" lon="4.91008"></trkpt><trkpt lat="51.78801" lon="4.90985"></trkpt><trkpt lat="51.78781" lon="4.90981"></trkpt><trkpt lat="51.78399" lon="4.90962"></trkpt><trkpt lat="51.78276" lon="4.90954"></trkpt><trkpt lat="51.78116" lon="4.90950"></trkpt><trkpt lat="51.78119" lon="4.90819"></trkpt><trkpt lat="51.78123" lon="4.90778"></trkpt><trkpt lat="51.78139" lon="4.90702"></trkpt><trkpt lat="51.78151" lon="4.90664"></trkpt><trkpt lat="51.78072" lon="4.90601"></trkpt><trkpt lat="51.77969" lon="4.90531"></trkpt><trkpt lat="51.77934" lon="4.90498"></trkpt><trkpt lat="51.77866" lon="4.90426"></trkpt><trkpt lat="51.77843" lon="4.90396"></trkpt><trkpt lat="51.77823" lon="4.90364"></trkpt><trkpt lat="51.77736" lon="4.90206"></trkpt><trkpt lat="51.77716" lon="4.90148"></trkpt><trkpt lat="51.77704" lon="4.90107"></trkpt><trkpt lat="51.77690" lon="4.90071"></trkpt><trkpt lat="51.77676" lon="4.90043"></trkpt><trkpt lat="51.77567" lon="4.89854"></trkpt><trkpt lat="51.77534" lon="4.89817"></trkpt><trkpt lat="51.77433" lon="4.89749"></trkpt><trkpt lat="51.77400" lon="4.89717"></trkpt><trkpt lat="51.77384" lon="4.89704"></trkpt><trkpt lat="51.77330" lon="4.89678"></trkpt><trkpt lat="51.77294" lon="4.89666"></trkpt><trkpt lat="51.77104" lon="4.89619"></trkpt><trkpt lat="51.77076" lon="4.89607"></trkpt><trkpt lat="51.77057" lon="4.89594"></trkpt><trkpt lat="51.77024" lon="4.89562"></trkpt><trkpt lat="51.76805" lon="4.89169"></trkpt><trkpt lat="51.76775" lon="4.89122"></trkpt><trkpt lat="51.76655" lon="4.88969"></trkpt><trkpt lat="51.76613" lon="4.88906"></trkpt><trkpt lat="51.76591" lon="4.88864"></trkpt><trkpt lat="51.76578" lon="4.88818"></trkpt><trkpt lat="51.76576" lon="4.88803"></trkpt><trkpt lat="51.76577" lon="4.88765"></trkpt><trkpt lat="51.76596" lon="4.88660"></trkpt><trkpt lat="51.76595" lon="4.88620"></trkpt><trkpt lat="51.76588" lon="4.88589"></trkpt><trkpt lat="51.76558" lon="4.88503"></trkpt><trkpt lat="51.76506" lon="4.88549"></trkpt><trkpt lat="51.76481" lon="4.88582"></trkpt><trkpt lat="51.76467" lon="4.88604"></trkpt><trkpt lat="51.76445" lon="4.88653"></trkpt><trkpt lat="51.76413" lon="4.88617"></trkpt><trkpt lat="51.76356" lon="4.88514"></trkpt><trkpt lat="51.76334" lon="4.88484"></trkpt><trkpt lat="51.76178" lon="4.88331"></trkpt><trkpt lat="51.76109" lon="4.88269"></trkpt><trkpt lat="51.76074" lon="4.88230"></trkpt><trkpt lat="51.76011" lon="4.88148"></trkpt><trkpt lat="51.75725" lon="4.87765"></trkpt></trkseg></trk></gpx>