<?xml version="1.0" encoding="UTF-8"?>
<gpx version="1.1" creator="LF Waterlinieroute dagetappe" xmlns:xsi="http://www.w3.org/2001/XMLSchema-instance" xmlns="http://www.topografix.com/GPX/1/1" xsi:schemaLocation="http://www.topografix.com/GPX/1/1 https://www.topografix.com/GPX/1/1/gpx.xsd"><metadata><name>Dag 3 - Fort Bakkerskil > Bergen op Zoom</name></metadata><trk><name>Dag 3 - Fort Bakkerskil > Bergen op Zoom</name><trkseg><trkpt lat="51.75725" lon="4.87765"></trkpt><trkpt lat="51.75701" lon="4.87724"></trkpt><trkpt lat="51.75634" lon="4.87540"></trkpt><trkpt lat="51.75594" lon="4.87408"></trkpt><trkpt lat="51.75591" lon="4.87392"></trkpt><trkpt lat="51.75588" lon="4.87312"></trkpt><trkpt lat="51.75579" lon="4.87278"></trkpt><trkpt lat="51.75484" lon="4.87031"></trkpt><trkpt lat="51.75478" lon="4.87009"></trkpt><trkpt lat="51.75476" lon="4.86985"></trkpt><trkpt lat="51.75479" lon="4.86962"></trkpt><trkpt lat="51.75637" lon="4.86415"></trkpt><trkpt lat="51.75387" lon="4.86230"></trkpt><trkpt lat="51.75363" lon="4.86206"></trkpt><trkpt lat="51.75345" lon="4.86179"></trkpt><trkpt lat="51.75332" lon="4.86154"></trkpt><trkpt lat="51.75321" lon="4.86123"></trkpt><trkpt lat="51.75313" lon="4.86081"></trkpt><trkpt lat="51.75292" lon="4.85859"></trkpt><trkpt lat="51.75267" lon="4.85558"></trkpt><trkpt lat="51.75262" lon="4.85528"></trkpt><trkpt lat="51.75251" lon="4.85497"></trkpt><trkpt lat="51.75237" lon="4.85475"></trkpt><trkpt lat="51.75220" lon="4.85457"></trkpt><trkpt lat="51.75203" lon="4.85448"></trkpt><trkpt lat="51.75183" lon="4.85445"></trkpt><trkpt lat="51.75160" lon="4.85445"></trkpt><trkpt lat="51.75139" lon="4.85453"></trkpt><trkpt lat="51.75107" lon="4.85474"></trkpt><trkpt lat="51.75081" lon="4.85485"></trkpt><trkpt lat="51.75049" lon="4.85494"></trkpt><trkpt lat="51.75012" lon="4.85494"></trkpt><trkpt lat="51.74977" lon="4.85487"></trkpt><trkpt lat="51.74932" lon="4.85465"></trkpt><trkpt lat="51.74783" lon="4.85335"></trkpt><trkpt lat="51.74723" lon="4.85301"></trkpt><trkpt lat="51.74697" lon="4.85293"></trkpt><trkpt lat="51.74664" lon="4.85299"></trkpt><trkpt lat="51.74646" lon="4.85312"></trkpt><trkpt lat="51.74627" lon="4.85337"></trkpt><trkpt lat="51.74499" lon="4.85613"></trkpt><trkpt lat="51.74481" lon="4.85637"></trkpt><trkpt lat="51.74459" lon="4.85657"></trkpt><trkpt lat="51.74436" lon="4.85669"></trkpt><trkpt lat="51.74423" lon="4.85674"></trkpt><trkpt lat="51.74403" lon="4.85675"></trkpt><trkpt lat="51.74366" lon="4.85661"></trkpt><trkpt lat="51.74243" lon="4.85573"></trkpt><trkpt lat="51.73793" lon="4.85232"></trkpt><trkpt lat="51.73776" lon="4.85226"></trkpt><trkpt lat="51.73740" lon="4.85229"></trkpt><trkpt lat="51.73725" lon="4.85238"></trkpt><trkpt lat="51.73707" lon="4.85255"></trkpt><trkpt lat="51.73570" lon="4.85464"></trkpt><trkpt lat="51.73542" lon="4.85518"></trkpt><trkpt lat="51.73436" lon="4.85780"></trkpt><trkpt lat="51.73404" lon="4.85842"></trkpt><trkpt lat="51.73373" lon="4.85885"></trkpt><trkpt lat="51.73204" lon="4.86069"></trkpt><trkpt lat="51.73176" lon="4.86092"></trkpt><trkpt lat="51.73139" lon="4.86107"></trkpt><trkpt lat="51.72999" lon="4.86110"></trkpt><trkpt lat="51.72989" lon="4.86112"></trkpt><trkpt lat="51.72981" lon="4.86121"></trkpt><trkpt lat="51.72979" lon="4.86129"></trkpt><trkpt lat="51.72969" lon="4.86125"></trkpt><trkpt lat="51.72970" lon="4.86148"></trkpt><trkpt lat="51.73045" lon="4.86419"></trkpt><trkpt lat="51.73067" lon="4.86554"></trkpt><trkpt lat="51.73096" lon="4.86782"></trkpt><trkpt lat="51.73105" lon="4.86896"></trkpt><trkpt lat="51.73104" lon="4.86932"></trkpt><trkpt lat="51.73095" lon="4.86999"></trkpt><trkpt lat="51.73084" lon="4.87033"></trkpt><trkpt lat="51.73062" lon="4.87077"></trkpt><trkpt lat="51.73024" lon="4.87116"></trkpt><trkpt lat="51.72972" lon="4.87132"></trkpt><trkpt lat="51.72782" lon="4.87148"></trkpt><trkpt lat="51.72745" lon="4.87165"></trkpt><trkpt lat="51.72726" lon="4.87185"></trkpt><trkpt lat="51.72715" lon="4.87198"></trkpt><trkpt lat="51.72691" lon="4.87242"></trkpt><trkpt lat="51.72678" lon="4.87292"></trkpt><trkpt lat="51.72639" lon="4.87491"></trkpt><trkpt lat="51.72685" lon="4.87526"></trkpt><trkpt lat="51.72716" lon="4.87544"></trkpt><trkpt lat="51.72733" lon="4.87547"></trkpt><trkpt lat="51.73166" lon="4.87512"></trkpt><trkpt lat="51.73196" lon="4.87521"></trkpt><trkpt lat="51.73220" lon="4.87540"></trkpt><trkpt lat="51.73231" lon="4.87562"></trkpt><trkpt lat="51.73248" lon="4.87606"></trkpt><trkpt lat="51.73354" lon="4.87927"></trkpt><trkpt lat="51.73370" lon="4.87961"></trkpt><trkpt lat="51.73427" lon="4.88046"></trkpt><trkpt lat="51.73334" lon="4.88220"></trkpt><trkpt lat="51.73264" lon="4.88319"></trkpt><trkpt lat="51.73248" lon="4.88348"></trkpt><trkpt lat="51.73232" lon="4.88396"></trkpt><trkpt lat="51.73224" lon="4.88439"></trkpt><trkpt lat="51.73223" lon="4.88479"></trkpt><trkpt lat="51.73227" lon="4.88533"></trkpt><trkpt lat="51.73314" lon="4.89302"></trkpt><trkpt lat="51.73318" lon="4.89312"></trkpt><trkpt lat="51.73331" lon="4.89319"></trkpt><trkpt lat="51.73358" lon="4.89307"></trkpt><trkpt lat="51.73369" lon="4.89312"></trkpt><trkpt lat="51.73556" lon="4.89824"></trkpt><trkpt lat="51.73506" lon="4.89878"></trkpt><trkpt lat="51.73473" lon="4.89995"></trkpt><trkpt lat="51.73419" lon="4.89955"></trkpt><trkpt lat="51.73408" lon="4.89937"></trkpt><trkpt lat="51.73400" lon="4.89929"></trkpt><trkpt lat="51.73393" lon="4.89924"></trkpt><trkpt lat="51.73372" lon="4.89920"></trkpt><trkpt lat="51.73170" lon="4.89770"></trkpt><trkpt lat="51.73165" lon="4.89771"></trkpt><trkpt lat="51.73123" lon="4.89830"></trkpt><trkpt lat="51.73096" lon="4.89818"></trkpt><trkpt lat="51.73088" lon="4.89834"></trkpt><trkpt lat="51.73080" lon="4.89820"></trkpt><trkpt lat="51.72994" lon="4.89704"></trkpt><trkpt lat="51.72984" lon="4.89703"></trkpt><trkpt lat="51.72979" lon="4.89696"></trkpt><trkpt lat="51.72973" lon="4.89679"></trkpt><trkpt lat="51.72966" lon="4.89666"></trkpt><trkpt lat="51.72961" lon="4.89650"></trkpt><trkpt lat="51.72932" lon="4.89591"></trkpt><trkpt lat="51.72918" lon="4.89549"></trkpt><trkpt lat="51.72905" lon="4.89492"></trkpt><trkpt lat="51.72894" lon="4.89421"></trkpt><trkpt lat="51.72730" lon="4.89471"></trkpt><trkpt lat="51.72716" lon="4.89473"></trkpt><trkpt lat="51.72643" lon="4.89403"></trkpt><trkpt lat="51.72515" lon="4.89304"></trkpt><trkpt lat="51.72389" lon="4.89220"></trkpt><trkpt lat="51.72321" lon="4.89181"></trkpt><trkpt lat="51.72245" lon="4.89142"></trkpt><trkpt lat="51.72094" lon="4.89087"></trkpt><trkpt lat="51.71835" lon="4.88986"></trkpt><trkpt lat="51.71642" lon="4.88903"></trkpt><trkpt lat="51.71566" lon="4.88812"></trkpt><trkpt lat="51.71560" lon="4.88797"></trkpt><trkpt lat="51.71531" lon="4.88764"></trkpt><trkpt lat="51.71516" lon="4.88735"></trkpt><trkpt lat="51.71489" lon="4.88705"></trkpt><trkpt lat="51.71456" lon="4.88653"></trkpt><trkpt lat="51.71409" lon="4.88601"></trkpt><trkpt lat="51.71278" lon="4.88444"></trkpt><trkpt lat="51.71204" lon="4.88345"></trkpt><trkpt lat="51.71193" lon="4.88332"></trkpt><trkpt lat="51.71158" lon="4.88303"></trkpt><trkpt lat="51.71144" lon="4.88287"></trkpt><trkpt lat="51.70896" lon="4.87992"></trkpt><trkpt lat="51.70759" lon="4.87811"></trkpt><trkpt lat="51.70754" lon="4.87799"></trkpt><trkpt lat="51.70737" lon="4.87776"></trkpt><trkpt lat="51.70721" lon="4.87761"></trkpt><trkpt lat="51.70703" lon="4.87750"></trkpt><trkpt lat="51.70687" lon="4.87735"></trkpt><trkpt lat="51.70418" lon="4.87419"></trkpt><trkpt lat="51.70379" lon="4.87358"></trkpt><trkpt lat="51.70360" lon="4.87316"></trkpt><trkpt lat="51.70337" lon="4.87256"></trkpt><trkpt lat="51.70291" lon="4.87171"></trkpt><trkpt lat="51.70276" lon="4.87130"></trkpt><trkpt lat="51.70190" lon="4.86955"></trkpt><trkpt lat="51.70184" lon="4.86946"></trkpt><trkpt lat="51.70165" lon="4.86931"></trkpt><trkpt lat="51.70138" lon="4.86921"></trkpt><trkpt lat="51.70115" lon="4.86920"></trkpt><trkpt lat="51.70086" lon="4.86933"></trkpt><trkpt lat="51.70024" lon="4.86970"></trkpt><trkpt lat="51.70017" lon="4.86973"></trkpt><trkpt lat="51.70009" lon="4.86969"></trkpt><trkpt lat="51.70004" lon="4.86963"></trkpt><trkpt lat="51.69996" lon="4.86945"></trkpt><trkpt lat="51.69988" lon="4.86904"></trkpt><trkpt lat="51.69982" lon="4.86815"></trkpt><trkpt lat="51.69973" lon="4.86623"></trkpt><trkpt lat="51.69965" lon="4.86497"></trkpt><trkpt lat="51.69971" lon="4.86496"></trkpt><trkpt lat="51.69965" lon="4.86431"></trkpt><trkpt lat="51.69968" lon="4.86419"></trkpt><trkpt lat="51.69990" lon="4.86366"></trkpt><trkpt lat="51.70006" lon="4.86307"></trkpt><trkpt lat="51.70014" lon="4.86267"></trkpt><trkpt lat="51.70023" lon="4.86233"></trkpt><trkpt lat="51.70035" lon="4.86200"></trkpt><trkpt lat="51.70041" lon="4.86189"></trkpt><trkpt lat="51.70062" lon="4.86165"></trkpt><trkpt lat="51.70086" lon="4.86073"></trkpt><trkpt lat="51.70097" lon="4.86029"></trkpt><trkpt lat="51.70120" lon="4.85905"></trkpt><trkpt lat="51.70173" lon="4.85639"></trkpt><trkpt lat="51.70198" lon="4.85527"></trkpt><trkpt lat="51.70200" lon="4.85505"></trkpt><trkpt lat="51.70198" lon="4.85406"></trkpt><trkpt lat="51.70176" lon="4.85215"></trkpt><trkpt lat="51.70158" lon="4.85081"></trkpt><trkpt lat="51.70155" lon="4.85005"></trkpt><trkpt lat="51.70161" lon="4.85002"></trkpt><trkpt lat="51.70163" lon="4.84996"></trkpt><trkpt lat="51.70162" lon="4.84985"></trkpt><trkpt lat="51.70156" lon="4.84979"></trkpt><trkpt lat="51.70151" lon="4.84981"></trkpt><trkpt lat="51.70148" lon="4.84989"></trkpt><trkpt lat="51.70016" lon="4.84982"></trkpt><trkpt lat="51.69933" lon="4.85042"></trkpt><trkpt lat="51.69856" lon="4.85084"></trkpt><trkpt lat="51.69833" lon="4.85105"></trkpt><trkpt lat="51.69800" lon="4.85159"></trkpt><trkpt lat="51.69790" lon="4.85171"></trkpt><trkpt lat="51.69765" lon="4.85172"></trkpt><trkpt lat="51.69746" lon="4.85171"></trkpt><trkpt lat="51.69722" lon="4.84914"></trkpt><trkpt lat="51.69701" lon="4.84723"></trkpt><trkpt lat="51.69683" lon="4.84523"></trkpt><trkpt lat="51.69680" lon="4.84439"></trkpt><trkpt lat="51.69665" lon="4.84271"></trkpt><trkpt lat="51.69533" lon="4.83144"></trkpt><trkpt lat="51.69480" lon="4.82620"></trkpt><trkpt lat="51.69454" lon="4.82466"></trkpt><trkpt lat="51.69436" lon="4.82374"></trkpt><trkpt lat="51.69409" lon="4.82263"></trkpt><trkpt lat="51.69384" lon="4.82168"></trkpt><trkpt lat="51.69348" lon="4.82049"></trkpt><trkpt lat="51.69134" lon="4.81397"></trkpt><trkpt lat="51.69133" lon="4.81386"></trkpt><trkpt lat="51.69137" lon="4.81376"></trkpt><trkpt lat="51.69123" lon="4.81357"></trkpt><trkpt lat="51.69077" lon="4.81217"></trkpt><trkpt lat="51.69039" lon="4.81106"></trkpt><trkpt lat="51.69032" lon="4.81090"></trkpt><trkpt lat="51.69021" lon="4.81052"></trkpt><trkpt lat="51.69026" lon="4.81028"></trkpt><trkpt lat="51.69023" lon="4.81017"></trkpt><trkpt lat="51.69013" lon="4.80992"></trkpt><trkpt lat="51.68999" lon="4.80987"></trkpt><trkpt lat="51.68989" lon="4.80998"></trkpt><trkpt lat="51.68978" lon="4.81006"></trkpt><trkpt lat="51.68973" lon="4.81033"></trkpt><trkpt lat="51.68893" lon="4.81110"></trkpt><trkpt lat="51.68632" lon="4.81342"></trkpt><trkpt lat="51.68569" lon="4.81392"></trkpt><trkpt lat="51.68557" lon="4.81378"></trkpt><trkpt lat="51.68360" lon="4.80804"></trkpt><trkpt lat="51.68341" lon="4.80752"></trkpt><trkpt lat="51.68462" lon="4.80682"></trkpt><trkpt lat="51.68432" lon="4.80592"></trkpt><trkpt lat="51.68381" lon="4.80412"></trkpt><trkpt lat="51.68297" lon="4.80140"></trkpt><trkpt lat="51.68218" lon="4.79864"></trkpt><trkpt lat="51.68325" lon="4.79791"></trkpt><trkpt lat="51.68363" lon="4.79770"></trkpt><trkpt lat="51.68486" lon="4.79697"></trkpt><trkpt lat="51.68565" lon="4.79647"></trkpt><trkpt lat="51.68546" lon="4.79594"></trkpt><trkpt lat="51.68522" lon="4.79539"></trkpt><trkpt lat="51.68515" lon="4.79531"></trkpt><trkpt lat="51.68433" lon="4.79571"></trkpt><trkpt lat="51.68377" lon="4.79596"></trkpt><trkpt lat="51.68359" lon="4.79602"></trkpt><trkpt lat="51.68278" lon="4.79604"></trkpt><trkpt lat="51.68205" lon="4.79591"></trkpt><trkpt lat="51.68161" lon="4.79580"></trkpt><trkpt lat="51.68152" lon="4.79575"></trkpt><trkpt lat="51.68092" lon="4.79503"></trkpt><trkpt lat="51.68083" lon="4.79459"></trkpt><trkpt lat="51.68071" lon="4.79386"></trkpt><trkpt lat="51.68036" lon="4.79227"></trkpt><trkpt lat="51.68026" lon="4.79205"></trkpt><trkpt lat="51.67994" lon="4.79066"></trkpt><trkpt lat="51.67985" lon="4.78998"></trkpt><trkpt lat="51.67998" lon="4.78689"></trkpt><trkpt lat="51.67861" lon="4.78753"></trkpt><trkpt lat="51.67741" lon="4.78812"></trkpt><trkpt lat="51.67721" lon="4.78823"></trkpt><trkpt lat="51.67684" lon="4.78854"></trkpt><trkpt lat="51.67649" lon="4.78877"></trkpt><trkpt lat="51.67641" lon="4.78844"></trkpt><trkpt lat="51.67594" lon="4.78866"></trkpt><trkpt lat="51.67578" lon="4.78883"></trkpt><trkpt lat="51.67566" lon="4.78862"></trkpt><trkpt lat="51.67552" lon="4.78877"></trkpt><trkpt lat="51.67495" lon="4.78908"></trkpt><trkpt lat="51.67491" lon="4.78828"></trkpt><trkpt lat="51.67487" lon="4.78793"></trkpt><trkpt lat="51.67462" lon="4.78658"></trkpt><trkpt lat="51.67449" lon="4.78575"></trkpt><trkpt lat="51.67444" lon="4.78519"></trkpt><trkpt lat="51.67430" lon="4.78421"></trkpt><trkpt lat="51.67444" lon="4.78411"></trkpt><trkpt lat="51.67434" lon="4.78375"></trkpt><trkpt lat="51.67428" lon="4.78371"></trkpt><trkpt lat="51.67407" lon="4.78277"></trkpt><trkpt lat="51.67392" lon="4.78247"></trkpt><trkpt lat="51.67386" lon="4.78252"></trkpt><trkpt lat="51.67340" lon="4.78264"></trkpt><trkpt lat="51.67248" lon="4.78295"></trkpt><trkpt lat="51.67185" lon="4.78322"></trkpt><trkpt lat="51.67127" lon="4.78350"></trkpt><trkpt lat="51.67098" lon="4.78366"></trkpt><trkpt lat="51.67093" lon="4.78377"></trkpt><trkpt lat="51.67080" lon="4.78371"></trkpt><trkpt lat="51.66972" lon="4.78392"></trkpt><trkpt lat="51.66942" lon="4.78394"></trkpt><trkpt lat="51.66920" lon="4.78391"></trkpt><trkpt lat="51.66910" lon="4.78389"></trkpt><trkpt lat="51.66896" lon="4.78380"></trkpt><trkpt lat="51.66884" lon="4.78367"></trkpt><trkpt lat="51.66826" lon="4.78242"></trkpt><trkpt lat="51.66803" lon="4.78197"></trkpt><trkpt lat="51.66770" lon="4.78155"></trkpt><trkpt lat="51.66749" lon="4.78224"></trkpt><trkpt lat="51.66724" lon="4.78273"></trkpt><trkpt lat="51.66694" lon="4.78314"></trkpt><trkpt lat="51.66558" lon="4.78468"></trkpt><trkpt lat="51.66485" lon="4.78542"></trkpt><trkpt lat="51.66341" lon="4.78167"></trkpt><trkpt lat="51.66330" lon="4.78154"></trkpt><trkpt lat="51.66319" lon="4.78156"></trkpt><trkpt lat="51.66289" lon="4.78173"></trkpt><trkpt lat="51.66267" lon="4.78163"></trkpt><trkpt lat="51.66018" lon="4.77991"></trkpt><trkpt lat="51.65985" lon="4.78118"></trkpt><trkpt lat="51.65961" lon="4.78295"></trkpt><trkpt lat="51.65948" lon="4.78334"></trkpt><trkpt lat="51.65937" lon="4.78355"></trkpt><trkpt lat="51.65913" lon="4.78383"></trkpt><trkpt lat="51.65890" lon="4.78400"></trkpt><trkpt lat="51.64704" lon="4.79119"></trkpt><trkpt lat="51.64465" lon="4.79278"></trkpt><trkpt lat="51.64368" lon="4.79333"></trkpt><trkpt lat="51.64355" lon="4.79336"></trkpt><trkpt lat="51.64349" lon="4.79335"></trkpt><trkpt lat="51.64337" lon="4.79327"></trkpt><trkpt lat="51.64268" lon="4.79242"></trkpt><trkpt lat="51.64230" lon="4.79189"></trkpt><trkpt lat="51.64211" lon="4.79102"></trkpt><trkpt lat="51.64192" lon="4.79036"></trkpt><trkpt lat="51.64176" lon="4.78994"></trkpt><trkpt lat="51.64168" lon="4.78964"></trkpt><trkpt lat="51.64138" lon="4.78785"></trkpt><trkpt lat="51.64148" lon="4.78588"></trkpt><trkpt lat="51.64145" lon="4.78569"></trkpt><trkpt lat="51.64140" lon="4.78561"></trkpt><trkpt lat="51.64104" lon="4.78533"></trkpt><trkpt lat="51.64094" lon="4.78518"></trkpt><trkpt lat="51.64089" lon="4.78500"></trkpt><trkpt lat="51.64091" lon="4.78479"></trkpt><trkpt lat="51.64116" lon="4.78403"></trkpt><trkpt lat="51.64120" lon="4.78375"></trkpt><trkpt lat="51.64087" lon="4.78203"></trkpt><trkpt lat="51.64073" lon="4.78178"></trkpt><trkpt lat="51.63999" lon="4.78100"></trkpt><trkpt lat="51.63993" lon="4.78090"></trkpt><trkpt lat="51.63981" lon="4.78046"></trkpt><trkpt lat="51.63944" lon="4.77627"></trkpt><trkpt lat="51.63937" lon="4.77589"></trkpt><trkpt lat="51.63915" lon="4.77508"></trkpt><trkpt lat="51.63912" lon="4.77485"></trkpt><trkpt lat="51.63911" lon="4.77440"></trkpt><trkpt lat="51.63903" lon="4.77437"></trkpt><trkpt lat="51.63746" lon="4.77288"></trkpt><trkpt lat="51.63726" lon="4.77264"></trkpt><trkpt lat="51.63666" lon="4.77177"></trkpt><trkpt lat="51.63636" lon="4.77142"></trkpt><trkpt lat="51.63584" lon="4.77089"></trkpt><trkpt lat="51.63538" lon="4.77207"></trkpt><trkpt lat="51.63351" lon="4.77575"></trkpt><trkpt lat="51.63321" lon="4.77614"></trkpt><trkpt lat="51.63243" lon="4.77700"></trkpt><trkpt lat="51.63222" lon="4.77725"></trkpt><trkpt lat="51.63214" lon="4.77746"></trkpt><trkpt lat="51.63211" lon="4.77767"></trkpt><trkpt lat="51.63212" lon="4.77792"></trkpt><trkpt lat="51.63253" lon="4.78031"></trkpt><trkpt lat="51.63254" lon="4.78044"></trkpt><trkpt lat="51.63243" lon="4.78053"></trkpt><trkpt lat="51.63194" lon="4.77836"></trkpt><trkpt lat="51.63184" lon="4.77777"></trkpt><trkpt lat="51.63187" lon="4.77756"></trkpt><trkpt lat="51.62998" lon="4.77769"></trkpt><trkpt lat="51.62928" lon="4.77787"></trkpt><trkpt lat="51.62901" lon="4.77791"></trkpt><trkpt lat="51.62847" lon="4.77792"></trkpt><trkpt lat="51.62824" lon="4.77790"></trkpt><trkpt lat="51.62762" lon="4.77776"></trkpt><trkpt lat="51.62729" lon="4.77761"></trkpt><trkpt lat="51.62669" lon="4.77717"></trkpt><trkpt lat="51.62626" lon="4.77679"></trkpt><trkpt lat="51.62611" lon="4.77663"></trkpt><trkpt lat="51.62563" lon="4.77601"></trkpt><trkpt lat="51.62543" lon="4.77582"></trkpt><trkpt lat="51.62528" lon="4.77575"></trkpt><trkpt lat="51.62471" lon="4.77567"></trkpt><trkpt lat="51.62452" lon="4.77559"></trkpt><trkpt lat="51.62425" lon="4.77537"></trkpt><trkpt lat="51.62407" lon="4.77501"></trkpt><trkpt lat="51.62376" lon="4.77383"></trkpt><trkpt lat="51.62367" lon="4.77363"></trkpt><trkpt lat="51.62345" lon="4.77333"></trkpt><trkpt lat="51.62326" lon="4.77322"></trkpt><trkpt lat="51.62300" lon="4.77314"></trkpt><trkpt lat="51.62291" lon="4.77162"></trkpt><trkpt lat="51.62269" lon="4.77019"></trkpt><trkpt lat="51.62264" lon="4.77008"></trkpt><trkpt lat="51.62255" lon="4.77004"></trkpt><trkpt lat="51.62216" lon="4.77019"></trkpt><trkpt lat="51.62209" lon="4.77025"></trkpt><trkpt lat="51.62192" lon="4.77046"></trkpt><trkpt lat="51.62191" lon="4.77018"></trkpt><trkpt lat="51.62187" lon="4.76986"></trkpt><trkpt lat="51.62245" lon="4.76964"></trkpt><trkpt lat="51.62331" lon="4.76941"></trkpt><trkpt lat="51.62606" lon="4.76828"></trkpt><trkpt lat="51.62635" lon="4.76819"></trkpt><trkpt lat="51.62756" lon="4.76795"></trkpt><trkpt lat="51.62819" lon="4.76781"></trkpt><trkpt lat="51.62848" lon="4.76771"></trkpt><trkpt lat="51.62920" lon="4.76742"></trkpt><trkpt lat="51.63025" lon="4.76690"></trkpt><trkpt lat="51.63032" lon="4.76681"></trkpt><trkpt lat="51.63039" lon="4.76662"></trkpt><trkpt lat="51.63048" lon="4.76646"></trkpt><trkpt lat="51.63063" lon="4.76638"></trkpt><trkpt lat="51.63363" lon="4.76517"></trkpt><trkpt lat="51.63378" lon="4.76510"></trkpt><trkpt lat="51.63404" lon="4.76491"></trkpt><trkpt lat="51.63461" lon="4.76469"></trkpt><trkpt lat="51.63482" lon="4.76459"></trkpt><trkpt lat="51.63485" lon="4.76470"></trkpt><trkpt lat="51.63485" lon="4.76476"></trkpt><trkpt lat="51.63553" lon="4.76449"></trkpt><trkpt lat="51.63564" lon="4.76448"></trkpt><trkpt lat="51.63563" lon="4.76440"></trkpt><trkpt lat="51.63600" lon="4.76423"></trkpt><trkpt lat="51.63658" lon="4.76380"></trkpt><trkpt lat="51.63706" lon="4.76326"></trkpt><trkpt lat="51.63736" lon="4.76276"></trkpt><trkpt lat="51.63759" lon="4.76227"></trkpt><trkpt lat="51.63792" lon="4.76130"></trkpt><trkpt lat="51.63837" lon="4.75960"></trkpt><trkpt lat="51.63893" lon="4.75758"></trkpt><trkpt lat="51.63904" lon="4.75729"></trkpt><trkpt lat="51.63976" lon="4.75641"></trkpt><trkpt lat="51.64044" lon="4.75530"></trkpt><trkpt lat="51.64061" lon="4.75506"></trkpt><trkpt lat="51.64065" lon="4.75510"></trkpt><trkpt lat="51.64071" lon="4.75508"></trkpt><trkpt lat="51.64075" lon="4.75498"></trkpt><trkpt lat="51.64073" lon="4.75491"></trkpt><trkpt lat="51.64108" lon="4.75460"></trkpt><trkpt lat="51.64212" lon="4.75384"></trkpt><trkpt lat="51.64248" lon="4.75350"></trkpt><trkpt lat="51.64254" lon="4.75341"></trkpt><trkpt lat="51.64262" lon="4.75319"></trkpt><trkpt lat="51.64271" lon="4.75307"></trkpt><trkpt lat="51.64267" lon="4.75301"></trkpt><trkpt lat="51.64262" lon="4.75276"></trkpt><trkpt lat="51.64219" lon="4.75016"></trkpt><trkpt lat="51.64170" lon="4.74739"></trkpt><trkpt lat="51.64181" lon="4.74702"></trkpt><trkpt lat="51.64185" lon="4.74694"></trkpt><trkpt lat="51.64242" lon="4.74683"></trkpt><trkpt lat="51.64248" lon="4.74678"></trkpt><trkpt lat="51.64261" lon="4.74662"></trkpt><trkpt lat="51.64265" lon="4.74651"></trkpt><trkpt lat="51.64265" lon="4.74639"></trkpt><trkpt lat="51.64277" lon="4.74623"></trkpt><trkpt lat="51.64308" lon="4.74436"></trkpt><trkpt lat="51.64313" lon="4.74419"></trkpt><trkpt lat="51.64359" lon="4.74316"></trkpt><trkpt lat="51.64352" lon="4.74306"></trkpt><trkpt lat="51.64353" lon="4.74284"></trkpt><trkpt lat="51.64364" lon="4.74263"></trkpt><trkpt lat="51.64368" lon="4.74250"></trkpt><trkpt lat="51.64384" lon="4.74213"></trkpt><trkpt lat="51.64382" lon="4.74193"></trkpt><trkpt lat="51.64371" lon="4.74164"></trkpt><trkpt lat="51.64430" lon="4.74038"></trkpt><trkpt lat="51.64450" lon="4.74017"></trkpt><trkpt lat="51.64562" lon="4.73918"></trkpt><trkpt lat="51.64564" lon="4.73918"></trkpt><trkpt lat="51.64566" lon="4.73924"></trkpt><trkpt lat="51.64573" lon="4.73965"></trkpt><trkpt lat="51.64576" lon="4.73995"></trkpt><trkpt lat="51.64574" lon="4.74025"></trkpt><trkpt lat="51.64580" lon="4.74036"></trkpt><trkpt lat="51.64588" lon="4.74034"></trkpt><trkpt lat="51.64572" lon="4.73931"></trkpt><trkpt lat="51.64544" lon="4.73794"></trkpt><trkpt lat="51.64545" lon="4.73759"></trkpt><trkpt lat="51.64549" lon="4.73718"></trkpt><trkpt lat="51.64573" lon="4.73637"></trkpt><trkpt lat="51.64610" lon="4.73583"></trkpt><trkpt lat="51.64718" lon="4.73437"></trkpt><trkpt lat="51.64761" lon="4.73417"></trkpt><trkpt lat="51.64805" lon="4.73409"></trkpt><trkpt lat="51.64837" lon="4.73397"></trkpt><trkpt lat="51.64880" lon="4.73366"></trkpt><trkpt lat="51.64868" lon="4.73317"></trkpt><trkpt lat="51.64861" lon="4.73262"></trkpt><trkpt lat="51.64782" lon="4.72397"></trkpt><trkpt lat="51.64764" lon="4.72117"></trkpt><trkpt lat="51.64757" lon="4.71853"></trkpt><trkpt lat="51.64672" lon="4.71317"></trkpt><trkpt lat="51.64559" lon="4.70572"></trkpt><trkpt lat="51.64542" lon="4.70444"></trkpt><trkpt lat="51.64518" lon="4.70194"></trkpt><trkpt lat="51.64528" lon="4.69688"></trkpt><trkpt lat="51.64281" lon="4.69625"></trkpt><trkpt lat="51.64272" lon="4.69625"></trkpt><trkpt lat="51.64256" lon="4.69632"></trkpt><trkpt lat="51.64177" lon="4.69702"></trkpt><trkpt lat="51.64031" lon="4.69841"></trkpt><trkpt lat="51.63965" lon="4.69896"></trkpt><trkpt lat="51.63907" lon="4.69937"></trkpt><trkpt lat="51.63854" lon="4.69972"></trkpt><trkpt lat="51.63844" lon="4.69969"></trkpt><trkpt lat="51.63841" lon="4.69963"></trkpt><trkpt lat="51.63838" lon="4.69941"></trkpt><trkpt lat="51.63836" lon="4.69896"></trkpt><trkpt lat="51.63835" lon="4.69676"></trkpt><trkpt lat="51.63842" lon="4.69627"></trkpt><trkpt lat="51.63840" lon="4.69526"></trkpt><trkpt lat="51.63844" lon="4.69498"></trkpt><trkpt lat="51.63850" lon="4.69484"></trkpt><trkpt lat="51.63859" lon="4.69471"></trkpt><trkpt lat="51.63878" lon="4.69464"></trkpt><trkpt lat="51.63895" lon="4.69466"></trkpt><trkpt lat="51.63900" lon="4.69422"></trkpt><trkpt lat="51.63958" lon="4.69326"></trkpt><trkpt lat="51.63975" lon="4.69292"></trkpt><trkpt lat="51.63997" lon="4.69234"></trkpt><trkpt lat="51.64036" lon="4.69094"></trkpt><trkpt lat="51.64046" lon="4.69045"></trkpt><trkpt lat="51.64057" lon="4.68969"></trkpt><trkpt lat="51.64060" lon="4.68930"></trkpt><trkpt lat="51.64061" lon="4.68858"></trkpt><trkpt lat="51.64054" lon="4.68740"></trkpt><trkpt lat="51.64044" lon="4.68662"></trkpt><trkpt lat="51.64028" lon="4.68577"></trkpt><trkpt lat="51.64008" lon="4.68501"></trkpt><trkpt lat="51.63992" lon="4.68456"></trkpt><trkpt lat="51.63959" lon="4.68384"></trkpt><trkpt lat="51.63916" lon="4.68307"></trkpt><trkpt lat="51.63881" lon="4.68254"></trkpt><trkpt lat="51.63817" lon="4.68185"></trkpt><trkpt lat="51.63777" lon="4.68148"></trkpt><trkpt lat="51.63731" lon="4.68111"></trkpt><trkpt lat="51.63723" lon="4.68099"></trkpt><trkpt lat="51.63719" lon="4.68087"></trkpt><trkpt lat="51.63717" lon="4.68042"></trkpt><trkpt lat="51.63721" lon="4.68028"></trkpt><trkpt lat="51.63824" lon="4.67815"></trkpt><trkpt lat="51.63832" lon="4.67785"></trkpt><trkpt lat="51.63835" lon="4.67761"></trkpt><trkpt lat="51.63835" lon="4.67730"></trkpt><trkpt lat="51.63827" lon="4.67683"></trkpt><trkpt lat="51.63673" lon="4.67246"></trkpt><trkpt lat="51.63667" lon="4.67207"></trkpt><trkpt lat="51.63667" lon="4.67191"></trkpt><trkpt lat="51.63676" lon="4.67144"></trkpt><trkpt lat="51.63685" lon="4.67122"></trkpt><trkpt lat="51.63697" lon="4.67102"></trkpt><trkpt lat="51.63707" lon="4.67090"></trkpt><trkpt lat="51.63727" lon="4.67077"></trkpt><trkpt lat="51.63750" lon="4.67072"></trkpt><trkpt lat="51.63881" lon="4.67080"></trkpt><trkpt lat="51.63926" lon="4.67072"></trkpt><trkpt lat="51.64056" lon="4.67015"></trkpt><trkpt lat="51.64531" lon="4.66815"></trkpt><trkpt lat="51.64870" lon="4.66669"></trkpt><trkpt lat="51.64886" lon="4.66458"></trkpt><trkpt lat="51.64901" lon="4.66456"></trkpt><trkpt lat="51.64913" lon="4.66448"></trkpt><trkpt lat="51.64916" lon="4.66459"></trkpt><trkpt lat="51.64922" lon="4.66472"></trkpt><trkpt lat="51.64943" lon="4.66461"></trkpt><trkpt lat="51.64942" lon="4.66445"></trkpt><trkpt lat="51.64949" lon="4.66423"></trkpt><trkpt lat="51.64951" lon="4.66421"></trkpt><trkpt lat="51.65817" lon="4.65632"></trkpt><trkpt lat="51.65832" lon="4.65614"></trkpt><trkpt lat="51.65846" lon="4.65552"></trkpt><trkpt lat="51.65852" lon="4.65531"></trkpt><trkpt lat="51.65904" lon="4.65428"></trkpt><trkpt lat="51.65943" lon="4.65339"></trkpt><trkpt lat="51.66141" lon="4.64971"></trkpt><trkpt lat="51.66276" lon="4.64712"></trkpt><trkpt lat="51.66289" lon="4.64696"></trkpt><trkpt lat="51.66273" lon="4.64671"></trkpt><trkpt lat="51.65656" lon="4.63477"></trkpt><trkpt lat="51.65649" lon="4.63461"></trkpt><trkpt lat="51.65620" lon="4.63241"></trkpt><trkpt lat="51.65613" lon="4.63095"></trkpt><trkpt lat="51.65613" lon="4.63063"></trkpt><trkpt lat="51.65616" lon="4.63031"></trkpt><trkpt lat="51.65624" lon="4.62994"></trkpt><trkpt lat="51.65639" lon="4.62896"></trkpt><trkpt lat="51.65658" lon="4.62715"></trkpt><trkpt lat="51.65680" lon="4.62473"></trkpt><trkpt lat="51.65686" lon="4.62362"></trkpt><trkpt lat="51.65685" lon="4.62268"></trkpt><trkpt lat="51.65682" lon="4.62225"></trkpt><trkpt lat="51.65671" lon="4.62129"></trkpt><trkpt lat="51.65663" lon="4.62094"></trkpt><trkpt lat="51.65653" lon="4.62062"></trkpt><trkpt lat="51.65639" lon="4.62032"></trkpt><trkpt lat="51.65469" lon="4.61742"></trkpt><trkpt lat="51.65446" lon="4.61709"></trkpt><trkpt lat="51.65423" lon="4.61687"></trkpt><trkpt lat="51.65390" lon="4.61667"></trkpt><trkpt lat="51.65181" lon="4.61570"></trkpt><trkpt lat="51.65151" lon="4.61547"></trkpt><trkpt lat="51.65127" lon="4.61518"></trkpt><trkpt lat="51.65113" lon="4.61492"></trkpt><trkpt lat="51.65097" lon="4.61448"></trkpt><trkpt lat="51.65071" lon="4.61290"></trkpt><trkpt lat="51.65022" lon="4.61055"></trkpt><trkpt lat="51.64796" lon="4.61103"></trkpt><trkpt lat="51.64776" lon="4.61104"></trkpt><trkpt lat="51.64755" lon="4.61097"></trkpt><trkpt lat="51.64739" lon="4.61087"></trkpt><trkpt lat="51.64732" lon="4.61072"></trkpt><trkpt lat="51.64698" lon="4.61042"></trkpt><trkpt lat="51.64695" lon="4.61035"></trkpt><trkpt lat="51.64695" lon="4.61031"></trkpt><trkpt lat="51.64681" lon="4.61025"></trkpt><trkpt lat="51.64669" lon="4.61022"></trkpt><trkpt lat="51.64678" lon="4.60987"></trkpt><trkpt lat="51.64691" lon="4.60898"></trkpt><trkpt lat="51.64703" lon="4.60850"></trkpt><trkpt lat="51.64721" lon="4.60809"></trkpt><trkpt lat="51.64723" lon="4.60798"></trkpt><trkpt lat="51.64690" lon="4.60798"></trkpt><trkpt lat="51.64657" lon="4.60831"></trkpt><trkpt lat="51.64595" lon="4.60687"></trkpt><trkpt lat="51.64469" lon="4.60403"></trkpt><trkpt lat="51.64392" lon="4.60214"></trkpt><trkpt lat="51.64385" lon="4.60218"></trkpt><trkpt lat="51.64354" lon="4.60146"></trkpt><trkpt lat="51.64357" lon="4.60138"></trkpt><trkpt lat="51.64362" lon="4.60061"></trkpt><trkpt lat="51.64391" lon="4.60009"></trkpt><trkpt lat="51.64407" lon="4.59977"></trkpt><trkpt lat="51.64426" lon="4.59945"></trkpt><trkpt lat="51.64492" lon="4.59894"></trkpt><trkpt lat="51.64531" lon="4.59867"></trkpt><trkpt lat="51.64592" lon="4.59820"></trkpt><trkpt lat="51.64567" lon="4.59734"></trkpt><trkpt lat="51.64554" lon="4.59674"></trkpt><trkpt lat="51.64549" lon="4.59633"></trkpt><trkpt lat="51.64547" lon="4.59576"></trkpt><trkpt lat="51.64562" lon="4.59046"></trkpt><trkpt lat="51.64569" lon="4.59012"></trkpt><trkpt lat="51.64580" lon="4.58990"></trkpt><trkpt lat="51.64588" lon="4.58980"></trkpt><trkpt lat="51.64608" lon="4.58972"></trkpt><trkpt lat="51.64684" lon="4.58977"></trkpt><trkpt lat="51.64713" lon="4.58981"></trkpt><trkpt lat="51.64729" lon="4.58979"></trkpt><trkpt lat="51.64714" lon="4.58679"></trkpt><trkpt lat="51.64731" lon="4.58627"></trkpt><trkpt lat="51.64739" lon="4.58620"></trkpt><trkpt lat="51.64746" lon="4.58590"></trkpt><trkpt lat="51.64740" lon="4.58579"></trkpt><trkpt lat="51.64727" lon="4.58572"></trkpt><trkpt lat="51.64716" lon="4.58568"></trkpt><trkpt lat="51.64705" lon="4.58572"></trkpt><trkpt lat="51.64644" lon="4.58545"></trkpt><trkpt lat="51.64606" lon="4.58533"></trkpt><trkpt lat="51.64519" lon="4.58515"></trkpt><trkpt lat="51.64510" lon="4.58228"></trkpt><trkpt lat="51.64497" lon="4.57996"></trkpt><trkpt lat="51.64497" lon="4.57955"></trkpt><trkpt lat="51.64637" lon="4.57078"></trkpt><trkpt lat="51.64678" lon="4.56841"></trkpt><trkpt lat="51.64711" lon="4.56738"></trkpt><trkpt lat="51.64746" lon="4.56573"></trkpt><trkpt lat="51.64754" lon="4.56564"></trkpt><trkpt lat="51.64806" lon="4.56592"></trkpt><trkpt lat="51.64810" lon="4.56587"></trkpt><trkpt lat="51.64906" lon="4.56592"></trkpt><trkpt lat="51.64918" lon="4.56587"></trkpt><trkpt lat="51.64929" lon="4.56575"></trkpt><trkpt lat="51.64964" lon="4.56510"></trkpt><trkpt lat="51.64917" lon="4.56446"></trkpt><trkpt lat="51.64881" lon="4.56402"></trkpt><trkpt lat="51.64843" lon="4.56367"></trkpt><trkpt lat="51.64799" lon="4.56309"></trkpt><trkpt lat="51.64825" lon="4.56137"></trkpt><trkpt lat="51.64860" lon="4.55921"></trkpt><trkpt lat="51.64875" lon="4.55840"></trkpt><trkpt lat="51.64909" lon="4.55707"></trkpt><trkpt lat="51.64937" lon="4.55610"></trkpt><trkpt lat="51.64975" lon="4.55539"></trkpt><trkpt lat="51.65014" lon="4.55477"></trkpt><trkpt lat="51.65058" lon="4.55421"></trkpt><trkpt lat="51.65185" lon="4.55280"></trkpt><trkpt lat="51.65219" lon="4.55253"></trkpt><trkpt lat="51.65315" lon="4.55203"></trkpt><trkpt lat="51.65382" lon="4.55153"></trkpt><trkpt lat="51.65391" lon="4.55180"></trkpt><trkpt lat="51.65399" lon="4.55191"></trkpt><trkpt lat="51.65413" lon="4.55201"></trkpt><trkpt lat="51.65439" lon="4.55206"></trkpt><trkpt lat="51.65433" lon="4.54805"></trkpt><trkpt lat="51.65427" lon="4.54522"></trkpt><trkpt lat="51.65427" lon="4.54466"></trkpt><trkpt lat="51.65433" lon="4.54355"></trkpt><trkpt lat="51.65444" lon="4.54276"></trkpt><trkpt lat="51.65455" lon="4.54226"></trkpt><trkpt lat="51.65494" lon="4.54093"></trkpt><trkpt lat="51.65516" lon="4.54042"></trkpt><trkpt lat="51.65541" lon="4.53993"></trkpt><trkpt lat="51.65568" lon="4.53950"></trkpt><trkpt lat="51.65604" lon="4.53902"></trkpt><trkpt lat="51.65699" lon="4.53798"></trkpt><trkpt lat="51.65833" lon="4.53640"></trkpt><trkpt lat="51.65882" lon="4.53578"></trkpt><trkpt lat="51.65925" lon="4.53535"></trkpt><trkpt lat="51.65993" lon="4.53503"></trkpt><trkpt lat="51.65999" lon="4.53496"></trkpt><trkpt lat="51.66037" lon="4.53494"></trkpt><trkpt lat="51.66060" lon="4.53496"></trkpt><trkpt lat="51.66091" lon="4.53510"></trkpt><trkpt lat="51.66146" lon="4.53539"></trkpt><trkpt lat="51.66161" lon="4.53532"></trkpt><trkpt lat="51.66237" lon="4.53449"></trkpt><trkpt lat="51.66278" lon="4.53417"></trkpt><trkpt lat="51.66311" lon="4.53394"></trkpt><trkpt lat="51.66415" lon="4.53315"></trkpt><trkpt lat="51.66428" lon="4.53361"></trkpt><trkpt lat="51.66461" lon="4.53460"></trkpt><trkpt lat="51.66466" lon="4.53466"></trkpt><trkpt lat="51.66486" lon="4.53451"></trkpt><trkpt lat="51.66501" lon="4.53490"></trkpt><trkpt lat="51.66513" lon="4.53551"></trkpt><trkpt lat="51.66526" lon="4.53594"></trkpt><trkpt lat="51.66542" lon="4.53612"></trkpt><trkpt lat="51.66558" lon="4.53618"></trkpt><trkpt lat="51.66571" lon="4.53618"></trkpt><trkpt lat="51.66576" lon="4.53622"></trkpt><trkpt lat="51.66587" lon="4.53614"></trkpt><trkpt lat="51.66648" lon="4.53608"></trkpt><trkpt lat="51.66689" lon="4.53567"></trkpt><trkpt lat="51.66709" lon="4.53543"></trkpt><trkpt lat="51.66717" lon="4.53527"></trkpt><trkpt lat="51.66731" lon="4.53525"></trkpt><trkpt lat="51.66732" lon="4.53516"></trkpt><trkpt lat="51.66735" lon="4.53509"></trkpt><trkpt lat="51.66812" lon="4.53408"></trkpt><trkpt lat="51.66824" lon="4.53402"></trkpt><trkpt lat="51.66826" lon="4.53390"></trkpt><trkpt lat="51.67198" lon="4.52903"></trkpt><trkpt lat="51.67334" lon="4.52729"></trkpt><trkpt lat="51.67438" lon="4.52591"></trkpt><trkpt lat="51.67446" lon="4.52567"></trkpt><trkpt lat="51.67446" lon="4.52494"></trkpt><trkpt lat="51.67449" lon="4.52482"></trkpt><trkpt lat="51.67460" lon="4.52471"></trkpt><trkpt lat="51.67468" lon="4.52468"></trkpt><trkpt lat="51.67515" lon="4.52463"></trkpt><trkpt lat="51.67644" lon="4.52457"></trkpt><trkpt lat="51.67661" lon="4.52470"></trkpt><trkpt lat="51.67694" lon="4.52522"></trkpt><trkpt lat="51.67740" lon="4.52570"></trkpt><trkpt lat="51.67761" lon="4.52580"></trkpt><trkpt lat="51.67927" lon="4.52616"></trkpt><trkpt lat="51.67933" lon="4.52624"></trkpt><trkpt lat="51.67945" lon="4.52613"></trkpt><trkpt lat="51.67948" lon="4.52605"></trkpt><trkpt lat="51.67961" lon="4.52487"></trkpt><trkpt lat="51.67938" lon="4.51578"></trkpt><trkpt lat="51.67932" lon="4.51192"></trkpt><trkpt lat="51.67919" lon="4.50595"></trkpt><trkpt lat="51.67920" lon="4.50573"></trkpt><trkpt lat="51.67949" lon="4.50462"></trkpt><trkpt lat="51.67950" lon="4.50432"></trkpt><trkpt lat="51.67945" lon="4.50402"></trkpt><trkpt lat="51.67912" lon="4.50283"></trkpt><trkpt lat="51.67910" lon="4.50262"></trkpt><trkpt lat="51.67893" lon="4.49493"></trkpt><trkpt lat="51.67889" lon="4.49439"></trkpt><trkpt lat="51.67885" lon="4.49308"></trkpt><trkpt lat="51.67884" lon="4.49213"></trkpt><trkpt lat="51.67886" lon="4.49174"></trkpt><trkpt lat="51.67889" lon="4.49155"></trkpt><trkpt lat="51.67983" lon="4.48811"></trkpt><trkpt lat="51.67992" lon="4.48733"></trkpt><trkpt lat="51.68024" lon="4.48652"></trkpt><trkpt lat="51.68125" lon="4.48276"></trkpt><trkpt lat="51.68232" lon="4.47885"></trkpt><trkpt lat="51.68312" lon="4.47601"></trkpt><trkpt lat="51.68322" lon="4.47560"></trkpt><trkpt lat="51.68461" lon="4.46870"></trkpt><trkpt lat="51.68492" lon="4.46704"></trkpt><trkpt lat="51.68589" lon="4.46222"></trkpt><trkpt lat="51.68601" lon="4.46183"></trkpt><trkpt lat="51.68729" lon="4.45820"></trkpt><trkpt lat="51.68758" lon="4.45705"></trkpt><trkpt lat="51.68996" lon="4.45033"></trkpt><trkpt lat="51.69087" lon="4.44786"></trkpt><trkpt lat="51.69088" lon="4.44774"></trkpt><trkpt lat="51.69083" lon="4.44765"></trkpt><trkpt lat="51.69036" lon="4.44723"></trkpt><trkpt lat="51.68919" lon="4.44613"></trkpt><trkpt lat="51.68996" lon="4.44425"></trkpt><trkpt lat="51.69021" lon="4.44358"></trkpt><trkpt lat="51.69022" lon="4.44350"></trkpt><trkpt lat="51.69004" lon="4.44309"></trkpt><trkpt lat="51.69000" lon="4.44289"></trkpt><trkpt lat="51.68998" lon="4.44233"></trkpt><trkpt lat="51.68995" lon="4.44206"></trkpt><trkpt lat="51.69100" lon="4.44136"></trkpt><trkpt lat="51.69121" lon="4.44110"></trkpt><trkpt lat="51.69136" lon="4.44080"></trkpt><trkpt lat="51.69235" lon="4.43844"></trkpt><trkpt lat="51.69392" lon="4.44018"></trkpt><trkpt lat="51.69424" lon="4.44051"></trkpt><trkpt lat="51.69447" lon="4.44000"></trkpt><trkpt lat="51.69501" lon="4.44059"></trkpt><trkpt lat="51.69537" lon="4.44104"></trkpt><trkpt lat="51.69556" lon="4.44104"></trkpt><trkpt lat="51.69573" lon="4.44099"></trkpt><trkpt lat="51.69598" lon="4.44075"></trkpt><trkpt lat="51.69601" lon="4.44082"></trkpt><trkpt lat="51.69622" lon="4.44057"></trkpt><trkpt lat="51.69630" lon="4.44042"></trkpt><trkpt lat="51.69633" lon="4.44026"></trkpt><trkpt lat="51.69633" lon="4.43992"></trkpt><trkpt lat="51.69628" lon="4.43993"></trkpt><trkpt lat="51.69624" lon="4.43961"></trkpt><trkpt lat="51.69616" lon="4.43939"></trkpt><trkpt lat="51.69584" lon="4.43874"></trkpt><trkpt lat="51.69578" lon="4.43847"></trkpt><trkpt lat="51.69570" lon="4.43762"></trkpt><trkpt lat="51.69568" lon="4.43697"></trkpt><trkpt lat="51.69571" lon="4.43675"></trkpt><trkpt lat="51.69579" lon="4.43672"></trkpt><trkpt lat="51.69585" lon="4.43652"></trkpt><trkpt lat="51.69639" lon="4.43517"></trkpt><trkpt lat="51.69645" lon="4.43488"></trkpt><trkpt lat="51.69647" lon="4.43445"></trkpt><trkpt lat="51.69635" lon="4.43061"></trkpt><trkpt lat="51.69637" lon="4.43025"></trkpt><trkpt lat="51.69668" lon="4.42807"></trkpt><trkpt lat="51.69685" lon="4.42669"></trkpt><trkpt lat="51.69685" lon="4.42637"></trkpt><trkpt lat="51.69680" lon="4.42581"></trkpt><trkpt lat="51.69665" lon="4.42529"></trkpt><trkpt lat="51.69586" lon="4.42378"></trkpt><trkpt lat="51.69221" lon="4.41705"></trkpt><trkpt lat="51.69210" lon="4.41699"></trkpt><trkpt lat="51.69203" lon="4.41670"></trkpt><trkpt lat="51.69077" lon="4.41442"></trkpt><trkpt lat="51.69012" lon="4.41316"></trkpt><trkpt lat="51.68942" lon="4.41185"></trkpt><trkpt lat="51.68845" lon="4.41008"></trkpt><trkpt lat="51.68840" lon="4.40989"></trkpt><trkpt lat="51.68839" lon="4.40975"></trkpt><trkpt lat="51.68842" lon="4.40964"></trkpt><trkpt lat="51.68870" lon="4.40918"></trkpt><trkpt lat="51.68875" lon="4.40901"></trkpt><trkpt lat="51.68874" lon="4.40871"></trkpt><trkpt lat="51.68867" lon="4.40850"></trkpt><trkpt lat="51.68815" lon="4.40755"></trkpt><trkpt lat="51.68810" lon="4.40750"></trkpt><trkpt lat="51.68798" lon="4.40747"></trkpt><trkpt lat="51.68735" lon="4.40757"></trkpt><trkpt lat="51.68728" lon="4.40756"></trkpt><trkpt lat="51.68718" lon="4.40746"></trkpt><trkpt lat="51.68471" lon="4.40292"></trkpt><trkpt lat="51.68436" lon="4.40225"></trkpt><trkpt lat="51.68434" lon="4.40215"></trkpt><trkpt lat="51.68433" lon="4.40154"></trkpt><trkpt lat="51.68423" lon="4.40128"></trkpt><trkpt lat="51.67974" lon="4.39299"></trkpt><trkpt lat="51.67966" lon="4.39310"></trkpt><trkpt lat="51.67910" lon="4.39416"></trkpt><trkpt lat="51.67889" lon="4.39448"></trkpt><trkpt lat="51.67887" lon="4.39458"></trkpt><trkpt lat="51.67891" lon="4.39469"></trkpt><trkpt lat="51.67890" lon="4.39481"></trkpt><trkpt lat="51.67888" lon="4.39487"></trkpt><trkpt lat="51.67870" lon="4.39499"></trkpt><trkpt lat="51.67860" lon="4.39518"></trkpt><trkpt lat="51.67842" lon="4.39584"></trkpt><trkpt lat="51.67837" lon="4.39701"></trkpt><trkpt lat="51.67834" lon="4.39718"></trkpt><trkpt lat="51.67824" lon="4.39741"></trkpt><trkpt lat="51.67809" lon="4.39762"></trkpt><trkpt lat="51.67803" lon="4.39777"></trkpt><trkpt lat="51.67799" lon="4.39815"></trkpt><trkpt lat="51.67798" lon="4.39852"></trkpt><trkpt lat="51.67800" lon="4.39876"></trkpt><trkpt lat="51.67817" lon="4.39948"></trkpt><trkpt lat="51.67817" lon="4.39965"></trkpt><trkpt lat="51.67814" lon="4.39980"></trkpt><trkpt lat="51.67815" lon="4.40015"></trkpt><trkpt lat="51.67786" lon="4.40465"></trkpt><trkpt lat="51.67783" lon="4.40476"></trkpt><trkpt lat="51.67765" lon="4.40507"></trkpt><trkpt lat="51.67763" lon="4.40515"></trkpt><trkpt lat="51.67764" lon="4.40528"></trkpt><trkpt lat="51.67771" lon="4.40560"></trkpt><trkpt lat="51.67758" lon="4.40800"></trkpt><trkpt lat="51.67756" lon="4.40910"></trkpt><trkpt lat="51.67758" lon="4.41040"></trkpt><trkpt lat="51.67795" lon="4.41586"></trkpt><trkpt lat="51.67812" lon="4.41718"></trkpt><trkpt lat="51.67816" lon="4.41777"></trkpt><trkpt lat="51.67844" lon="4.41974"></trkpt><trkpt lat="51.67850" lon="4.42081"></trkpt><trkpt lat="51.67846" lon="4.42098"></trkpt><trkpt lat="51.67790" lon="4.42171"></trkpt><trkpt lat="51.67788" lon="4.42183"></trkpt><trkpt lat="51.67347" lon="4.41969"></trkpt><trkpt lat="51.67324" lon="4.41955"></trkpt><trkpt lat="51.67308" lon="4.41940"></trkpt><trkpt lat="51.67223" lon="4.41832"></trkpt><trkpt lat="51.67201" lon="4.41802"></trkpt><trkpt lat="51.66794" lon="4.41278"></trkpt><trkpt lat="51.66736" lon="4.41205"></trkpt><trkpt lat="51.66688" lon="4.41141"></trkpt><trkpt lat="51.66677" lon="4.41093"></trkpt><trkpt lat="51.66667" lon="4.41076"></trkpt><trkpt lat="51.66616" lon="4.41035"></trkpt><trkpt lat="51.66600" lon="4.41026"></trkpt><trkpt lat="51.66548" lon="4.40960"></trkpt><trkpt lat="51.66518" lon="4.40918"></trkpt><trkpt lat="51.66233" lon="4.40363"></trkpt><trkpt lat="51.66207" lon="4.40345"></trkpt><trkpt lat="51.66119" lon="4.40328"></trkpt><trkpt lat="51.66107" lon="4.40328"></trkpt><trkpt lat="51.66052" lon="4.40409"></trkpt><trkpt lat="51.65880" lon="4.40634"></trkpt><trkpt lat="51.65856" lon="4.40671"></trkpt><trkpt lat="51.65748" lon="4.40946"></trkpt><trkpt lat="51.65676" lon="4.41141"></trkpt><trkpt lat="51.65658" lon="4.41198"></trkpt><trkpt lat="51.65639" lon="4.41272"></trkpt><trkpt lat="51.65628" lon="4.41333"></trkpt><trkpt lat="51.65624" lon="4.41348"></trkpt><trkpt lat="51.65600" lon="4.41404"></trkpt><trkpt lat="51.65490" lon="4.41632"></trkpt><trkpt lat="51.65428" lon="4.41766"></trkpt><trkpt lat="51.65351" lon="4.41966"></trkpt><trkpt lat="51.65343" lon="4.41977"></trkpt><trkpt lat="51.65334" lon="4.41977"></trkpt><trkpt lat="51.65330" lon="4.41959"></trkpt><trkpt lat="51.64859" lon="4.41482"></trkpt><trkpt lat="51.64855" lon="4.41476"></trkpt><trkpt lat="51.64852" lon="4.41463"></trkpt><trkpt lat="51.64855" lon="4.41454"></trkpt><trkpt lat="51.64930" lon="4.41383"></trkpt><trkpt lat="51.64946" lon="4.41364"></trkpt><trkpt lat="51.65019" lon="4.41263"></trkpt><trkpt lat="51.65023" lon="4.41251"></trkpt><trkpt lat="51.65022" lon="4.41236"></trkpt><trkpt lat="51.64979" lon="4.41105"></trkpt><trkpt lat="51.64957" lon="4.40980"></trkpt><trkpt lat="51.64892" lon="4.40809"></trkpt><trkpt lat="51.64881" lon="4.40774"></trkpt><trkpt lat="51.64875" lon="4.40739"></trkpt><trkpt lat="51.64873" lon="4.40682"></trkpt><trkpt lat="51.64876" lon="4.40658"></trkpt><trkpt lat="51.64882" lon="4.40635"></trkpt><trkpt lat="51.64890" lon="4.40612"></trkpt><trkpt lat="51.64912" lon="4.40568"></trkpt><trkpt lat="51.64959" lon="4.40488"></trkpt><trkpt lat="51.64980" lon="4.40436"></trkpt><trkpt lat="51.64986" lon="4.40402"></trkpt><trkpt lat="51.64986" lon="4.40365"></trkpt><trkpt lat="51.64921" lon="4.39954"></trkpt><trkpt lat="51.64880" lon="4.39644"></trkpt><trkpt lat="51.64869" lon="4.39596"></trkpt><trkpt lat="51.64852" lon="4.39546"></trkpt><trkpt lat="51.64833" lon="4.39506"></trkpt><trkpt lat="51.64805" lon="4.39467"></trkpt><trkpt lat="51.64747" lon="4.39416"></trkpt><trkpt lat="51.64707" lon="4.39367"></trkpt><trkpt lat="51.64677" lon="4.39299"></trkpt><trkpt lat="51.64657" lon="4.39266"></trkpt><trkpt lat="51.64636" lon="4.39246"></trkpt><trkpt lat="51.64620" lon="4.39227"></trkpt><trkpt lat="51.64627" lon="4.39235"></trkpt><trkpt lat="51.64630" lon="4.39229"></trkpt><trkpt lat="51.64632" lon="4.39206"></trkpt><trkpt lat="51.64625" lon="4.39191"></trkpt><trkpt lat="51.64610" lon="4.39181"></trkpt><trkpt lat="51.64605" lon="4.39194"></trkpt><trkpt lat="51.64596" lon="4.39194"></trkpt><trkpt lat="51.64594" lon="4.39207"></trkpt><trkpt lat="51.64551" lon="4.39186"></trkpt><trkpt lat="51.64541" lon="4.39176"></trkpt><trkpt lat="51.64473" lon="4.39097"></trkpt><trkpt lat="51.64452" lon="4.39066"></trkpt><trkpt lat="51.64446" lon="4.39050"></trkpt><trkpt lat="51.64433" lon="4.39027"></trkpt><trkpt lat="51.64380" lon="4.38959"></trkpt><trkpt lat="51.64369" lon="4.38938"></trkpt><trkpt lat="51.64366" lon="4.38924"></trkpt><trkpt lat="51.64365" lon="4.38897"></trkpt><trkpt lat="51.64367" lon="4.38881"></trkpt><trkpt lat="51.64389" lon="4.38791"></trkpt><trkpt lat="51.64391" lon="4.38774"></trkpt><trkpt lat="51.64387" lon="4.38752"></trkpt><trkpt lat="51.64266" lon="4.38350"></trkpt><trkpt lat="51.64249" lon="4.38317"></trkpt><trkpt lat="51.64222" lon="4.38284"></trkpt><trkpt lat="51.64211" lon="4.38266"></trkpt><trkpt lat="51.64123" lon="4.38089"></trkpt><trkpt lat="51.64058" lon="4.37945"></trkpt><trkpt lat="51.64012" lon="4.37832"></trkpt><trkpt lat="51.63958" lon="4.37707"></trkpt><trkpt lat="51.63859" lon="4.37492"></trkpt><trkpt lat="51.63827" lon="4.37415"></trkpt><trkpt lat="51.63811" lon="4.37354"></trkpt><trkpt lat="51.63781" lon="4.37283"></trkpt><trkpt lat="51.63836" lon="4.37168"></trkpt><trkpt lat="51.63872" lon="4.37088"></trkpt><trkpt lat="51.64029" lon="4.36768"></trkpt><trkpt lat="51.64038" lon="4.36741"></trkpt><trkpt lat="51.64048" lon="4.36656"></trkpt><trkpt lat="51.64050" lon="4.36625"></trkpt><trkpt lat="51.64035" lon="4.36441"></trkpt><trkpt lat="51.64008" lon="4.36166"></trkpt><trkpt lat="51.63992" lon="4.36015"></trkpt><trkpt lat="51.63983" lon="4.35915"></trkpt><trkpt lat="51.63944" lon="4.35544"></trkpt><trkpt lat="51.63936" lon="4.35480"></trkpt><trkpt lat="51.63775" lon="4.34648"></trkpt><trkpt lat="51.63767" lon="4.34621"></trkpt><trkpt lat="51.63581" lon="4.34314"></trkpt><trkpt lat="51.63514" lon="4.34209"></trkpt><trkpt lat="51.63467" lon="4.34178"></trkpt><trkpt lat="51.63379" lon="4.34132"></trkpt><trkpt lat="51.63050" lon="4.33968"></trkpt><trkpt lat="51.63029" lon="4.33963"></trkpt><trkpt lat="51.63024" lon="4.33930"></trkpt><trkpt lat="51.62919" lon="4.33609"></trkpt><trkpt lat="51.62499" lon="4.32284"></trkpt><trkpt lat="51.62486" lon="4.32262"></trkpt><trkpt lat="51.62493" lon="4.32248"></trkpt><trkpt lat="51.62554" lon="4.32001"></trkpt><trkpt lat="51.62710" lon="4.31341"></trkpt><trkpt lat="51.62717" lon="4.31284"></trkpt><trkpt lat="51.62735" lon="4.30987"></trkpt><trkpt lat="51.62734" lon="4.30946"></trkpt><trkpt lat="51.62697" lon="4.30615"></trkpt><trkpt lat="51.62678" lon="4.30477"></trkpt><trkpt lat="51.62681" lon="4.30456"></trkpt><trkpt lat="51.62707" lon="4.30405"></trkpt><trkpt lat="51.62707" lon="4.30370"></trkpt><trkpt lat="51.62700" lon="4.30328"></trkpt><trkpt lat="51.62695" lon="4.30316"></trkpt><trkpt lat="51.62682" lon="4.30298"></trkpt><trkpt lat="51.62673" lon="4.30280"></trkpt><trkpt lat="51.62672" lon="4.30273"></trkpt><trkpt lat="51.62721" lon="4.29794"></trkpt><trkpt lat="51.62746" lon="4.29580"></trkpt><trkpt lat="51.62807" lon="4.28996"></trkpt><trkpt lat="51.62812" lon="4.28833"></trkpt><trkpt lat="51.62836" lon="4.28609"></trkpt><trkpt lat="51.62852" lon="4.28359"></trkpt><trkpt lat="51.62847" lon="4.28327"></trkpt><trkpt lat="51.62576" lon="4.27772"></trkpt><trkpt lat="51.62555" lon="4.27719"></trkpt><trkpt lat="51.62543" lon="4.27697"></trkpt><trkpt lat="51.62004" lon="4.27409"></trkpt><trkpt lat="51.62014" lon="4.27379"></trkpt><trkpt lat="51.62240" lon="4.26867"></trkpt><trkpt lat="51.62261" lon="4.26814"></trkpt><trkpt lat="51.62286" lon="4.26732"></trkpt><trkpt lat="51.62306" lon="4.26683"></trkpt><trkpt lat="51.62666" lon="4.25860"></trkpt><trkpt lat="51.62672" lon="4.25830"></trkpt><trkpt lat="51.62671" lon="4.25800"></trkpt><trkpt lat="51.62655" lon="4.25737"></trkpt><trkpt lat="51.62647" lon="4.25720"></trkpt><trkpt lat="51.62644" lon="4.25720"></trkpt><trkpt lat="51.62615" lon="4.25733"></trkpt><trkpt lat="51.62602" lon="4.25734"></trkpt><trkpt lat="51.62593" lon="4.25726"></trkpt><trkpt lat="51.62589" lon="4.25719"></trkpt><trkpt lat="51.62565" lon="4.25638"></trkpt><trkpt lat="51.62563" lon="4.25629"></trkpt><trkpt lat="51.62564" lon="4.25613"></trkpt><trkpt lat="51.62601" lon="4.25559"></trkpt><trkpt lat="51.62601" lon="4.25554"></trkpt><trkpt lat="51.62588" lon="4.25507"></trkpt><trkpt lat="51.62578" lon="4.25474"></trkpt><trkpt lat="51.62576" lon="4.25474"></trkpt><trkpt lat="51.62569" lon="4.25452"></trkpt><trkpt lat="51.62571" lon="4.25436"></trkpt><trkpt lat="51.62565" lon="4.25424"></trkpt><trkpt lat="51.62556" lon="4.25424"></trkpt><trkpt lat="51.62548" lon="4.25428"></trkpt><trkpt lat="51.62515" lon="4.25465"></trkpt><trkpt lat="51.62491" lon="4.25475"></trkpt><trkpt lat="51.62479" lon="4.25475"></trkpt><trkpt lat="51.62468" lon="4.25473"></trkpt><trkpt lat="51.62436" lon="4.25424"></trkpt><trkpt lat="51.62430" lon="4.25418"></trkpt><trkpt lat="51.62371" lon="4.25395"></trkpt><trkpt lat="51.62353" lon="4.25372"></trkpt><trkpt lat="51.62244" lon="4.25205"></trkpt><trkpt lat="51.62235" lon="4.25207"></trkpt><trkpt lat="51.62196" lon="4.25252"></trkpt><trkpt lat="51.62190" lon="4.25261"></trkpt><trkpt lat="51.62109" lon="4.25404"></trkpt><trkpt lat="51.62038" lon="4.25505"></trkpt><trkpt lat="51.61873" lon="4.25706"></trkpt><trkpt lat="51.61597" lon="4.26059"></trkpt><trkpt lat="51.61464" lon="4.26218"></trkpt><trkpt lat="51.61205" lon="4.26521"></trkpt><trkpt lat="51.61185" lon="4.26552"></trkpt><trkpt lat="51.61156" lon="4.26609"></trkpt><trkpt lat="51.61096" lon="4.26734"></trkpt><trkpt lat="51.61088" lon="4.26767"></trkpt><trkpt lat="51.61057" lon="4.26988"></trkpt><trkpt lat="51.61026" lon="4.27187"></trkpt><trkpt lat="51.61017" lon="4.27272"></trkpt><trkpt lat="51.61014" lon="4.27334"></trkpt><trkpt lat="51.60938" lon="4.27955"></trkpt><trkpt lat="51.60931" lon="4.27983"></trkpt><trkpt lat="51.60919" lon="4.28009"></trkpt><trkpt lat="51.60765" lon="4.28324"></trkpt><trkpt lat="51.60866" lon="4.28542"></trkpt><trkpt lat="51.60869" lon="4.28557"></trkpt><trkpt lat="51.60868" lon="4.28571"></trkpt><trkpt lat="51.60824" lon="4.28693"></trkpt><trkpt lat="51.60785" lon="4.28792"></trkpt><trkpt lat="51.60683" lon="4.28953"></trkpt><trkpt lat="51.60601" lon="4.29112"></trkpt><trkpt lat="51.60542" lon="4.29233"></trkpt><trkpt lat="51.60531" lon="4.29267"></trkpt><trkpt lat="51.60437" lon="4.30130"></trkpt><trkpt lat="51.60431" lon="4.30166"></trkpt><trkpt lat="51.60250" lon="4.30428"></trkpt><trkpt lat="51.60243" lon="4.30421"></trkpt><trkpt lat="51.60204" lon="4.30345"></trkpt><trkpt lat="51.60194" lon="4.30333"></trkpt><trkpt lat="51.60181" lon="4.30324"></trkpt><trkpt lat="51.60168" lon="4.30321"></trkpt><trkpt lat="51.60155" lon="4.30324"></trkpt><trkpt lat="51.60080" lon="4.30383"></trkpt><trkpt lat="51.60001" lon="4.30384"></trkpt><trkpt lat="51.59987" lon="4.30390"></trkpt><trkpt lat="51.59970" lon="4.30409"></trkpt><trkpt lat="51.59961" lon="4.30434"></trkpt><trkpt lat="51.59959" lon="4.30464"></trkpt><trkpt lat="51.59972" lon="4.30580"></trkpt><trkpt lat="51.59969" lon="4.30602"></trkpt><trkpt lat="51.59938" lon="4.30714"></trkpt><trkpt lat="51.59932" lon="4.30723"></trkpt><trkpt lat="51.59922" lon="4.30726"></trkpt><trkpt lat="51.59882" lon="4.30713"></trkpt><trkpt lat="51.59712" lon="4.30704"></trkpt><trkpt lat="51.59604" lon="4.30703"></trkpt><trkpt lat="51.59531" lon="4.30735"></trkpt><trkpt lat="51.59413" lon="4.30790"></trkpt><trkpt lat="51.59340" lon="4.30836"></trkpt><trkpt lat="51.59170" lon="4.30970"></trkpt><trkpt lat="51.59138" lon="4.31007"></trkpt><trkpt lat="51.59038" lon="4.31147"></trkpt><trkpt lat="51.59023" lon="4.31160"></trkpt><trkpt lat="51.58971" lon="4.31169"></trkpt><trkpt lat="51.58850" lon="4.31181"></trkpt><trkpt lat="51.58788" lon="4.31189"></trkpt><trkpt lat="51.58724" lon="4.31239"></trkpt><trkpt lat="51.58670" lon="4.31264"></trkpt><trkpt lat="51.58660" lon="4.31267"></trkpt><trkpt lat="51.58650" lon="4.31263"></trkpt><trkpt lat="51.58627" lon="4.31359"></trkpt><trkpt lat="51.58615" lon="4.31426"></trkpt><trkpt lat="51.58606" lon="4.31451"></trkpt><trkpt lat="51.58596" lon="4.31462"></trkpt><trkpt lat="51.58616" lon="4.31538"></trkpt><trkpt lat="51.58641" lon="4.31625"></trkpt><trkpt lat="51.58716" lon="4.31865"></trkpt><trkpt lat="51.58768" lon="4.32104"></trkpt><trkpt lat="51.58739" lon="4.32123"></trkpt><trkpt lat="51.58756" lon="4.32182"></trkpt><trkpt lat="51.58789" lon="4.32315"></trkpt><trkpt lat="51.58795" lon="4.32349"></trkpt><trkpt lat="51.58819" lon="4.32416"></trkpt><trkpt lat="51.58834" lon="4.32464"></trkpt><trkpt lat="51.58831" lon="4.32563"></trkpt><trkpt lat="51.58830" lon="4.32783"></trkpt><trkpt lat="51.58825" lon="4.32784"></trkpt><trkpt lat="51.58828" lon="4.32881"></trkpt><trkpt lat="51.58847" lon="4.33085"></trkpt><trkpt lat="51.58845" lon="4.33113"></trkpt><trkpt lat="51.58844" lon="4.33165"></trkpt><trkpt lat="51.58836" lon="4.33181"></trkpt><trkpt lat="51.58829" lon="4.33184"></trkpt><trkpt lat="51.58829" lon="4.33250"></trkpt><trkpt lat="51.58836" lon="4.33256"></trkpt><trkpt lat="51.58850" lon="4.33301"></trkpt><trkpt lat="51.58872" lon="4.33338"></trkpt><trkpt lat="51.58880" lon="4.33369"></trkpt><trkpt lat="51.58909" lon="4.33641"></trkpt><trkpt lat="51.58934" lon="4.33828"></trkpt><trkpt lat="51.58994" lon="4.34224"></trkpt><trkpt lat="51.59001" lon="4.34318"></trkpt><trkpt lat="51.59003" lon="4.34390"></trkpt><trkpt lat="51.58161" lon="4.34274"></trkpt><trkpt lat="51.58012" lon="4.34252"></trkpt><trkpt lat="51.58000" lon="4.34258"></trkpt><trkpt lat="51.57992" lon="4.34247"></trkpt><trkpt lat="51.57922" lon="4.34182"></trkpt><trkpt lat="51.57913" lon="4.34169"></trkpt><trkpt lat="51.57899" lon="4.34139"></trkpt><trkpt lat="51.57893" lon="4.34115"></trkpt><trkpt lat="51.57812" lon="4.33518"></trkpt><trkpt lat="51.57794" lon="4.33428"></trkpt><trkpt lat="51.57772" lon="4.33347"></trkpt><trkpt lat="51.57760" lon="4.33323"></trkpt><trkpt lat="51.57755" lon="4.33316"></trkpt><trkpt lat="51.57742" lon="4.33283"></trkpt><trkpt lat="51.57738" lon="4.33200"></trkpt><trkpt lat="51.57723" lon="4.33120"></trkpt><trkpt lat="51.57705" lon="4.33072"></trkpt><trkpt lat="51.57663" lon="4.32983"></trkpt><trkpt lat="51.57655" lon="4.32963"></trkpt><trkpt lat="51.57573" lon="4.33048"></trkpt><trkpt lat="51.57456" lon="4.33162"></trkpt><trkpt lat="51.57348" lon="4.33332"></trkpt><trkpt lat="51.57294" lon="4.33445"></trkpt><trkpt lat="51.57011" lon="4.33903"></trkpt><trkpt lat="51.56987" lon="4.33937"></trkpt><trkpt lat="51.56960" lon="4.33971"></trkpt><trkpt lat="51.56775" lon="4.34155"></trkpt><trkpt lat="51.56845" lon="4.34295"></trkpt><trkpt lat="51.56917" lon="4.34407"></trkpt><trkpt lat="51.56933" lon="4.34427"></trkpt><trkpt lat="51.57109" lon="4.34585"></trkpt><trkpt lat="51.57125" lon="4.34585"></trkpt><trkpt lat="51.57165" lon="4.34567"></trkpt><trkpt lat="51.57193" lon="4.34566"></trkpt><trkpt lat="51.57214" lon="4.34572"></trkpt><trkpt lat="51.57238" lon="4.34586"></trkpt><trkpt lat="51.57256" lon="4.34609"></trkpt><trkpt lat="51.57298" lon="4.34703"></trkpt><trkpt lat="51.57201" lon="4.34832"></trkpt><trkpt lat="51.57152" lon="4.34903"></trkpt><trkpt lat="51.57085" lon="4.35021"></trkpt><trkpt lat="51.57002" lon="4.35157"></trkpt><trkpt lat="51.56987" lon="4.35175"></trkpt><trkpt lat="51.56962" lon="4.35196"></trkpt><trkpt lat="51.56837" lon="4.35253"></trkpt><trkpt lat="51.56798" lon="4.35266"></trkpt><trkpt lat="51.56708" lon="4.35281"></trkpt><trkpt lat="51.56683" lon="4.35291"></trkpt><trkpt lat="51.56613" lon="4.35339"></trkpt><trkpt lat="51.56567" lon="4.35394"></trkpt><trkpt lat="51.56546" lon="4.35413"></trkpt><trkpt lat="51.56440" lon="4.35462"></trkpt><trkpt lat="51.56374" lon="4.35521"></trkpt><trkpt lat="51.56310" lon="4.35594"></trkpt><trkpt lat="51.56196" lon="4.35635"></trkpt><trkpt lat="51.56166" lon="4.35656"></trkpt><trkpt lat="51.56149" lon="4.35676"></trkpt><trkpt lat="51.56001" lon="4.35893"></trkpt><trkpt lat="51.55993" lon="4.35914"></trkpt><trkpt lat="51.55967" lon="4.35956"></trkpt><trkpt lat="51.55953" lon="4.35962"></trkpt><trkpt lat="51.55892" lon="4.36015"></trkpt><trkpt lat="51.55834" lon="4.36038"></trkpt><trkpt lat="51.55772" lon="4.36044"></trkpt><trkpt lat="51.55752" lon="4.36038"></trkpt><trkpt lat="51.55716" lon="4.36016"></trkpt><trkpt lat="51.55664" lon="4.35976"></trkpt><trkpt lat="51.55638" lon="4.35951"></trkpt><trkpt lat="51.55487" lon="4.35778"></trkpt><trkpt lat="51.55461" lon="4.35742"></trkpt><trkpt lat="51.55429" lon="4.35687"></trkpt><trkpt lat="51.55377" lon="4.35574"></trkpt><trkpt lat="51.55338" lon="4.35497"></trkpt><trkpt lat="51.55405" lon="4.35435"></trkpt><trkpt lat="51.55456" lon="4.35427"></trkpt><trkpt lat="51.55479" lon="4.35415"></trkpt><trkpt lat="51.55487" lon="4.35407"></trkpt><trkpt lat="51.55529" lon="4.35335"></trkpt><trkpt lat="51.55558" lon="4.35299"></trkpt><trkpt lat="51.55590" lon="4.35274"></trkpt><trkpt lat="51.55629" lon="4.35258"></trkpt><trkpt lat="51.55644" lon="4.35242"></trkpt><trkpt lat="51.55673" lon="4.35149"></trkpt><trkpt lat="51.55571" lon="4.35005"></trkpt><trkpt lat="51.55629" lon="4.34948"></trkpt><trkpt lat="51.55637" lon="4.34932"></trkpt><trkpt lat="51.55635" lon="4.34923"></trkpt><trkpt lat="51.55380" lon="4.34353"></trkpt><trkpt lat="51.55346" lon="4.34322"></trkpt><trkpt lat="51.55329" lon="4.34298"></trkpt><trkpt lat="51.55233" lon="4.34096"></trkpt><trkpt lat="51.55126" lon="4.33788"></trkpt><trkpt lat="51.55111" lon="4.33760"></trkpt><trkpt lat="51.55033" lon="4.33534"></trkpt><trkpt lat="51.54795" lon="4.33774"></trkpt><trkpt lat="51.54606" lon="4.33975"></trkpt><trkpt lat="51.54584" lon="4.33991"></trkpt><trkpt lat="51.54502" lon="4.34039"></trkpt><trkpt lat="51.54268" lon="4.34164"></trkpt><trkpt lat="51.54165" lon="4.34216"></trkpt><trkpt lat="51.54039" lon="4.34277"></trkpt><trkpt lat="51.53998" lon="4.34293"></trkpt><trkpt lat="51.53966" lon="4.34289"></trkpt><trkpt lat="51.53825" lon="4.34223"></trkpt><trkpt lat="51.53824" lon="4.34215"></trkpt><trkpt lat="51.53820" lon="4.34209"></trkpt><trkpt lat="51.53815" lon="4.34210"></trkpt><trkpt lat="51.53811" lon="4.34216"></trkpt><trkpt lat="51.53812" lon="4.34228"></trkpt><trkpt lat="51.53802" lon="4.34228"></trkpt><trkpt lat="51.53691" lon="4.34177"></trkpt><trkpt lat="51.53669" lon="4.34160"></trkpt><trkpt lat="51.53495" lon="4.34075"></trkpt><trkpt lat="51.53487" lon="4.34074"></trkpt><trkpt lat="51.53477" lon="4.34077"></trkpt><trkpt lat="51.53470" lon="4.34054"></trkpt><trkpt lat="51.53466" lon="4.34050"></trkpt><trkpt lat="51.53451" lon="4.34040"></trkpt><trkpt lat="51.53443" lon="4.34041"></trkpt><trkpt lat="51.53333" lon="4.33980"></trkpt><trkpt lat="51.53328" lon="4.33974"></trkpt><trkpt lat="51.53324" lon="4.33956"></trkpt><trkpt lat="51.53364" lon="4.33692"></trkpt><trkpt lat="51.53361" lon="4.33664"></trkpt><trkpt lat="51.53367" lon="4.33651"></trkpt><trkpt lat="51.53401" lon="4.33421"></trkpt><trkpt lat="51.53406" lon="4.33401"></trkpt><trkpt lat="51.53426" lon="4.33241"></trkpt><trkpt lat="51.53445" lon="4.33110"></trkpt><trkpt lat="51.53446" lon="4.33082"></trkpt><trkpt lat="51.53442" lon="4.32994"></trkpt><trkpt lat="51.53444" lon="4.32972"></trkpt><trkpt lat="51.53485" lon="4.32867"></trkpt><trkpt lat="51.53519" lon="4.32765"></trkpt><trkpt lat="51.53556" lon="4.32673"></trkpt><trkpt lat="51.53675" lon="4.32414"></trkpt><trkpt lat="51.53792" lon="4.32152"></trkpt><trkpt lat="51.53798" lon="4.32132"></trkpt><trkpt lat="51.53802" lon="4.32103"></trkpt><trkpt lat="51.53860" lon="4.31966"></trkpt><trkpt lat="51.53919" lon="4.31815"></trkpt><trkpt lat="51.54022" lon="4.31562"></trkpt><trkpt lat="51.54028" lon="4.31541"></trkpt><trkpt lat="51.54031" lon="4.31519"></trkpt><trkpt lat="51.54031" lon="4.31489"></trkpt><trkpt lat="51.54026" lon="4.31461"></trkpt><trkpt lat="51.54014" lon="4.31434"></trkpt><trkpt lat="51.54005" lon="4.31421"></trkpt><trkpt lat="51.53986" lon="4.31408"></trkpt><trkpt lat="51.53781" lon="4.31328"></trkpt><trkpt lat="51.53773" lon="4.31318"></trkpt><trkpt lat="51.53767" lon="4.31305"></trkpt><trkpt lat="51.53772" lon="4.31288"></trkpt><trkpt lat="51.53790" lon="4.31246"></trkpt><trkpt lat="51.53791" lon="4.31236"></trkpt><trkpt lat="51.53783" lon="4.31150"></trkpt><trkpt lat="51.53785" lon="4.31111"></trkpt><trkpt lat="51.53818" lon="4.30984"></trkpt><trkpt lat="51.53733" lon="4.30925"></trkpt><trkpt lat="51.53702" lon="4.30889"></trkpt><trkpt lat="51.53433" lon="4.30783"></trkpt><trkpt lat="51.53419" lon="4.30772"></trkpt><trkpt lat="51.53395" lon="4.30744"></trkpt><trkpt lat="51.53193" lon="4.30645"></trkpt><trkpt lat="51.53170" lon="4.30629"></trkpt><trkpt lat="51.53127" lon="4.30571"></trkpt><trkpt lat="51.53081" lon="4.30637"></trkpt><trkpt lat="51.52938" lon="4.30803"></trkpt><trkpt lat="51.52781" lon="4.30945"></trkpt><trkpt lat="51.52738" lon="4.30977"></trkpt><trkpt lat="51.52701" lon="4.31046"></trkpt><trkpt lat="51.52691" lon="4.31075"></trkpt><trkpt lat="51.52670" lon="4.31163"></trkpt><trkpt lat="51.52655" lon="4.31210"></trkpt><trkpt lat="51.52638" lon="4.31234"></trkpt><trkpt lat="51.52630" lon="4.31201"></trkpt><trkpt lat="51.52628" lon="4.31169"></trkpt><trkpt lat="51.52636" lon="4.31130"></trkpt><trkpt lat="51.52669" lon="4.31029"></trkpt><trkpt lat="51.52671" lon="4.31014"></trkpt><trkpt lat="51.52668" lon="4.30983"></trkpt><trkpt lat="51.52651" lon="4.30915"></trkpt><trkpt lat="51.52645" lon="4.30882"></trkpt><trkpt lat="51.52646" lon="4.30867"></trkpt><trkpt lat="51.52651" lon="4.30852"></trkpt><trkpt lat="51.52724" lon="4.30712"></trkpt><trkpt lat="51.52744" lon="4.30699"></trkpt><trkpt lat="51.52815" lon="4.30670"></trkpt><trkpt lat="51.52838" lon="4.30666"></trkpt><trkpt lat="51.52845" lon="4.30660"></trkpt><trkpt lat="51.52850" lon="4.30648"></trkpt><trkpt lat="51.52851" lon="4.30639"></trkpt><trkpt lat="51.52870" lon="4.30556"></trkpt><trkpt lat="51.52905" lon="4.30456"></trkpt><trkpt lat="51.52996" lon="4.30217"></trkpt><trkpt lat="51.53015" lon="4.30145"></trkpt><trkpt lat="51.53020" lon="4.30089"></trkpt><trkpt lat="51.53028" lon="4.30053"></trkpt><trkpt lat="51.53034" lon="4.30035"></trkpt><trkpt lat="51.53075" lon="4.29943"></trkpt><trkpt lat="51.53082" lon="4.29922"></trkpt><trkpt lat="51.53086" lon="4.29881"></trkpt><trkpt lat="51.53080" lon="4.29827"></trkpt><trkpt lat="51.53077" lon="4.29767"></trkpt><trkpt lat="51.53060" lon="4.29768"></trkpt><trkpt lat="51.53055" lon="4.29765"></trkpt><trkpt lat="51.53054" lon="4.29759"></trkpt><trkpt lat="51.52979" lon="4.29764"></trkpt><trkpt lat="51.52972" lon="4.29773"></trkpt><trkpt lat="51.52946" lon="4.29779"></trkpt><trkpt lat="51.52909" lon="4.29774"></trkpt><trkpt lat="51.52849" lon="4.29750"></trkpt><trkpt lat="51.52837" lon="4.29753"></trkpt><trkpt lat="51.52821" lon="4.29750"></trkpt><trkpt lat="51.52811" lon="4.29753"></trkpt><trkpt lat="51.52804" lon="4.29760"></trkpt><trkpt lat="51.52789" lon="4.29801"></trkpt><trkpt lat="51.52778" lon="4.29820"></trkpt><trkpt lat="51.52760" lon="4.29833"></trkpt><trkpt lat="51.52753" lon="4.29836"></trkpt><trkpt lat="51.52688" lon="4.29788"></trkpt><trkpt lat="51.52622" lon="4.29733"></trkpt><trkpt lat="51.52602" lon="4.29731"></trkpt><trkpt lat="51.52558" lon="4.29693"></trkpt><trkpt lat="51.52547" lon="4.29670"></trkpt><trkpt lat="51.52460" lon="4.29600"></trkpt><trkpt lat="51.52421" lon="4.29571"></trkpt><trkpt lat="51.52416" lon="4.29571"></trkpt><trkpt lat="51.52387" lon="4.29550"></trkpt><trkpt lat="51.52328" lon="4.29493"></trkpt><trkpt lat="51.52227" lon="4.29411"></trkpt><trkpt lat="51.52194" lon="4.29396"></trkpt><trkpt lat="51.52101" lon="4.29317"></trkpt><trkpt lat="51.52025" lon="4.29262"></trkpt><trkpt lat="51.51984" lon="4.29241"></trkpt><trkpt lat="51.51955" lon="4.29218"></trkpt><trkpt lat="51.51931" lon="4.29194"></trkpt><trkpt lat="51.51864" lon="4.29143"></trkpt><trkpt lat="51.51861" lon="4.29133"></trkpt><trkpt lat="51.51863" lon="4.29125"></trkpt><trkpt lat="51.51847" lon="4.29112"></trkpt><trkpt lat="51.51819" lon="4.29093"></trkpt><trkpt lat="51.51806" lon="4.29088"></trkpt><trkpt lat="51.51791" lon="4.29088"></trkpt><trkpt lat="51.51770" lon="4.29095"></trkpt><trkpt lat="51.51751" lon="4.29093"></trkpt><trkpt lat="51.51740" lon="4.29083"></trkpt><trkpt lat="51.51728" lon="4.29060"></trkpt><trkpt lat="51.51657" lon="4.28881"></trkpt><trkpt lat="51.51612" lon="4.28829"></trkpt><trkpt lat="51.51603" lon="4.28845"></trkpt><trkpt lat="51.51549" lon="4.28907"></trkpt><trkpt lat="51.51540" lon="4.28818"></trkpt><trkpt lat="51.51535" lon="4.28799"></trkpt><trkpt lat="51.51505" lon="4.28558"></trkpt><trkpt lat="51.51498" lon="4.28569"></trkpt><trkpt lat="51.51441" lon="4.28626"></trkpt><trkpt lat="51.51408" lon="4.28653"></trkpt><trkpt lat="51.51378" lon="4.28683"></trkpt><trkpt lat="51.51360" lon="4.28698"></trkpt><trkpt lat="51.51349" lon="4.28702"></trkpt><trkpt lat="51.51221" lon="4.28712"></trkpt><trkpt lat="51.51219" lon="4.28738"></trkpt><trkpt lat="51.51211" lon="4.28777"></trkpt><trkpt lat="51.51195" lon="4.28839"></trkpt><trkpt lat="51.51158" lon="4.28847"></trkpt><trkpt lat="51.51152" lon="4.28853"></trkpt><trkpt lat="51.51137" lon="4.28844"></trkpt><trkpt lat="51.51096" lon="4.28839"></trkpt><trkpt lat="51.50944" lon="4.28889"></trkpt><trkpt lat="51.50901" lon="4.28890"></trkpt><trkpt lat="51.50857" lon="4.28871"></trkpt><trkpt lat="51.50850" lon="4.28865"></trkpt><trkpt lat="51.50850" lon="4.28877"></trkpt><trkpt lat="51.50844" lon="4.28885"></trkpt><trkpt lat="51.50788" lon="4.28896"></trkpt><trkpt lat="51.50732" lon="4.28912"></trkpt><trkpt lat="51.50659" lon="4.29009"></trkpt><trkpt lat="51.50633" lon="4.29061"></trkpt><trkpt lat="51.50616" lon="4.29089"></trkpt><trkpt lat="51.50617" lon="4.29015"></trkpt><trkpt lat="51.50604" lon="4.28978"></trkpt><trkpt lat="51.50614" lon="4.28854"></trkpt><trkpt lat="51.50617" lon="4.28845"></trkpt><trkpt lat="51.50621" lon="4.28793"></trkpt><trkpt lat="51.50641" lon="4.28776"></trkpt><trkpt lat="51.50653" lon="4.28761"></trkpt><trkpt lat="51.50658" lon="4.28748"></trkpt><trkpt lat="51.50663" lon="4.28726"></trkpt><trkpt lat="51.50662" lon="4.28714"></trkpt><trkpt lat="51.50677" lon="4.28701"></trkpt><trkpt lat="51.50655" lon="4.28648"></trkpt><trkpt lat="51.50639" lon="4.28630"></trkpt><trkpt lat="51.50630" lon="4.28609"></trkpt><trkpt lat="51.50611" lon="4.28553"></trkpt><trkpt lat="51.50601" lon="4.28545"></trkpt><trkpt lat="51.50581" lon="4.28540"></trkpt><trkpt lat="51.50569" lon="4.28517"></trkpt><trkpt lat="51.50531" lon="4.28536"></trkpt><trkpt lat="51.50448" lon="4.28554"></trkpt><trkpt lat="51.50442" lon="4.28551"></trkpt><trkpt lat="51.50436" lon="4.28545"></trkpt><trkpt lat="51.50423" lon="4.28517"></trkpt><trkpt lat="51.50409" lon="4.28479"></trkpt><trkpt lat="51.50396" lon="4.28461"></trkpt><trkpt lat="51.50384" lon="4.28453"></trkpt><trkpt lat="51.50362" lon="4.28444"></trkpt><trkpt lat="51.50327" lon="4.28452"></trkpt><trkpt lat="51.50271" lon="4.28515"></trkpt><trkpt lat="51.50259" lon="4.28547"></trkpt><trkpt lat="51.50253" lon="4.28554"></trkpt><trkpt lat="51.50215" lon="4.28577"></trkpt><trkpt lat="51.50148" lon="4.28612"></trkpt><trkpt lat="51.50102" lon="4.28629"></trkpt><trkpt lat="51.50098" lon="4.28633"></trkpt><trkpt lat="51.50121" lon="4.28773"></trkpt><trkpt lat="51.50126" lon="4.28792"></trkpt><trkpt lat="51.50084" lon="4.28804"></trkpt><trkpt lat="51.50069" lon="4.28703"></trkpt><trkpt lat="51.50057" lon="4.28641"></trkpt><trkpt lat="51.49977" lon="4.28290"></trkpt><trkpt lat="51.49959" lon="4.28170"></trkpt><trkpt lat="51.49963" lon="4.28150"></trkpt><trkpt lat="51.49960" lon="4.28139"></trkpt><trkpt lat="51.49955" lon="4.28128"></trkpt><trkpt lat="51.49949" lon="4.28119"></trkpt><trkpt lat="51.49858" lon="4.28218"></trkpt><trkpt lat="51.49842" lon="4.28230"></trkpt><trkpt lat="51.49818" lon="4.28257"></trkpt><trkpt lat="51.49814" lon="4.28266"></trkpt><trkpt lat="51.49765" lon="4.28318"></trkpt><trkpt lat="51.49731" lon="4.28352"></trkpt><trkpt lat="51.49727" lon="4.28350"></trkpt><trkpt lat="51.49712" lon="4.28364"></trkpt><trkpt lat="51.49723" lon="4.28396"></trkpt><trkpt lat="51.49721" lon="4.28399"></trkpt><trkpt lat="51.49703" lon="4.28411"></trkpt><trkpt lat="51.49662" lon="4.28423"></trkpt><trkpt lat="51.49642" lon="4.28431"></trkpt><trkpt lat="51.49578" lon="4.28465"></trkpt><trkpt lat="51.49536" lon="4.28492"></trkpt><trkpt lat="51.49523" lon="4.28507"></trkpt><trkpt lat="51.49479" lon="4.28586"></trkpt><trkpt lat="51.49457" lon="4.28629"></trkpt><trkpt lat="51.49423" lon="4.28707"></trkpt><trkpt lat="51.49431" lon="4.28768"></trkpt><trkpt lat="51.49406" lon="4.28793"></trkpt><trkpt lat="51.49404" lon="4.28837"></trkpt><trkpt lat="51.49393" lon="4.28886"></trkpt><trkpt lat="51.49373" lon="4.28955"></trkpt><trkpt lat="51.49341" lon="4.29032"></trkpt><trkpt lat="51.49295" lon="4.29124"></trkpt><trkpt lat="51.49284" lon="4.29149"></trkpt><trkpt lat="51.49288" lon="4.29157"></trkpt><trkpt lat="51.49316" lon="4.29188"></trkpt><trkpt lat="51.49416" lon="4.29280"></trkpt><trkpt lat="51.49488" lon="4.29328"></trkpt><trkpt lat="51.49527" lon="4.29346"></trkpt></trkseg></trk></gpx>